{"version": 0.6, "generator": "Overpass API 0.7.56.9 76e5016d", "osm3s": {"timestamp_osm_base": "2021-10-17T17:20:29Z", "copyright": "The data included in this document is from www.openstreetmap.org. The data is made available under ODbL."}, "elements": [{"type": "node", "id": 377856942, "lat": 37.7881917, "lon": -122.403379, "tags": {"addr:housenumber": "690", "addr:street": "Market Street", "amenity": "atm", "has_vestibule_atm": "yes", "name": "Mechanics Bank", "operator": "Wachovia", "source": "survey", "vestibule_atm_capacity": "1", "vestibule_atm_operator": "Wachovia"}}, {"type": "node", "id": 377877386, "lat": 37.786761, "lon": -122.4135248, "tags": {"amenity": "atm", "created_by": "Potlatch 0.10f"}}, {"type": "node", "id": 377877460, "lat": 37.7866902, "lon": -122.4142951, "tags": {"amenity": "atm"}}, {"type": "node", "id": 381963907, "lat": 37.7887771, "lon": -122.411522, "tags": {"amenity": "atm"}}, {"type": "node", "id": 381974237, "lat": 37.7882955, "lon": -122.4166247, "tags": {"amenity": "atm", "operator": "City ATM"}}, {"type": "node", "id": 386581398, "lat": 37.7900058, "lon": -122.400779, "tags": {"amenity": "atm", "brand": "Wells Fargo", "brand:wikidata": "Q744149", "brand:wikipedia": "en:Wells Fargo", "capacity": "2", "name": "Wells Fargo", "operator": "Wells Fargo", "operator:wikidata": "Q744149", "operator:wikipedia": "en:Wells Fargo"}}, {"type": "node", "id": 386585894, "lat": 37.7915997, "lon": -122.398796, "tags": {"amenity": "atm", "brand": "Bank of the West", "brand:wikidata": "Q2881919", "brand:wikipedia": "en:Bank of the West", "capacity": "1", "name": "Bank of the West", "operator": "Bank of the West", "operator:wikidata": "Q2881919", "operator:wikipedia": "en:Bank of the West", "outside": "yes"}}, {"type": "node", "id": 386588495, "lat": 37.7920406, "lon": -122.397509, "tags": {"amenity": "atm", "brand": "Wells Fargo", "brand:wikidata": "Q744149", "brand:wikipedia": "en:Wells Fargo", "capacity": "3", "name": "Wells Fargo", "operator": "Wells Fargo", "operator:wikidata": "Q744149", "operator:wikipedia": "en:Wells Fargo", "outside": "yes"}}, {"type": "node", "id": 387254038, "lat": 37.7927744, "lon": -122.4225935, "tags": {"amenity": "atm", "operator": "Cypress Advantage"}}, {"type": "node", "id": 388233184, "lat": 37.788874, "lon": -122.408661, "tags": {"amenity": "atm", "brand": "Bank of America", "brand:wikidata": "Q487907", "brand:wikipedia": "en:Bank of America", "capacity": "2", "name": "Bank of America", "operator": "Bank of America", "operator:wikidata": "Q487907", "operator:wikipedia": "en:Bank of America", "outside": "yes", "source": "survey"}}, {"type": "node", "id": 388233459, "lat": 37.7888062, "lon": -122.4086533, "tags": {"amenity": "atm", "capacity": "1", "operator": "Swipe", "source": "survey"}}, {"type": "node", "id": 389398233, "lat": 37.7828274, "lon": -122.4024121, "tags": {"amenity": "atm", "capacity": "1", "outside": "yes", "source": "survey"}}, {"type": "node", "id": 389450795, "lat": 37.7710824, "lon": -122.4132364, "tags": {"amenity": "atm", "capacity": "1", "outside": "yes", "source": "survey"}}, {"type": "node", "id": 390212038, "lat": 37.7841229, "lon": -122.4208354, "tags": {"amenity": "atm", "capacity": "1", "operator": "Swipe", "outside": "yes", "source": "survey"}}, {"type": "node", "id": 392203047, "lat": 37.7901085, "lon": -122.400866, "tags": {"amenity": "atm", "brand": "Wells Fargo", "brand:wikidata": "Q744149", "brand:wikipedia": "en:Wells Fargo", "capacity": "2", "name": "Wells Fargo", "operator": "Wells Fargo", "operator:wikidata": "Q744149", "operator:wikipedia": "en:Wells Fargo", "outside": "yes", "source": "survey"}}, {"type": "node", "id": 393126577, "lat": 37.7861745, "lon": -122.4168233, "tags": {"amenity": "atm", "capacity": "1", "outside": "yes", "source": "survey"}}, {"type": "node", "id": 393128287, "lat": 37.7859344, "lon": -122.4185388, "tags": {"amenity": "atm", "capacity": "1", "outside": "yes", "source": "survey"}}, {"type": "node", "id": 393129645, "lat": 37.7857617, "lon": -122.4199789, "tags": {"amenity": "atm", "capacity": "1", "operator": "Swipe", "outside": "yes", "source": "survey"}}, {"type": "node", "id": 393131266, "lat": 37.7859466, "lon": -122.4202888, "tags": {"amenity": "atm", "capacity": "1", "operator": "Swipe", "outside": "yes", "source": "survey"}}, {"type": "node", "id": 393131630, "lat": 37.7859195, "lon": -122.4204003, "tags": {"amenity": "atm", "capacity": "1", "operator": "City ATM", "outside": "yes", "source": "survey"}}, {"type": "node", "id": 412087509, "lat": 37.7983501, "lon": -122.4223774, "tags": {"amenity": "atm", "capacity": "1", "operator": "Bank of America", "outside": "yes", "source": "survey"}}, {"type": "node", "id": 412102375, "lat": 37.796455, "lon": -122.4220137, "tags": {"amenity": "atm", "outside": "yes", "source": "survey"}}, {"type": "node", "id": 413377295, "lat": 37.8024601, "lon": -122.4029122, "tags": {"amenity": "atm", "capacity": "1", "operator": "Wells Fargo", "outside": "yes", "source": "survey"}}, {"type": "node", "id": 413382205, "lat": 37.7974414, "lon": -122.4018908, "tags": {"amenity": "atm", "capacity": "1", "operator": "Swipe", "outside": "yes", "source": "survey"}}, {"type": "node", "id": 414258450, "lat": 37.7649184, "lon": -122.4203424, "tags": {"amenity": "atm", "check_date": "2021-03-31", "operator": "Wells Fargo"}}, {"type": "node", "id": 414259032, "lat": 37.7647569, "lon": -122.4217024, "tags": {"amenity": "atm", "check_date": "2021-03-31"}}, {"type": "node", "id": 414259048, "lat": 37.7654093, "lon": -122.4214241, "tags": {"amenity": "atm"}}, {"type": "node", "id": 415565233, "lat": 37.7923185, "lon": -122.394046, "tags": {"amenity": "atm", "brand": "Wells Fargo", "brand:wikidata": "Q744149", "brand:wikipedia": "en:Wells Fargo", "capacity": "2", "name": "Wells Fargo", "operator": "Wells Fargo", "operator:wikidata": "Q744149", "operator:wikipedia": "en:Wells Fargo", "outside": "yes", "source": "survey", "wheelchair": "yes"}}, {"type": "node", "id": 415566362, "lat": 37.7894932, "lon": -122.397698, "tags": {"amenity": "atm", "brand": "Bank of America", "brand:wikidata": "Q487907", "brand:wikipedia": "en:Bank of America", "capacity": "2", "name": "Bank of America", "operator": "Bank of America", "operator:wikidata": "Q487907", "operator:wikipedia": "en:Bank of America", "outside": "yes", "source": "survey"}}, {"type": "node", "id": 429640579, "lat": 37.7855315, "lon": -122.4291459, "tags": {"amenity": "atm", "capacity": "2", "operator": "Union Bank of California", "outside": "yes", "source": "survey"}}, {"type": "node", "id": 434700892, "lat": 37.802465, "lon": -122.40247, "tags": {"amenity": "atm", "brand": "Wells Fargo", "brand:wikidata": "Q744149", "brand:wikipedia": "en:Wells Fargo", "name": "Wells Fargo", "operator": "Wells Fargo", "operator:wikidata": "Q744149", "operator:wikipedia": "en:Wells Fargo"}}, {"type": "node", "id": 539993883, "lat": 37.7659198, "lon": -122.401843, "tags": {"amenity": "atm", "brand": "Wells Fargo", "brand:wikidata": "Q744149", "brand:wikipedia": "en:Wells Fargo", "name": "Wells Fargo", "operator": "Wells Fargo", "operator:wikidata": "Q744149", "operator:wikipedia": "en:Wells Fargo"}}, {"type": "node", "id": 544349509, "lat": 37.760605, "lon": -122.438379, "tags": {"amenity": "atm", "name": "Rainbow market", "shop": "convenience"}}, {"type": "node", "id": 621546942, "lat": 37.8006183, "lon": -122.4369573, "tags": {"amenity": "atm", "operator": "Wells Fargo ATM"}}, {"type": "node", "id": 621546943, "lat": 37.8005823, "lon": -122.4368956, "tags": {"amenity": "atm", "note": "Drive-through", "operator": "Wells Fargo"}}, {"type": "node", "id": 677291106, "lat": 37.7808654, "lon": -122.4636925, "tags": {"amenity": "atm", "check_date": "2021-05-01", "operator": "Bank of America", "source": "local_knowledge"}}, {"type": "node", "id": 734841519, "lat": 37.7621857, "lon": -122.4385594, "tags": {"addr:housenumber": "4151", "addr:street": "17th Street", "amenity": "atm", "name": "Eureka Market", "shop": "convenience"}}, {"type": "node", "id": 808930853, "lat": 37.7856352, "lon": -122.407593, "tags": {"amenity": "atm", "brand": "Wells Fargo", "brand:wikidata": "Q744149", "brand:wikipedia": "en:Wells Fargo", "name": "Wells Fargo", "operator": "Wells Fargo", "operator:wikidata": "Q744149", "operator:wikipedia": "en:Wells Fargo", "wheelchair": "limited"}}, {"type": "node", "id": 808930858, "lat": 37.7856373, "lon": -122.4075636, "tags": {"amenity": "atm", "operator": "Swipe"}}, {"type": "node", "id": 1277684422, "lat": 37.7687484, "lon": -122.43525, "tags": {"amenity": "atm"}}, {"type": "node", "id": 1494512589, "lat": 37.7661442, "lon": -122.4314699, "tags": {"amenity": "atm"}}, {"type": "node", "id": 1610908180, "lat": 37.7646604, "lon": -122.4194872, "tags": {"amenity": "atm", "operator": "Bank of America"}}, {"type": "node", "id": 1667800975, "lat": 37.7904188, "lon": -122.3927203, "tags": {"amenity": "atm", "currency:USD": "yes", "drive_through": "no", "operator": "Charles Schwab Bank", "source": "Local knowledge"}}, {"type": "node", "id": 1849118245, "lat": 37.7765458, "lon": -122.394861, "tags": {"amenity": "atm", "brand": "Bank of America", "brand:wikidata": "Q487907", "brand:wikipedia": "en:Bank of America", "name": "Bank of America", "operator": "Bank of America", "operator:wikidata": "Q487907", "operator:wikipedia": "en:Bank of America", "source": "survey"}}, {"type": "node", "id": 1880208573, "lat": 37.7703366, "lon": -122.4038355, "tags": {"amenity": "atm", "name": "Bank of America"}}, {"type": "node", "id": 1880214116, "lat": 37.77102, "lon": -122.407473, "tags": {"amenity": "atm", "brand": "Wells Fargo", "brand:wikidata": "Q744149", "brand:wikipedia": "en:Wells Fargo", "name": "Wells Fargo", "operator": "Wells Fargo", "operator:wikidata": "Q744149", "operator:wikipedia": "en:Wells Fargo", "wheelchair": "yes"}}, {"type": "node", "id": 1940406058, "lat": 37.7880978, "lon": -122.4203689, "tags": {"amenity": "atm", "outside": "no", "source": "survey"}}, {"type": "node", "id": 2220968870, "lat": 37.7907225, "lon": -122.4205738, "tags": {"amenity": "atm", "operator": "Chase"}}, {"type": "node", "id": 2220968871, "lat": 37.7908772, "lon": -122.420651, "tags": {"amenity": "atm", "operator": "Chase"}}, {"type": "node", "id": 2304346638, "lat": 37.7180919, "lon": -122.4743198, "tags": {"addr:housenumber": "35", "addr:postcode": "94132", "addr:street": "Cambon Drive", "amenity": "atm", "name": "Wells Fargo"}}, {"type": "node", "id": 2321299166, "lat": 37.7607024, "lon": -122.4348025, "tags": {"amenity": "atm", "name": "Bank of America"}}, {"type": "node", "id": 2341054068, "lat": 37.7948774, "lon": -122.4217274, "tags": {"amenity": "atm", "name": "Union Nails ATM"}}, {"type": "node", "id": 2365852851, "lat": 37.8082751, "lon": -122.4110139, "tags": {"amenity": "atm"}}, {"type": "node", "id": 2365852856, "lat": 37.8087724, "lon": -122.4102155, "tags": {"amenity": "atm"}}, {"type": "node", "id": 2365852871, "lat": 37.8090794, "lon": -122.4119504, "tags": {"amenity": "atm"}}, {"type": "node", "id": 2365852894, "lat": 37.8107516, "lon": -122.4105661, "tags": {"amenity": "atm"}}, {"type": "node", "id": 2501316102, "lat": 37.7638858, "lon": -122.4574953, "tags": {"amenity": "atm", "name": "Chase ATM"}}, {"type": "node", "id": 2713414594, "lat": 37.7225171, "lon": -122.478192, "tags": {"amenity": "atm", "brand": "Bank of America", "wheelchair": "yes"}}, {"type": "node", "id": 2713414595, "lat": 37.7225277, "lon": -122.4782288, "tags": {"amenity": "atm", "brand": "Wells Fargo", "wheelchair": "yes"}}, {"type": "node", "id": 2713443925, "lat": 37.7222088, "lon": -122.4786454, "tags": {"amenity": "atm", "brand": "Chase Bank"}}, {"type": "node", "id": 2713448989, "lat": 37.7215586, "lon": -122.4756095, "tags": {"amenity": "atm"}}, {"type": "node", "id": 2819146869, "lat": 37.7729268, "lon": -122.4375261, "tags": {"amenity": "atm"}}, {"type": "node", "id": 3161882181, "lat": 37.7695872, "lon": -122.4667546, "tags": {"amenity": "atm", "name": "Wells Fargo"}}, {"type": "node", "id": 3161994405, "lat": 37.7961484, "lon": -122.393994, "tags": {"amenity": "atm", "brand": "Bank of America", "brand:wikidata": "Q487907", "brand:wikipedia": "en:Bank of America", "name": "Bank of America", "operator": "Bank of America", "operator:wikidata": "Q487907", "operator:wikipedia": "en:Bank of America", "wheelchair": "yes"}}, {"type": "node", "id": 3397791960, "lat": 37.7833247, "lon": -122.405496, "tags": {"amenity": "atm", "brand": "Chase", "brand:wikidata": "Q524629", "brand:wikipedia": "en:Chase Bank", "name": "Chase", "operator": "Chase", "operator:wikidata": "Q524629", "operator:wikipedia": "en:Chase Bank"}}, {"type": "node", "id": 3397841668, "lat": 37.7842145, "lon": -122.403604, "tags": {"amenity": "atm", "brand": "Chase", "brand:wikidata": "Q524629", "brand:wikipedia": "en:Chase Bank", "name": "Chase", "operator": "Chase", "operator:wikidata": "Q524629", "operator:wikipedia": "en:Chase Bank"}}, {"type": "node", "id": 3397934789, "lat": 37.7860894, "lon": -122.405749, "tags": {"amenity": "atm", "brand": "Wells Fargo", "brand:wikidata": "Q744149", "brand:wikipedia": "en:Wells Fargo", "name": "Wells Fargo", "operator": "Wells Fargo", "operator:wikidata": "Q744149", "operator:wikipedia": "en:Wells Fargo"}}, {"type": "node", "id": 3408771316, "lat": 37.7896884, "lon": -122.404168, "tags": {"amenity": "atm", "brand": "Chase", "brand:wikidata": "Q524629", "brand:wikipedia": "en:Chase Bank", "name": "Chase", "operator": "Chase", "operator:wikidata": "Q524629", "operator:wikipedia": "en:Chase Bank"}}, {"type": "node", "id": 3455075354, "lat": 37.7831775, "lon": -122.397945, "tags": {"amenity": "atm", "brand": "Bank of America", "brand:wikidata": "Q487907", "brand:wikipedia": "en:Bank of America", "name": "Bank of America", "operator": "Bank of America", "operator:wikidata": "Q487907", "operator:wikipedia": "en:Bank of America"}}, {"type": "node", "id": 3455075364, "lat": 37.7848702, "lon": -122.400057, "tags": {"amenity": "atm", "brand": "Wells Fargo", "brand:wikidata": "Q744149", "brand:wikipedia": "en:Wells Fargo", "name": "Wells Fargo", "operator": "Wells Fargo", "operator:wikidata": "Q744149", "operator:wikipedia": "en:Wells Fargo"}}, {"type": "node", "id": 3489778569, "lat": 37.7813003, "lon": -122.419171, "tags": {"amenity": "atm", "brand": "Golden 1 Credit Union", "brand:wikidata": "Q7736976", "brand:wikipedia": "en:Golden 1 Credit Union", "check_date": "2021-05-07", "drive_through": "no", "name": "Golden 1 Credit Union", "operator": "Golden 1 Credit Union", "operator:wikidata": "Q7736976", "operator:wikipedia": "en:Golden 1 Credit Union", "source": "Survey"}}, {"type": "node", "id": 3504141938, "lat": 37.7514185, "lon": -122.4338583, "tags": {"addr:city": "San Francisco", "addr:housenumber": "4098", "addr:postcode": "94114", "addr:state": "CA", "addr:street": "24th Street", "amenity": "atm", "check_date": "2021-06-27", "drive_through": "no", "name": "Bank of America ATM", "operator": "Bank of America"}}, {"type": "node", "id": 3514138533, "lat": 37.7688954, "lon": -122.4284963, "tags": {"amenity": "atm", "drive_through": "no", "name": "Wells Fargo", "operator": "Wells Fargo"}}, {"type": "node", "id": 3565166181, "lat": 37.794538, "lon": -122.4213623, "tags": {"amenity": "atm", "drive_through": "no", "operator": "Wells Fargo"}}, {"type": "node", "id": 3860372903, "lat": 37.7331986, "lon": -122.505347, "tags": {"amenity": "atm", "drive_through": "no"}}, {"type": "node", "id": 3860414173, "lat": 37.7332167, "lon": -122.5031455, "tags": {"amenity": "atm"}}, {"type": "node", "id": 3881392633, "lat": 37.7529982, "lon": -122.4093098, "tags": {"amenity": "atm", "drive_through": "no", "operator": "Bank of America"}}, {"type": "node", "id": 3926542931, "lat": 37.8052995, "lon": -122.4153505, "tags": {"amenity": "atm", "name": "wells fargo"}}, {"type": "node", "id": 3985395760, "lat": 37.7963442, "lon": -122.40468, "tags": {"amenity": "atm", "brand": "East West Bank", "brand:wikidata": "Q3046549", "brand:wikipedia": "en:East West Bank", "drive_through": "no", "name": "East West Bank", "name:en": "East West Bank", "name:zh": "\u83ef\u7f8e\u9280\u884c", "name:zh-Hans": "\u534e\u7f8e\u94f6\u884c", "name:zh-Hant": "\u83ef\u7f8e\u9280\u884c", "operator": "East West Bank", "operator:wikidata": "Q3046549", "operator:wikipedia": "en:East West Bank"}}, {"type": "node", "id": 4012290641, "lat": 37.797796, "lon": -122.4308522, "tags": {"amenity": "atm", "name": "Wells Fargo ATM"}}, {"type": "node", "id": 4033949294, "lat": 37.7784965, "lon": -122.416306, "tags": {"amenity": "atm", "brand": "Wells Fargo", "brand:wikidata": "Q744149", "brand:wikipedia": "en:Wells Fargo", "name": "Wells Fargo", "operator": "Wells Fargo", "operator:wikidata": "Q744149", "operator:wikipedia": "en:Wells Fargo"}}, {"type": "node", "id": 4062451564, "lat": 37.7719905, "lon": -122.4227273, "tags": {"amenity": "atm"}}, {"type": "node", "id": 4077362418, "lat": 37.7962274, "lon": -122.4067872, "tags": {"amenity": "atm", "operator": "Industrial and Commercial Bank of China"}}, {"type": "node", "id": 4113423533, "lat": 37.7446735, "lon": -122.4206943, "tags": {"amenity": "atm", "operator": "Bank of America"}}, {"type": "node", "id": 4117790316, "lat": 37.7649102, "lon": -122.4195402, "tags": {"amenity": "atm", "operator": "usbank"}}, {"type": "node", "id": 4137095187, "lat": 37.7963048, "lon": -122.4217105, "tags": {"amenity": "atm"}}, {"type": "node", "id": 4156154839, "lat": 37.7951787, "lon": -122.4082414, "tags": {"amenity": "atm"}}, {"type": "node", "id": 4305625508, "lat": 37.7542482, "lon": -122.4795778, "tags": {"amenity": "atm", "name": "Bank of America"}}, {"type": "node", "id": 4332842867, "lat": 37.7753588, "lon": -122.418665, "tags": {"amenity": "atm", "brand": "Bank of America", "brand:wikidata": "Q487907", "brand:wikipedia": "en:Bank of America", "currency:USD": "yes", "name": "Bank of America", "operator": "Bank of America", "operator:wikidata": "Q487907", "operator:wikipedia": "en:Bank of America"}}, {"type": "node", "id": 4365583732, "lat": 37.7633655, "lon": -122.485139, "tags": {"addr:city": "San Francisco", "addr:housenumber": "2550", "addr:postcode": "94122-1515", "addr:state": "CA", "addr:street": "Irving Street", "amenity": "atm", "atm:network": "american express;cirrus;co-op;discover;mastercard;plus;pulse;visa", "blind:description:en": "yes", "cash_in": "yes", "currency:USD": "yes", "description": "SF Police Credit Union ATM\nNCR SelfServ 34 walk-up deposit-taking ATM", "drive_through": "no", "fee": "yes", "language:en": "yes", "level": "0", "name": "SF Police Credit Union ATM", "opening_hours": "24/7", "operator": "SF Police Credit Union", "phone": "+1 415 5643800", "ref": "CO6005", "speech_output:en": "yes", "website": "https://sfpcu.org/", "wheelchair": "yes"}}, {"type": "node", "id": 4384597289, "lat": 37.698231, "lon": -122.4805426, "tags": {"amenity": "atm", "opening_hours": "24/7", "operator": "Chase"}}, {"type": "node", "id": 4468275491, "lat": 37.7887821, "lon": -122.401744, "tags": {"amenity": "atm", "brand": "Bank of America", "brand:wikidata": "Q487907", "brand:wikipedia": "en:Bank of America", "name": "Bank of America", "opening_hours": "24/7", "operator": "Bank of America", "operator:wikidata": "Q487907", "operator:wikipedia": "en:Bank of America", "wheelchair": "limited"}}, {"type": "node", "id": 4482129190, "lat": 37.7981229, "lon": -122.4061259, "tags": {"amenity": "atm", "operator": "Bitcoin ATM"}}, {"type": "node", "id": 4482170889, "lat": 37.7870197, "lon": -122.404624, "tags": {"amenity": "atm", "brand": "Wells Fargo", "brand:wikidata": "Q744149", "brand:wikipedia": "en:Wells Fargo", "name": "Wells Fargo", "operator": "Wells Fargo", "operator:wikidata": "Q744149", "operator:wikipedia": "en:Wells Fargo", "wheelchair": "yes"}}, {"type": "node", "id": 4548818446, "lat": 37.8005815, "lon": -122.4389695, "tags": {"amenity": "atm", "name": "Chase"}}, {"type": "node", "id": 4548821687, "lat": 37.762888, "lon": -122.419783, "tags": {"amenity": "atm", "name": "Coinsource Bitcoin ATM"}}, {"type": "node", "id": 4548821688, "lat": 37.7553488, "lon": -122.4185426, "tags": {"amenity": "atm", "name": "US Bank"}}, {"type": "node", "id": 4548821889, "lat": 37.7535677, "lon": -122.4184245, "tags": {"amenity": "atm", "name": "Bank of America"}}, {"type": "node", "id": 4548821894, "lat": 37.7505386, "lon": -122.4184457, "tags": {"amenity": "atm", "name": "Chase"}}, {"type": "node", "id": 4553249117, "lat": 37.7835219, "lon": -122.405235, "tags": {"amenity": "atm", "brand": "Wells Fargo", "brand:wikidata": "Q744149", "brand:wikipedia": "en:Wells Fargo", "name": "Wells Fargo", "operator": "Wells Fargo", "operator:wikidata": "Q744149", "operator:wikipedia": "en:Wells Fargo"}}, {"type": "node", "id": 4613918394, "lat": 37.8057517, "lon": -122.4149402, "tags": {"amenity": "atm"}}, {"type": "node", "id": 4613941353, "lat": 37.8055874, "lon": -122.4131559, "tags": {"amenity": "atm"}}, {"type": "node", "id": 4614094336, "lat": 37.7991111, "lon": -122.4073484, "tags": {"amenity": "atm"}}, {"type": "node", "id": 4618253701, "lat": 37.793036, "lon": -122.399775, "tags": {"amenity": "atm"}}, {"type": "node", "id": 4625129276, "lat": 37.7915091, "lon": -122.4048164, "tags": {"amenity": "atm"}}, {"type": "node", "id": 4625209000, "lat": 37.807694, "lon": -122.4138919, "tags": {"amenity": "atm"}}, {"type": "node", "id": 4625221575, "lat": 37.781632, "lon": -122.41677, "tags": {"amenity": "atm", "brand": "Wells Fargo", "brand:wikidata": "Q744149", "brand:wikipedia": "en:Wells Fargo", "check_date": "2021-05-07", "name": "Wells Fargo", "operator": "Wells Fargo", "operator:wikidata": "Q744149", "operator:wikipedia": "en:Wells Fargo"}}, {"type": "node", "id": 4628177736, "lat": 37.7729654, "lon": -122.4305019, "tags": {"amenity": "atm"}}, {"type": "node", "id": 4628177737, "lat": 37.7741201, "lon": -122.4309931, "tags": {"amenity": "atm"}}, {"type": "node", "id": 4628246884, "lat": 37.7893173, "lon": -122.4135563, "tags": {"amenity": "atm"}}, {"type": "node", "id": 4628442795, "lat": 37.7852445, "lon": -122.4163896, "tags": {"amenity": "atm", "check_date": "2021-05-20"}}, {"type": "node", "id": 4628615918, "lat": 37.7867317, "lon": -122.4197646, "tags": {"amenity": "atm"}}, {"type": "node", "id": 4631674512, "lat": 37.7901851, "lon": -122.4154334, "tags": {"amenity": "atm", "name": "City ATM"}}, {"type": "node", "id": 4631729492, "lat": 37.790675, "lon": -122.4056767, "tags": {"amenity": "atm"}}, {"type": "node", "id": 4631753996, "lat": 37.7883505, "lon": -122.4167599, "tags": {"amenity": "atm", "name": "City ATM"}}, {"type": "node", "id": 4631753997, "lat": 37.7889666, "lon": -122.4171241, "tags": {"amenity": "atm", "name": "Coffee Cabin ATM"}}, {"type": "node", "id": 4631843896, "lat": 37.7847249, "lon": -122.4109405, "tags": {"amenity": "atm"}}, {"type": "node", "id": 4631876720, "lat": 37.7840636, "lon": -122.4108087, "tags": {"amenity": "atm"}}, {"type": "node", "id": 4631922793, "lat": 37.7847571, "lon": -122.414635, "tags": {"amenity": "atm"}}, {"type": "node", "id": 4631999421, "lat": 37.7902318, "lon": -122.4040937, "tags": {"amenity": "atm"}}, {"type": "node", "id": 4632030148, "lat": 37.7900254, "lon": -122.3976592, "tags": {"amenity": "atm"}}, {"type": "node", "id": 4632112445, "lat": 37.7915846, "lon": -122.3995012, "tags": {"amenity": "atm", "name": "First Republic"}}, {"type": "node", "id": 4688687913, "lat": 37.7885274, "lon": -122.4086018, "tags": {"amenity": "atm", "drive_through": "no"}}, {"type": "node", "id": 4921394502, "lat": 37.7793986, "lon": -122.389541, "tags": {"amenity": "atm", "brand": "Bank of America", "brand:wikidata": "Q487907", "brand:wikipedia": "en:Bank of America", "cash_in": "no", "description": "Cash withdrawals only.", "drive_through": "no", "name": "Bank of America", "operator": "Bank of America", "operator:wikidata": "Q487907", "operator:wikipedia": "en:Bank of America"}}, {"type": "node", "id": 4925154994, "lat": 37.7598341, "lon": -122.4215615, "tags": {"amenity": "atm", "brand": "Chase", "check_date": "2021-06-12"}}, {"type": "node", "id": 4972855032, "lat": 37.7388875, "lon": -122.4156127, "tags": {"amenity": "atm", "drive_through": "no", "operator": "Wells Fargo"}}, {"type": "node", "id": 5180870591, "lat": 37.7718273, "lon": -122.4318878, "tags": {"amenity": "atm", "brand": "Spiral ATM"}}, {"type": "node", "id": 6131414485, "lat": 37.6984735, "lon": -122.4705408, "tags": {"amenity": "atm", "opening_hours": "24/7"}}, {"type": "node", "id": 6371302293, "lat": 37.7694794, "lon": -122.510093, "tags": {"amenity": "atm", "drive_through": "no"}}, {"type": "node", "id": 6447016752, "lat": 37.7819744, "lon": -122.4457296, "tags": {"amenity": "atm", "cash_in": "yes", "drive_through": "no", "level": "2", "operator": "Wells Fargo", "operator:wikidata": "Q744149"}}, {"type": "node", "id": 6488899086, "lat": 37.7912259, "lon": -122.39847, "tags": {"amenity": "atm", "brand": "Bank of America", "brand:wikidata": "Q487907", "brand:wikipedia": "en:Bank of America", "name": "Bank of America", "opening_hours": "24/7", "operator": "Bank of America", "operator:wikidata": "Q487907", "operator:wikipedia": "en:Bank of America"}}, {"type": "node", "id": 6489118507, "lat": 37.7847285, "lon": -122.4066274, "tags": {"amenity": "atm", "level": "-1"}}, {"type": "node", "id": 6489398863, "lat": 37.7846489, "lon": -122.40347, "tags": {"amenity": "atm", "fixme": "position_estimated", "level": "1"}}, {"type": "node", "id": 6502647556, "lat": 37.7540839, "lon": -122.4776826, "tags": {"amenity": "atm"}}, {"type": "node", "id": 6502703598, "lat": 37.7540192, "lon": -122.4789198, "tags": {"amenity": "atm"}}, {"type": "node", "id": 6530555244, "lat": 37.795059, "lon": -122.3960772, "tags": {"amenity": "atm", "fixme": "position_estimated", "level": "1", "operator": "First Republic Bank"}}, {"type": "node", "id": 6530555247, "lat": 37.7951682, "lon": -122.396362, "tags": {"amenity": "atm", "brand": "Bank of America", "brand:wikidata": "Q487907", "brand:wikipedia": "en:Bank of America", "cash_in": "yes", "fixme": "position_estimated", "level": "1", "name": "Bank of America", "operator": "Bank of America", "operator:wikidata": "Q487907", "operator:wikipedia": "en:Bank of America"}}, {"type": "node", "id": 6534021328, "lat": 37.7444119, "lon": -122.4397101}, {"type": "node", "id": 6534021333, "lat": 37.7443988, "lon": -122.4396878}, {"type": "node", "id": 6534021352, "lat": 37.7444182, "lon": -122.4396695}, {"type": "node", "id": 6534021353, "lat": 37.7444313, "lon": -122.4396918}, {"type": "node", "id": 6554396487, "lat": 37.775795, "lon": -122.4979976, "tags": {"amenity": "atm", "check_date": "2021-06-25"}}, {"type": "node", "id": 6582227559, "lat": 37.7917049, "lon": -122.397752, "tags": {"amenity": "atm", "brand": "Wells Fargo", "brand:wikidata": "Q744149", "brand:wikipedia": "en:Wells Fargo", "name": "Wells Fargo", "operator": "Wells Fargo", "operator:wikidata": "Q744149", "operator:wikipedia": "en:Wells Fargo"}}, {"type": "node", "id": 6615153558, "lat": 37.7302798, "lon": -122.4761414, "tags": {"amenity": "atm"}}, {"type": "node", "id": 6615153574, "lat": 37.7303093, "lon": -122.4757069, "tags": {"amenity": "atm"}}, {"type": "node", "id": 6615153578, "lat": 37.7302562, "lon": -122.476827, "tags": {"amenity": "atm"}}, {"type": "node", "id": 6635787001, "lat": 37.7277014, "lon": -122.4770039, "tags": {"amenity": "atm", "level": "2"}}, {"type": "node", "id": 6635835221, "lat": 37.7284953, "lon": -122.4775092, "tags": {"amenity": "atm", "level": "1"}}, {"type": "node", "id": 6651230376, "lat": 37.7792117, "lon": -122.5127397, "tags": {"amenity": "atm"}}, {"type": "node", "id": 6693595729, "lat": 37.7852702, "lon": -122.4293736, "tags": {"amenity": "atm", "level": "2"}}, {"type": "node", "id": 6711302993, "lat": 37.7639401, "lon": -122.4577441, "tags": {"amenity": "atm", "level:ref": "1"}}, {"type": "node", "id": 6776070717, "lat": 37.7693244, "lon": -122.4497294, "tags": {"amenity": "atm", "brand": "Chase"}}, {"type": "node", "id": 6791676288, "lat": 37.7829229, "lon": -122.4627468, "tags": {"amenity": "atm"}}, {"type": "node", "id": 6831790682, "lat": 37.7806186, "lon": -122.4698252, "tags": {"amenity": "atm"}}, {"type": "node", "id": 6833462299, "lat": 37.7807438, "lon": -122.4665742, "tags": {"amenity": "atm"}}, {"type": "node", "id": 7825214062, "lat": 37.6969676, "lon": -122.4631704, "tags": {"amenity": "atm", "drive_through": "no", "network": "Bank of America", "operator": "Bank of America"}}, {"type": "node", "id": 8365823210, "lat": 37.7736709, "lon": -122.4389081, "tags": {"amenity": "atm", "drive_through": "no", "operator": "Bank of America"}}, {"type": "node", "id": 8722065763, "lat": 37.7967528, "lon": -122.399486, "tags": {"amenity": "atm", "brand": "Wells Fargo", "brand:wikidata": "Q744149", "brand:wikipedia": "en:Wells Fargo", "name": "Wells Fargo", "operator": "Wells Fargo", "operator:wikidata": "Q744149", "operator:wikipedia": "en:Wells Fargo"}}, {"type": "node", "id": 8891346713, "lat": 37.7646858, "lon": -122.401481, "tags": {"amenity": "atm", "brand": "Umpqua Bank", "brand:wikidata": "Q7881772", "brand:wikipedia": "en:Umpqua Holdings Corporation", "cash_in": "yes", "currency:USD": "yes", "drive_through": "no", "name": "Umpqua Bank", "operator": "Umpqua Bank", "operator:wikidata": "Q7881772", "operator:wikipedia": "en:Umpqua Holdings Corporation"}}, {"type": "node", "id": 8955516477, "lat": 37.7435007, "lon": -122.4395236, "tags": {"amenity": "atm", "operator": "Bank of America"}}, {"type": "way", "id": 695837783, "nodes": [6534021353, 6534021352, 6534021333, 6534021328, 6534021353], "tags": {"amenity": "atm", "building": "yes", "drive_through": "yes", "name": "Bank of America ATM", "operator": "Bank of America"}}]}