{"version": 0.6, "generator": "Overpass API 0.7.56.9 76e5016d", "osm3s": {"timestamp_osm_base": "2021-10-16T20:08:21Z", "copyright": "The data included in this document is from www.openstreetmap.org. The data is made available under ODbL."}, "elements": [{"type": "node", "id": 376211774, "lat": 37.778394, "lon": -122.4149002}, {"type": "node", "id": 389458008, "lat": 37.775175, "lon": -122.4189129, "tags": {"amenity": "bank", "brand": "Bank of America", "brand:wikidata": "Q487907", "brand:wikipedia": "en:Bank of America", "name": "Bank of America", "operator": "Bank of America", "outside_atm": "yes", "outside_atm_capacity": "4", "outside_atm_operator": "Bank of America", "source": "survey"}}, {"type": "node", "id": 412583137, "lat": 37.7783752, "lon": -122.4145185}, {"type": "node", "id": 412583138, "lat": 37.7782337, "lon": -122.4146973}, {"type": "node", "id": 412583141, "lat": 37.7785354, "lon": -122.4147214}, {"type": "node", "id": 412583421, "lat": 37.783867, "lon": -122.4124813}, {"type": "node", "id": 412583422, "lat": 37.7839106, "lon": -122.4121421}, {"type": "node", "id": 412583423, "lat": 37.7837873, "lon": -122.4121179}, {"type": "node", "id": 412583424, "lat": 37.7837622, "lon": -122.4123203}, {"type": "node", "id": 412583425, "lat": 37.7837296, "lon": -122.412312}, {"type": "node", "id": 412583426, "lat": 37.7837517, "lon": -122.4121103}, {"type": "node", "id": 412583427, "lat": 37.783631, "lon": -122.4120857}, {"type": "node", "id": 412583428, "lat": 37.7835892, "lon": -122.4124263}, {"type": "node", "id": 412587023, "lat": 37.7782674, "lon": -122.416137}, {"type": "node", "id": 412587025, "lat": 37.7780682, "lon": -122.4158824}, {"type": "node", "id": 412587407, "lat": 37.7784589, "lon": -122.4163818}, {"type": "node", "id": 412587410, "lat": 37.7785546, "lon": -122.416262}, {"type": "node", "id": 412587414, "lat": 37.7781628, "lon": -122.4157613}, {"type": "node", "id": 412588519, "lat": 37.778339, "lon": -122.4159865}, {"type": "node", "id": 429632651, "lat": 37.7861076, "lon": -122.4246875, "tags": {"amenity": "bank", "brand": "Citibank", "brand:wikidata": "Q857063", "brand:wikipedia": "en:Citibank", "depository": "no", "name": "Citibank", "operator": "CitiBank", "outside_atm": "1", "short_name": "Citi", "source": "survey"}}, {"type": "node", "id": 429640531, "lat": 37.7857298, "lon": -122.4295946, "tags": {"amenity": "bank", "depository": "yes", "name": "California Bank & Trust", "source": "survey", "vestibule_atm": "2"}}, {"type": "node", "id": 429640565, "lat": 37.7854908, "lon": -122.4294806, "tags": {"amenity": "bank", "atm": "no", "depository": "yes", "level": "1", "name": "Union Bank of California", "source": "survey"}}, {"type": "node", "id": 432820845, "lat": 37.7821655, "lon": -122.420944, "tags": {"addr:city": "San Francisco", "addr:housenumber": "711", "addr:street": "Van Ness Avenue", "amenity": "bank", "depository": "no", "name": "United Commercial Bank", "outside_atm": "1", "source": "survey"}}, {"type": "node", "id": 3489778568, "lat": 37.7813621, "lon": -122.4190293, "tags": {"addr:city": "San Francisco", "addr:housenumber": "500", "addr:postcode": "94102", "addr:state": "CA", "addr:street": "Golden Gate Avenue", "amenity": "bank", "atm": "yes", "brand": "Golden 1 Credit Union", "brand:wikidata": "Q7736976", "brand:wikipedia": "en:Golden 1 Credit Union", "drive_through": "no", "name": "Golden 1 Credit Union", "operator": "Golden 1 Credit Union", "source": "Field observation"}}, {"type": "node", "id": 3669469797, "lat": 37.7769228, "lon": -122.4159354, "tags": {"amenity": "bank", "name": "First Republic"}}, {"type": "node", "id": 7194831085, "lat": 37.7795535, "lon": -122.4233551, "tags": {"amenity": "bank"}}, {"type": "way", "id": 35176266, "nodes": [376211774, 412583141, 412583137, 412583138, 376211774], "tags": {"addr:city": "San Francisco", "addr:country": "US", "addr:housenumber": "1201", "addr:postcode": "94103", "addr:state": "CA", "addr:street": "Market Street", "amenity": "bank", "brand": "Chase", "brand:wikidata": "Q524629", "brand:wikipedia": "en:Chase Bank", "building": "yes", "height": "8", "name": "Chase", "wheelchair": "yes"}}, {"type": "way", "id": 35176313, "nodes": [412583421, 412583422, 412583423, 412583424, 412583425, 412583426, 412583427, 412583428, 412583421], "tags": {"amenity": "bank", "building": "yes", "height": "25", "name": "Northeast Community Federal Credit Union, Tenderloin Branch"}}, {"type": "way", "id": 35176497, "nodes": [412587407, 412587410, 412588519, 412587414, 412587025, 412587023, 412587407], "tags": {"addr:housenumber": "1256;1266", "addr:street": "Market Street", "amenity": "bank", "atm": "yes", "brand": "Wells Fargo", "brand:wikidata": "Q744149", "brand:wikipedia": "en:Wells Fargo", "building": "commercial", "height": "10", "name": "Wells Fargo", "operator": "Wells Fargo"}}]}