{"version": 0.6, "generator": "Overpass API 0.7.56.9 76e5016d", "osm3s": {"timestamp_osm_base": "2021-10-16T20:19:31Z", "copyright": "The data included in this document is from www.openstreetmap.org. The data is made available under ODbL."}, "elements": [{"type": "node", "id": 445445631, "lat": -23.4873732, "lon": -46.8559719, "tags": {"amenity": "atm", "name": "Bradesco", "operator": "Bradesco"}}, {"type": "node", "id": 450107198, "lat": -23.4992516, "lon": -46.8541705, "tags": {"amenity": "atm", "name": "Bradesco", "operator": "Bradesco"}}, {"type": "node", "id": 450107207, "lat": -23.4985904, "lon": -46.8521964, "tags": {"amenity": "atm", "name": "Banco 24 Horas", "operator": "Banco 24 Horas"}}, {"type": "node", "id": 450107218, "lat": -23.4854841, "lon": -46.8707701, "tags": {"amenity": "atm", "name": "Santander", "operator": "Santander"}}, {"type": "node", "id": 450107226, "lat": -23.4855549, "lon": -46.8707701, "tags": {"amenity": "atm", "name": "Bradesco", "operator": "Bradesco"}}, {"type": "node", "id": 1673743835, "lat": -23.661862, "lon": -46.7802306, "tags": {"amenity": "atm", "currency:BRL": "yes", "drive_through": "no"}}, {"type": "node", "id": 1673743838, "lat": -23.6652935, "lon": -46.7831253, "tags": {"amenity": "atm"}}, {"type": "node", "id": 2428026526, "lat": -23.4858923, "lon": -46.856168, "tags": {"amenity": "atm"}}, {"type": "node", "id": 2429186304, "lat": -23.4838322, "lon": -46.8594864, "tags": {"amenity": "atm"}}, {"type": "node", "id": 4218812290, "lat": -23.5977137, "lon": -46.758448, "tags": {"amenity": "atm"}}, {"type": "node", "id": 5747516559, "lat": -23.5883146, "lon": -46.7511155, "tags": {"amenity": "atm"}}, {"type": "node", "id": 6131257811, "lat": -23.5290245, "lon": -46.7779972, "tags": {"amenity": "atm", "cash_in": "no", "currency:BRL": "yes", "drive_through": "no", "operator": "Banco 24 Horas"}}, {"type": "node", "id": 6140753951, "lat": -23.5031163, "lon": -46.8021698, "tags": {"addr:street": "Rua Ant\u00f4nio Alves Ribeiro", "amenity": "atm", "name": "Mercadinho NewLar", "shop": "convenience"}}, {"type": "node", "id": 6326523219, "lat": -23.5832116, "lon": -46.8109041, "tags": {"amenity": "atm", "cash_in": "no", "currency:BRL": "yes", "drive_through": "no"}}, {"type": "node", "id": 6338900025, "lat": -23.536483, "lon": -46.8798919, "tags": {"amenity": "atm", "brand": "Banco24Horas", "brand:wikidata": "Q4854069", "brand:wikipedia": "pt:Banco24Horas", "cash_in": "no", "currency:BRL": "yes", "drive_through": "no", "name": "Banco24Horas", "operator": "Banco24Horas"}}, {"type": "node", "id": 6655095562, "lat": -23.5919937, "lon": -46.8326358, "tags": {"amenity": "atm", "cash_in": "no", "currency:BRL": "yes", "drive_through": "no", "operator": "Banco 24H"}}, {"type": "node", "id": 7899873023, "lat": -23.5443865, "lon": -46.8529217, "tags": {"amenity": "atm", "operator": "24 Horas"}}, {"type": "node", "id": 8315127633, "lat": -23.6376977, "lon": -46.9895651, "tags": {"amenity": "atm", "cash_in": "no", "currency:BRL": "yes", "drive_through": "no", "operator": "Banco 24H"}}, {"type": "node", "id": 8435688482, "lat": -23.5594791, "lon": -46.7476699, "tags": {"addr:city": "S\u00e3o Paulo", "addr:housenumber": "4455", "addr:street": "Avenida Corifeu de Azevedo Marques", "addr:suburb": "Vila Lajeado", "amenity": "atm", "cash_in": "no", "currency:BRL": "yes", "operator": "24 Horas"}}, {"type": "node", "id": 8957714219, "lat": -23.7104579, "lon": -46.8491357, "tags": {"amenity": "atm", "cash_in": "no", "currency:BRL": "yes", "drive_through": "no", "network": "Banco 24H", "operator": "Banco 24H"}}, {"type": "node", "id": 8975347723, "lat": -23.707854, "lon": -46.8316299, "tags": {"amenity": "atm", "cash_in": "no", "currency:BRL": "yes", "drive_through": "no", "network": "Banco 24H", "operator": "Banco 24H"}}, {"type": "node", "id": 9010397297, "lat": -23.5146526, "lon": -46.7892588, "tags": {"amenity": "atm", "operator": "24 Horas"}}, {"type": "node", "id": 9165682027, "lat": -23.552883, "lon": -46.8350879, "tags": {"amenity": "atm", "brand": "Banco24Horas", "brand:wikidata": "Q4854069", "brand:wikipedia": "pt:Banco24Horas", "cash_in": "no", "currency:BRL": "yes", "drive_through": "no", "name": "Banco24Horas", "operator": "Banco24horas"}}, {"type": "node", "id": 9165682028, "lat": -23.5527428, "lon": -46.8351046, "tags": {"amenity": "atm", "brand": "Caixa Econ\u00f4mica Federal", "brand:wikidata": "Q835283", "brand:wikipedia": "pt:Caixa Econ\u00f4mica Federal", "cash_in": "yes", "currency:BRL": "yes", "drive_through": "no", "name": "Caixa Econ\u00f4mica Federal", "network": "Caixa Econ\u00f4mica Federal", "operator": "Caixa Econ\u00f4mica Federal", "operator:wikidata": "Q835283", "operator:wikipedia": "pt:Caixa Econ\u00f4mica Federal"}}]}