{"version": 0.6, "generator": "Overpass API 0.7.56.9 76e5016d", "osm3s": {"timestamp_osm_base": "2021-10-16T20:28:31Z", "copyright": "The data included in this document is from www.openstreetmap.org. The data is made available under ODbL."}, "elements": [{"type": "node", "id": 745617442, "lat": -22.7256795, "lon": -47.6304445, "tags": {"addr:street": "Avenida Carlos Martins Sodero", "amenity": "police"}}, {"type": "node", "id": 745617445, "lat": -22.7121357, "lon": -47.6472589, "tags": {"amenity": "police", "name": "Delegacia da Mulher"}}, {"type": "node", "id": 2255222521, "lat": -22.7110816, "lon": -47.6357111, "tags": {"amenity": "police", "name": "Guarda do Campus"}}, {"type": "node", "id": 2998407156, "lat": -22.7126974, "lon": -47.6456733, "tags": {"addr:city": "Piracicaba", "addr:street": "Rua Padre Lopes", "addr:suburb": "S\u00e3o Dimas", "amenity": "police"}}, {"type": "node", "id": 6007665104, "lat": -22.7226218, "lon": -47.59995, "tags": {"amenity": "police", "police": "traffic_police"}}]}