{"version": 0.6, "generator": "Overpass API 0.7.56.9 76e5016d", "osm3s": {"timestamp_osm_base": "2021-10-16T20:20:32Z", "copyright": "The data included in this document is from www.openstreetmap.org. The data is made available under ODbL."}, "elements": [{"type": "node", "id": 461131503, "lat": -23.5483668, "lon": -46.5630849, "tags": {"amenity": "atm"}}, {"type": "node", "id": 598667081, "lat": -23.5522944, "lon": -46.6379959, "tags": {"amenity": "atm", "name": "Banco 24 Horas", "operator": "Banco 24 Horas"}}, {"type": "node", "id": 632488688, "lat": -23.5531604, "lon": -46.6277607, "tags": {"amenity": "atm", "name": "Compre Bem", "operator": "Banco 24 Horas", "shop": "supermarket"}}, {"type": "node", "id": 745728711, "lat": -23.5533447, "lon": -46.6279192, "tags": {"amenity": "atm", "name": "Banco 24 Horas"}}, {"type": "node", "id": 745741485, "lat": -23.5438966, "lon": -46.5574979, "tags": {"amenity": "atm", "operator": "Banco 24 Horas"}}, {"type": "node", "id": 1110231806, "lat": -23.6228883, "lon": -46.6857027, "tags": {"amenity": "atm", "drive_through": "yes", "operator": "Banco Bradesco S/A"}}, {"type": "node", "id": 1113784884, "lat": -23.5516673, "lon": -46.635558, "tags": {"amenity": "atm", "operator": "Ita\u00fa"}}, {"type": "node", "id": 1401746985, "lat": -23.4787235, "lon": -46.58312, "tags": {"addr:city": "S\u00e3o Paulo", "addr:housenumber": "2852", "addr:postcode": "02201-000", "addr:street": "Avenida J\u00falio Buono", "amenity": "atm", "name": "Banco Bradesco", "opening_hours": "Mo-Fr 10:00-16:00"}}, {"type": "node", "id": 1780618602, "lat": -23.6141621, "lon": -46.5720581, "tags": {"amenity": "atm", "operator": "Banco 24h"}}, {"type": "node", "id": 2426981697, "lat": -23.4363224, "lon": -46.720037, "tags": {"amenity": "atm", "currency:BRL": "yes", "fee": "brades,itau e 24h", "operator": "Banco 24H"}}, {"type": "node", "id": 2426981713, "lat": -23.4417851, "lon": -46.7217383, "tags": {"amenity": "atm", "fee": "brades,itau e 24h", "operator": "brades,itau e 24h"}}, {"type": "node", "id": 2428139326, "lat": -23.5136073, "lon": -46.6592897, "tags": {"amenity": "atm"}}, {"type": "node", "id": 2601029331, "lat": -23.4880368, "lon": -46.5830895, "tags": {"addr:city": "S\u00e3o Paulo", "addr:housenumber": "878", "addr:postcode": "02219-000", "addr:street": "Avenida Nossa Senhora do Loreto", "amenity": "atm", "currency:BRL": "yes", "drive_through": "no", "mapillary": "https://www.mapillary.com/map/im/WUCHOTVVHYBdmQBbK0tekQ", "opening_hours": "Mo-Fr 10:00-16:00", "operator": "Bradesco"}}, {"type": "node", "id": 2732159507, "lat": -23.5339534, "lon": -46.400281, "tags": {"amenity": "atm", "name": "Banco 24Horas", "operator": "TecBan"}}, {"type": "node", "id": 2833498289, "lat": -23.5264067, "lon": -46.3969324, "tags": {"amenity": "atm", "name": "Banco 24Horas", "operator": "TecBan"}}, {"type": "node", "id": 2946818066, "lat": -23.6914725, "lon": -46.5849301, "tags": {"amenity": "atm", "drive_through": "no", "name": "Caixa Economica Federal", "operator": "Caixa Economica Federal"}}, {"type": "node", "id": 2946818148, "lat": -23.6914943, "lon": -46.5849221, "tags": {"amenity": "atm", "name": "Banco 24 Horas"}}, {"type": "node", "id": 2948842109, "lat": -23.723258, "lon": -46.5439811, "tags": {"amenity": "atm", "brand": "Banco24Horas", "brand:wikidata": "Q4854069", "brand:wikipedia": "pt:Banco24Horas", "cash_in": "no", "currency:BRL": "yes", "drive_through": "no", "name": "Banco24Horas", "operator": "Banco 24 Horas"}}, {"type": "node", "id": 3097171872, "lat": -23.5414503, "lon": -46.6291284, "tags": {"amenity": "atm", "brand": "Caixa", "level": "0", "operator": "Caixa"}}, {"type": "node", "id": 3097171873, "lat": -23.5414539, "lon": -46.6291165, "tags": {"amenity": "atm", "brand": "Ita\u00fa", "level": "0", "operator": "Ita\u00fa"}}, {"type": "node", "id": 3097171874, "lat": -23.541456, "lon": -46.6291099, "tags": {"amenity": "atm", "brand": "Banco do Brasil", "level": "0", "operator": "Banco do Brasil"}}, {"type": "node", "id": 3097171875, "lat": -23.5414519, "lon": -46.6291219, "tags": {"amenity": "atm", "brand": "Banco24Horas", "level": "0", "operator": "Banco24Horas"}}, {"type": "node", "id": 3130934188, "lat": -23.6917105, "lon": -46.560175, "tags": {"amenity": "atm", "brand": "Bradesco", "opening_hours": "24/7", "operator": "Bradesco"}}, {"type": "node", "id": 3437797229, "lat": -23.5353142, "lon": -46.6205435, "tags": {"addr:city": "S\u00e3o Paulo", "addr:housenumber": "1246", "addr:postcode": "03009-000", "addr:street": "Rua Jo\u00e3o Teodoro", "amenity": "atm", "currency:BRL": "yes", "operator": "Banco 24 Horas"}}, {"type": "node", "id": 3477014876, "lat": -23.5543894, "lon": -46.6142381, "tags": {"addr:city": "S\u00e3o Paulo", "addr:housenumber": "46", "addr:street": "Rua Dona Ana Neri", "amenity": "atm", "name": "24 horas"}}, {"type": "node", "id": 3596660856, "lat": -23.6845925, "lon": -46.6260031, "tags": {"amenity": "atm", "drive_through": "no", "name": "MultiBanco"}}, {"type": "node", "id": 3829158460, "lat": -23.6983009, "lon": -46.5520905, "tags": {"amenity": "atm", "drive_through": "no", "name": "MultiBanco"}}, {"type": "node", "id": 3830125436, "lat": -23.5623499, "lon": -46.6919299, "tags": {"addr:city": "S\u00e3o Paulo", "addr:housenumber": "46", "addr:postcode": "05419-020", "addr:street": "Pra\u00e7a dos Omagu\u00e1s", "amenity": "atm", "name": "Banco24Horas", "operator": "24 Horas"}}, {"type": "node", "id": 3887879480, "lat": -23.6466966, "lon": -46.6400132, "tags": {"amenity": "atm", "cash_in": "no", "currency:BRL": "yes", "drive_through": "no", "name": "Multibanco", "operator": "Multibanco"}}, {"type": "node", "id": 4015903391, "lat": -23.5092915, "lon": -46.7322312, "tags": {"amenity": "atm", "name": "Banco 24 Horas"}}, {"type": "node", "id": 4015903392, "lat": -23.5622839, "lon": -46.5000973, "tags": {"amenity": "atm", "name": "Banco 24 Horas"}}, {"type": "node", "id": 4144734064, "lat": -23.5723191, "lon": -46.7216467, "tags": {"amenity": "atm", "name": "Banco 24 horas"}}, {"type": "node", "id": 4151614033, "lat": -23.5209996, "lon": -46.5162665, "tags": {"amenity": "atm", "name": "24 horas"}}, {"type": "node", "id": 4173444432, "lat": -23.4306204, "lon": -46.4895089, "tags": {"amenity": "atm", "name": "Banco 24 Horas"}}, {"type": "node", "id": 4173444433, "lat": -23.4306622, "lon": -46.4895121, "tags": {"amenity": "atm", "operator": "Banco do Brasil"}}, {"type": "node", "id": 4239863492, "lat": -23.6299855, "lon": -46.7076141, "tags": {"amenity": "atm", "operator": "Close Up International "}}, {"type": "node", "id": 4351865932, "lat": -23.5658285, "lon": -46.6325387, "tags": {"amenity": "atm"}}, {"type": "node", "id": 4479243226, "lat": -23.5159488, "lon": -46.62312, "tags": {"amenity": "atm", "level": "0"}}, {"type": "node", "id": 4479243256, "lat": -23.515978, "lon": -46.6232118, "tags": {"amenity": "atm", "level": "1", "operator": "Bradesco"}}, {"type": "node", "id": 4479243257, "lat": -23.5161698, "lon": -46.6232238, "tags": {"amenity": "atm", "level": "1", "operator": "Caixa"}}, {"type": "node", "id": 4479243258, "lat": -23.5164305, "lon": -46.62326, "tags": {"amenity": "atm", "level": "1", "operator": "Banco24Horas"}}, {"type": "node", "id": 4525585079, "lat": -23.692283, "lon": -46.5499233, "tags": {"amenity": "atm", "currency:R$": "yes", "drive_through": "no", "name": "Multibanco"}}, {"type": "node", "id": 4553196571, "lat": -23.6863096, "lon": -46.5468695, "tags": {"amenity": "atm", "brand": "Bradesco", "brand:wikidata": "Q806181", "brand:wikipedia": "en:Banco Bradesco", "currency:BRL": "yes", "drive_through": "no", "name": "Bradesco", "network": "Bradesco", "operator": "Bradesco", "operator:wikidata": "Q806181", "operator:wikipedia": "en:Banco Bradesco"}}, {"type": "node", "id": 4553196572, "lat": -23.6859338, "lon": -46.5467837, "tags": {"amenity": "atm"}}, {"type": "node", "id": 4654661017, "lat": -23.5148944, "lon": -46.4549678, "tags": {"amenity": "atm"}}, {"type": "node", "id": 4751854732, "lat": -23.6842597, "lon": -46.6265476, "tags": {"amenity": "atm", "currency:BRL": "yes", "name": "Multibanco"}}, {"type": "node", "id": 4753780731, "lat": -23.7205558, "lon": -46.5511172, "tags": {"amenity": "atm", "name": "Multibanco"}}, {"type": "node", "id": 4908301052, "lat": -23.7147061, "lon": -46.5535801, "tags": {"amenity": "atm", "name": "Multi Banco"}}, {"type": "node", "id": 5007274821, "lat": -23.4220357, "lon": -46.3482528, "tags": {"amenity": "atm"}}, {"type": "node", "id": 5067920204, "lat": -23.7207838, "lon": -46.5647078, "tags": {"amenity": "atm", "cash_in": "no", "currency:BRL": "yes", "drive_through": "no", "operator": "Multibancos"}}, {"type": "node", "id": 5131434724, "lat": -23.5531497, "lon": -46.6900691, "tags": {"amenity": "atm"}}, {"type": "node", "id": 5218838153, "lat": -23.7110056, "lon": -46.5534442, "tags": {"amenity": "atm", "cash_in": "no", "currency:BRL": "yes", "drive_through": "no", "network": "Banco 24H", "operator": "Banco 24H"}}, {"type": "node", "id": 5247887145, "lat": -23.5321394, "lon": -46.6493254, "tags": {"amenity": "atm", "currency:BRL": "yes", "drive_through": "no", "operator": "Banco24Horas"}}, {"type": "node", "id": 5448137024, "lat": -23.5268954, "lon": -46.5759053, "tags": {"amenity": "atm", "operator": "Banco 24 Horas"}}, {"type": "node", "id": 5448154523, "lat": -23.5249158, "lon": -46.5744143, "tags": {"amenity": "atm", "operator": "Banco 24 Horas"}}, {"type": "node", "id": 5448172322, "lat": -23.5268805, "lon": -46.5829404, "tags": {"amenity": "atm", "operator": "Banco 24 Horas"}}, {"type": "node", "id": 5516336748, "lat": -23.698013, "lon": -46.5544014, "tags": {"amenity": "atm", "cash_in": "no", "currency:BRL": "yes", "drive_through": "no", "operator": "Multibanco"}}, {"type": "node", "id": 5640014766, "lat": -23.5631801, "lon": -46.6656119, "tags": {"addr:city": "S\u00e3o Paulo", "addr:housenumber": "2514", "addr:postcode": "01412-100", "addr:street": "Rua Augusta", "amenity": "atm", "opening_hours": "Mo-Fr 10:00-16:00", "operator": "Caixa Economica Federal"}}, {"type": "node", "id": 6101410603, "lat": -23.6065209, "lon": -46.6688455, "tags": {"amenity": "atm", "operator": "Banco 24 Horas"}}, {"type": "node", "id": 6127200461, "lat": -23.7230927, "lon": -46.5447435, "tags": {"amenity": "atm", "cash_in": "no", "currency:BRL": "yes", "drive_through": "no", "operator": "Banco 24H"}}, {"type": "node", "id": 6173282106, "lat": -23.5902857, "lon": -46.5055125, "tags": {"amenity": "atm"}}, {"type": "node", "id": 6175322792, "lat": -23.7228536, "lon": -46.5703565, "tags": {"amenity": "atm", "cash_in": "no", "currency:BLR": "yes", "drive_through": "no", "network": "Banco 24Horas", "operator": "Banco 24Horas"}}, {"type": "node", "id": 6199364959, "lat": -23.7072671, "lon": -46.5272244, "tags": {"amenity": "atm", "operator": "Banco"}}, {"type": "node", "id": 6224080947, "lat": -23.7273147, "lon": -46.7039049, "tags": {"addr:city": "S\u00e3o Paulo", "addr:housenumber": "477", "addr:postcode": "04828-100", "addr:street": "Avenida Rodrigues Vilares", "addr:suburb": "Jardim Iporanga", "amenity": "atm", "brand:wikidata": "Q4854069", "brand:wikipedia": "pt:Banco24Horas", "cash_in": "yes", "currency:ARS": "yes", "currency:BRL": "yes", "currency:BYN": "yes", "currency:BYR": "yes", "currency:BsF": "yes", "currency:CAD": "yes", "currency:CHF": "yes", "currency:CZK": "yes", "currency:DZA": "yes", "currency:EUR": "yes", "currency:GBP": "yes", "currency:HUF": "yes", "currency:INR": "yes", "currency:JPY": "yes", "currency:LTC": "yes", "currency:MXN": "yes", "currency:NGN": "yes", "currency:PLN": "yes", "currency:RUB": "yes", "currency:THB": "yes", "currency:UAH": "yes", "currency:USD": "yes", "currency:XBT": "yes", "currency:others": "yes", "description": "O Banco 24 Horas \u00e9 um uma rede interbanc\u00e1ria brasileira, que possui mais de 40 bancos conveniados, com mais de 20 mil caixas eletr\u00f4nicos presentes em mais de 600 cidades brasileiras.", "drive_through": "yes", "ele": "760", "email": "atendimento@tecban.com.br", "fax": "+55 11 5663-9681", "fixme": "\u00c9 um servi\u00e7o da empresa TecBan para o mercado dos bancos caracterizado pela oferta de acesso nos terminais autom\u00e1ticos ao servi\u00e7o de saques, cadastro de recarga para telefone pr\u00e9-pago, pagamentos, consulta de saldos e extratos, entre outros servi\u00e7os.", "level": "0", "material": "metal", "name": "Banco 24 Horas", "network": "Banco 24 Horas", "note": "O nome Banco24Horas \u00e9 uma marca registrada da TecBan. De acordo com a normativa do Banco Central, os bancos s\u00e3o obrigados a disponibilizar no m\u00ednimo 4 saques gr\u00e1tis na rede Banco24Horas.", "operator": "Banco 24 Horas", "payment:account_cards": "yes", "payment:american_express": "yes", "payment:bitcoin": "yes", "payment:cards": "yes", "payment:coins": "yes", "payment:contactless": "yes", "payment:diners_club": "yes", "payment:discover_card": "yes", "payment:dkv": "yes", "payment:ep_geldkarte": "yes", "payment:girocard": "yes", "payment:maestro": "yes", "payment:mastercard": "yes", "payment:none": "yes", "payment:notes": "yes", "payment:telephone_cards": "yes", "payment:uta": "yes", "payment:visa": "yes", "payment:visa_debit": "yes", "payment:visa_electron": "yes", "phone": "+55 11 5663-9681", "seamark:type": "beacon_cardinal", "source": "local knowledge;survey;gps;aerial imagery;streetlevel imagery", "start_date": "2019", "tourism": "attraction", "website": "https://www.banco24horas.com.br/", "wheelchair": "yes"}}, {"type": "node", "id": 6267937538, "lat": -23.6542028, "lon": -46.7114532}, {"type": "node", "id": 6267937539, "lat": -23.6541989, "lon": -46.7114238}, {"type": "node", "id": 6267937540, "lat": -23.6542294, "lon": -46.711419}, {"type": "node", "id": 6267937541, "lat": -23.6542333, "lon": -46.7114484}, {"type": "node", "id": 6302109248, "lat": -23.7133644, "lon": -46.5573867, "tags": {"amenity": "atm", "cash_in": "no", "currency:BRL": "yes", "drive_through": "no", "operator": "Banco24Horas"}}, {"type": "node", "id": 6341811216, "lat": -23.430766, "lon": -46.4380111, "tags": {"amenity": "atm", "cash_in": "no", "currency:BRL": "yes", "drive_through": "no", "operator": "Banco24Horas"}}, {"type": "node", "id": 6342120841, "lat": -23.6374656, "lon": -46.599079, "tags": {"addr:city": "S\u00e3o Paulo", "addr:housenumber": "925", "addr:postcode": "04180-081", "addr:street": "Avenida Nossa Senhora da Encarna\u00e7\u00e3o", "addr:suburb": "Jardim Maria Estela", "amenity": "atm", "currency:BRL": "yes", "drive_through": "no", "name": "Banco24Horas", "network": "Banco24Horas"}}, {"type": "node", "id": 6378929228, "lat": -23.4748852, "lon": -46.6697988, "tags": {"amenity": "atm", "cash_in": "no", "covered": "yes", "lit": "yes", "opening_hours": "24/7", "operator": "Banco 24 Horas", "wheelchair": "yes"}}, {"type": "node", "id": 6410160358, "lat": -23.6847555, "lon": -46.6326858, "tags": {"amenity": "atm", "cash_in": "no", "currency:BRL": "yes", "drive_through": "no", "network": "Banco 24H"}}, {"type": "node", "id": 6415329502, "lat": -23.4867066, "lon": -46.7267805, "tags": {"amenity": "atm"}}, {"type": "node", "id": 6453866841, "lat": -23.564213, "lon": -46.6716575, "tags": {"amenity": "atm", "operator": "Banco 24 horas"}}, {"type": "node", "id": 6501291310, "lat": -23.6706956, "lon": -46.5601083, "tags": {"amenity": "atm", "brand": "Bradesco", "brand:wikidata": "Q806181", "brand:wikipedia": "en:Banco Bradesco", "currency:BRL": "yes", "drive_through": "no", "name": "Bradesco", "network": "Bradesco", "operator": "Bradesco", "operator:wikidata": "Q806181", "operator:wikipedia": "en:Banco Bradesco"}}, {"type": "node", "id": 6541148471, "lat": -23.6985156, "lon": -46.5522951, "tags": {"amenity": "atm", "cash_in": "no", "currency:BRL": "yes", "drive_through": "no", "operator": "Multibanco"}}, {"type": "node", "id": 6578673550, "lat": -23.4362143, "lon": -46.7200162, "tags": {"amenity": "atm", "currency:BRL": "yes", "operator": "Ita\u00fa"}}, {"type": "node", "id": 6578673551, "lat": -23.4361036, "lon": -46.7199813, "tags": {"amenity": "atm", "currency:BRL": "yes", "drive_through": "no", "operator": "Bradesco"}}, {"type": "node", "id": 6587356711, "lat": -23.6328092, "lon": -46.7062103, "tags": {"amenity": "atm", "description": "Fica dentro do Carrefour Express.", "is_in": "Carrefour Express", "operator": "banco24horas"}}, {"type": "node", "id": 6589697193, "lat": -23.5066279, "lon": -46.6006644, "tags": {"amenity": "atm", "cash_in": "no", "check_date": "2021-09-20", "currency:BRL": "yes", "operator": "24 Horas"}}, {"type": "node", "id": 6815723700, "lat": -23.5873057, "lon": -46.7324813, "tags": {"amenity": "atm", "cash_in": "no", "currency:BRL": "yes", "drive_through": "no", "operator": "Banco 24H"}}, {"type": "node", "id": 7023516006, "lat": -23.5479606, "lon": -46.5720111, "tags": {"amenity": "atm", "operator": "Banco 24 HORAS"}}, {"type": "node", "id": 7120254870, "lat": -23.4252236, "lon": -46.4079423, "tags": {"amenity": "atm", "cash_in": "no", "operator": "24 Horas"}}, {"type": "node", "id": 7489925155, "lat": -23.500497, "lon": -46.6013435, "tags": {"addr:city": "S\u00e3o Paulo", "addr:housenumber": "1267C", "addr:postcode": "02072-001", "addr:street": "Avenida Concei\u00e7\u00e3o", "amenity": "atm", "operator": "Banco 24 horas"}}, {"type": "node", "id": 7759691287, "lat": -23.6478735, "lon": -46.5962593, "tags": {"amenity": "atm"}}, {"type": "node", "id": 7965327099, "lat": -23.7052904, "lon": -46.5578422, "tags": {"amenity": "atm", "cash_in": "no", "currency:BRL": "yes", "drive_through": "no", "network": "Banco 24H", "operator": "Banco 24H"}}, {"type": "node", "id": 8379912165, "lat": -23.5393442, "lon": -46.6612095, "tags": {"amenity": "atm", "brand": "Banco 24 Horas"}}, {"type": "node", "id": 8648165280, "lat": -23.6533959, "lon": -46.4934124, "tags": {"amenity": "atm", "cash_in": "no", "currency:BRL": "yes", "drive_through": "no", "operator": "Banco24H"}}, {"type": "node", "id": 8934148117, "lat": -23.5065899, "lon": -46.6052161, "tags": {"amenity": "atm", "operator": "Banco 24horas."}}, {"type": "node", "id": 8958289317, "lat": -23.5041917, "lon": -46.6146166, "tags": {"amenity": "atm", "operator": "Banco 24h."}}, {"type": "node", "id": 9165573644, "lat": -23.5247665, "lon": -46.6314567, "tags": {"amenity": "atm", "cash_in": "yes", "network": "24 horas", "operator": "24 horas"}}, {"type": "way", "id": 669343807, "nodes": [6267937538, 6267937539, 6267937540, 6267937541, 6267937538], "tags": {"amenity": "atm"}}]}