{"version": 0.6, "generator": "Overpass API 0.7.56.9 76e5016d", "osm3s": {"timestamp_osm_base": "2021-10-16T20:33:30Z", "copyright": "The data included in this document is from www.openstreetmap.org. The data is made available under ODbL."}, "elements": [{"type": "node", "id": 624389186, "lat": -27.3658258, "lon": -55.8963497, "tags": {"addr:city": "Posadas", "addr:country": "AR", "addr:housenumber": "2087", "addr:street": "San Mart\u00edn", "amenity": "atm", "check_date": "2020-12-19", "currency:ARS": "yes", "network": "Link", "operator": "Banco de la Naci\u00f3n Argentina"}}, {"type": "node", "id": 624389202, "lat": -27.3656651, "lon": -55.8961601, "tags": {"amenity": "atm", "check_date": "2020-12-19", "opening_hours": "Mo-Fr 08:00-13:00", "operator": "Banco Credicoop"}}, {"type": "node", "id": 624389261, "lat": -27.363207, "lon": -55.8923817, "tags": {"addr:city": "Posadas", "addr:country": "AR", "addr:housenumber": "1728", "addr:postcode": "3300", "addr:street": "Belgrano", "amenity": "atm", "network": "Banelco", "opening_hours": "24/7", "operator": "Banco Macro"}}, {"type": "node", "id": 652193177, "lat": -27.3830852, "lon": -55.8920303, "tags": {"amenity": "atm", "network": "Banelco", "operator": "Macro"}}, {"type": "node", "id": 1070948752, "lat": -27.4113155, "lon": -55.955249, "tags": {"addr:city": "Posadas", "addr:street": "Avenida Isaco Abitbol", "amenity": "atm", "network": "Banelco", "operator": "banco Macro"}}, {"type": "node", "id": 1132344449, "lat": -27.4392484, "lon": -55.8809982, "tags": {"addr:city": "Posadas", "addr:country": "AR", "addr:housenumber": "10125", "addr:postcode": "3304", "addr:street": "Avenida Tulo Llamosas", "amenity": "atm", "network": "Banelco", "opening_hours": "24/7", "operator": "Banco Macro", "website": "https://www.macro.com.ar/", "wheelchair": "yes"}}, {"type": "node", "id": 1568381219, "lat": -27.4342932, "lon": -55.8868387, "tags": {"amenity": "atm", "network": "Banelco", "operator": "Banco Patagonia"}}, {"type": "node", "id": 1839854439, "lat": -27.3728136, "lon": -55.8934515, "tags": {"amenity": "atm", "check_date": "2020-12-19", "network": "Banelco", "operator": "Banco Macro"}}, {"type": "node", "id": 1839855681, "lat": -27.373386, "lon": -55.8967452, "tags": {"amenity": "atm", "network": "Banelco", "operator": "Macro", "wheelchair": "yes"}}, {"type": "node", "id": 1839911944, "lat": -27.3654262, "lon": -55.9081776, "tags": {"amenity": "atm", "network": "Banelco", "operator": "Banco Macro"}}, {"type": "node", "id": 1943244044, "lat": -27.364286, "lon": -55.8916778, "tags": {"addr:street": "Santa Fe", "amenity": "atm", "network": "Banelco", "operator": "Banco Macro"}}, {"type": "node", "id": 1943267432, "lat": -27.3910983, "lon": -55.9009988, "tags": {"amenity": "atm", "network": "Banelco", "operator": "Banco Macro"}}, {"type": "node", "id": 1943280575, "lat": -27.3951635, "lon": -55.9015914, "tags": {"amenity": "atm", "network": "Banelco"}}, {"type": "node", "id": 1943326158, "lat": -27.3671334, "lon": -55.8933307, "tags": {"amenity": "atm", "check_date": "2021-05-24", "network": "Link", "opening_hours": "24/7", "operator": "Banco de la Naci\u00f3n Argentina", "wheelchair": "yes"}}, {"type": "node", "id": 1943326621, "lat": -27.3669099, "lon": -55.8934523, "tags": {"amenity": "atm", "check_date": "2021-05-24", "network": "Banelco", "operator": "HSBC"}}, {"type": "node", "id": 1943327046, "lat": -27.3659658, "lon": -55.8933672, "tags": {"addr:city": "Posadas", "addr:postcode": "3300", "addr:street": "F\u00e9lix de Azara", "amenity": "atm", "network": "Banelco", "opening_hours": "24/7", "operator": "Banco Macro"}}, {"type": "node", "id": 1943329524, "lat": -27.3657576, "lon": -55.8946263, "tags": {"amenity": "atm", "check_date": "2020-12-16", "network": "Banelco", "opening_hours": "24/7", "operator": "Santander Rio"}}, {"type": "node", "id": 1943330373, "lat": -27.3655293, "lon": -55.8946292, "tags": {"amenity": "atm", "network": "Banelco", "opening_hours": "24/7", "operator": "Banco Franc\u00e9s"}}, {"type": "node", "id": 1945964151, "lat": -27.356122, "lon": -55.8941358, "tags": {"amenity": "atm", "check_date": "2020-12-17", "network": "Banelco", "operator": "Banco Macro"}}, {"type": "node", "id": 1946115681, "lat": -27.3675644, "lon": -55.8935294, "tags": {"amenity": "atm", "network": "Banelco", "operator": "Santander"}}, {"type": "node", "id": 1946136013, "lat": -27.3969699, "lon": -55.9087979, "tags": {"amenity": "atm", "network": "Banelco", "opening_hours": "24/7", "operator": "Banco Macro"}}, {"type": "node", "id": 2120020341, "lat": -27.365748, "lon": -55.8943834, "tags": {"amenity": "atm", "check_date": "2020-12-16", "network": "Banelco", "opening_hours": "24/7", "operator": "Banco Macro"}}, {"type": "node", "id": 2120031102, "lat": -27.3665494, "lon": -55.8947077, "tags": {"amenity": "atm", "check_date": "2020-12-17", "network": "Banelco", "operator": "Patagonia"}}, {"type": "node", "id": 2198142386, "lat": -27.3669168, "lon": -55.8955033, "tags": {"addr:city": "Posadas", "addr:country": "AR", "addr:housename": "Posadas Plaza Shopping", "addr:postcode": "3300", "addr:province": "Misiones", "amenity": "atm", "check_date": "2020-12-19", "network": "Banelco", "operator": "Banco Macro"}}, {"type": "node", "id": 2198144364, "lat": -27.3690971, "lon": -55.896113, "tags": {"amenity": "atm", "check_date": "2020-12-19", "network": "Banelco", "operator": "Macro"}}, {"type": "node", "id": 2670853005, "lat": -27.3669984, "lon": -55.8913542, "tags": {"amenity": "atm", "check_date": "2020-12-19", "network": "Banelco", "operator": "Banco Macro"}}, {"type": "node", "id": 2696431145, "lat": -27.3919948, "lon": -55.9666287, "tags": {"amenity": "atm", "currency:ARS": "yes", "network": "Link", "operator": "Banco de la Naci\u00f3n Argentina"}}, {"type": "node", "id": 2874053242, "lat": -27.360174, "lon": -55.8936282, "tags": {"amenity": "atm", "check_date": "2020-12-17", "network": "Banelco", "operator": "Banco Macro"}}, {"type": "node", "id": 2874276598, "lat": -27.3643936, "lon": -55.8931622, "tags": {"addr:city": "Posadas", "addr:housenumber": "1503", "addr:postcode": "N3300", "addr:street": "F\u00e9lix de Azara", "amenity": "atm", "check_date": "2020-12-17", "network": "Link", "opening_hours": "Mo-Fr 08:00-13:00", "operator": "Banco de Corrientes"}}, {"type": "node", "id": 2882735545, "lat": -27.3682628, "lon": -55.9243765, "tags": {"amenity": "atm", "network": "Banelco", "operator": "Banco Macro"}}, {"type": "node", "id": 3026170113, "lat": -27.3579684, "lon": -55.90503, "tags": {"amenity": "atm", "network": "Banelco", "operator": "Banco Macro"}}, {"type": "node", "id": 3136060445, "lat": -27.3670537, "lon": -55.8938204, "tags": {"amenity": "atm", "network": "Banelco", "operator": "Santander"}}, {"type": "node", "id": 3136060574, "lat": -27.368051, "lon": -55.8934595, "tags": {"amenity": "atm", "check_date": "2020-12-16", "network": "Banelco", "opening_hours": "24/7", "operator": "Macro"}}, {"type": "node", "id": 3174854232, "lat": -27.4010913, "lon": -55.9158744, "tags": {"addr:city": "Posadas", "addr:country": "AR", "addr:postcode": "3300", "addr:street": "Franklin", "amenity": "atm", "description": "Cajero autom\u00e1tico Hipermercado Libertad", "network": "Banelco", "opening_hours": "24/7", "operator": "Macro"}}, {"type": "node", "id": 3211780353, "lat": -27.3856498, "lon": -55.8999428, "tags": {"amenity": "atm", "network": "Banelco", "operator": "Banco Macro"}}, {"type": "node", "id": 3248714699, "lat": -27.3675561, "lon": -55.8965997, "tags": {"addr:city": "Posadas", "addr:country": "AR", "addr:housenumber": "2062", "addr:postcode": "3300", "addr:street": "C\u00f3rdoba", "amenity": "atm", "check_date": "2020-12-17", "network": "Banelco", "operator": "Banco Macro"}}, {"type": "node", "id": 3257938018, "lat": -27.3748161, "lon": -55.9264163, "tags": {"addr:city": "Posadas", "addr:country": "AR", "addr:housenumber": "5050", "addr:postcode": "3300", "addr:street": "Avenida Blas Parera", "amenity": "atm", "network": "Banelco", "operator": "Banco Macro"}}, {"type": "node", "id": 3290998219, "lat": -27.4471358, "lon": -55.8706111, "tags": {"addr:housenumber": "5210", "addr:street": "Leonardo Favio", "amenity": "atm", "currency:ARS": "yes", "network": "Banelco", "operator": "Banco Macro"}}, {"type": "node", "id": 3521035145, "lat": -27.4518924, "lon": -55.8652821, "tags": {"addr:housenumber": "4608", "addr:street": "Leonardo Favio", "amenity": "atm", "network": "Banelco", "opening_hours": "24/7", "operator": "Banco Macro"}}, {"type": "node", "id": 3861536244, "lat": -27.3660737, "lon": -55.8946437, "tags": {"amenity": "atm", "check_date": "2020-12-16", "network": "Link", "operator": "Banco Hipotecario"}}, {"type": "node", "id": 4052278404, "lat": -27.4342947, "lon": -55.9148987, "tags": {"amenity": "atm", "network": "Banelco", "operator": "Banco Macro"}}, {"type": "node", "id": 4123766921, "lat": -27.3888344, "lon": -55.9216162, "tags": {"addr:city": "Posadas", "addr:country": "AR", "addr:housenumber": "4305", "addr:postcode": "3300", "addr:street": "Avenida Ituzaing\u00f3", "amenity": "atm", "network": "Banelco", "operator": "Banco Macro"}}, {"type": "node", "id": 4305396915, "lat": -27.4009266, "lon": -55.9171297, "tags": {"addr:city": "Posadas", "addr:country": "AR", "addr:floor": "1", "addr:housename": "Hipermercado Libertad", "addr:housenumber": "3598", "addr:postcode": "3300", "addr:street": "Avenida Quaranta", "amenity": "atm", "level": "1", "network": "Link", "opening_hours": "Mo-Su 09:00-22:00", "operator": "Hipotecario"}}, {"type": "node", "id": 4320443397, "lat": -27.4135621, "lon": -55.9556734, "tags": {"addr:city": "Posadas", "addr:country": "AR", "addr:housenumber": "8187", "addr:postcode": "3300", "addr:street": "Avenida Isaco Abitbol", "amenity": "atm", "network": "Banelco", "opening_hours": "24/7", "operator": "Banco Macro", "wheelchair": "yes"}}, {"type": "node", "id": 4320446005, "lat": -27.4249087, "lon": -55.9326647, "tags": {"addr:city": "Posadas", "addr:country": "AR", "addr:housenumber": "4130", "addr:place": "Changom\u00e1s", "addr:postcode": "3300", "addr:street": "Avenida Cabo de Hornos", "amenity": "atm", "network": "Link", "operator": "Banco Hipotecario"}}, {"type": "node", "id": 4331370909, "lat": -27.3587488, "lon": -55.9308084, "tags": {"addr:city": "Posadas", "addr:country": "AR", "addr:postcode": "3300", "addr:street": "Avenida Areco", "amenity": "atm", "network": "Banelco", "operator": "Banco Macro"}}, {"type": "node", "id": 4337429095, "lat": -27.4009371, "lon": -55.916926, "tags": {"addr:city": "Posadas", "addr:country": "AR", "addr:floor": "1", "addr:housename": "Hipermercado Libertad", "addr:postcode": "3300", "amenity": "atm", "level": "1", "network": "Banelco", "opening_hours": "Mo-Su 09:00-22:00", "operator": "Galicia"}}, {"type": "node", "id": 4340518650, "lat": -27.3383451, "lon": -55.8722583, "tags": {"amenity": "atm", "drive_in": "no", "drive_through": "no", "name": "Continental", "network": "Infonet", "operator": "Banco Continental"}}, {"type": "node", "id": 4663856583, "lat": -27.3684907, "lon": -55.8847563, "tags": {"addr:city": "Posadas", "addr:housenumber": "1838", "addr:postcode": "3300", "addr:street": "Avenida Costanera", "amenity": "atm", "network": "Banelco", "operator": "Banco Macro"}}, {"type": "node", "id": 4897096439, "lat": -27.3722469, "lon": -55.909826, "tags": {"addr:city": "Posadas", "addr:housenumber": "2494", "addr:postcode": "3300", "addr:street": "Avenida Santa Catalina", "amenity": "atm", "check_date": "2021-05-22", "network": "Banelco", "operator": "Banco Macro"}}, {"type": "node", "id": 4949626883, "lat": -27.3672379, "lon": -55.926282, "tags": {"amenity": "atm", "network": "Banelco"}}, {"type": "node", "id": 5018717638, "lat": -27.3653543, "lon": -55.8943568, "tags": {"amenity": "atm", "check_date": "2020-12-16", "network": "Banelco", "opening_hours": "24/7", "operator": "Banco Columbia"}}, {"type": "node", "id": 5264560821, "lat": -27.4593015, "lon": -55.8582444, "tags": {"amenity": "atm", "opening_hours": "Mo-Su 07:00-21:00"}}, {"type": "node", "id": 5454988121, "lat": -27.4009285, "lon": -55.916805, "tags": {"amenity": "atm", "operator": "Banco Galicia"}}, {"type": "node", "id": 5927670285, "lat": -27.3362859, "lon": -55.8727538, "tags": {"amenity": "atm", "operator": "Regional"}}, {"type": "node", "id": 5927670386, "lat": -27.3396537, "lon": -55.8652677, "tags": {"amenity": "atm", "operator": "Banco Continental"}}, {"type": "node", "id": 6470831686, "lat": -27.4321589, "lon": -55.8886903, "tags": {"addr:housenumber": "9200", "addr:street": "Avenida Tulo Llamosas", "amenity": "atm", "cash_in": "yes", "name": "Cajero Express", "network": "Banelco;Link", "operator": "Dos Arroyos"}}, {"type": "node", "id": 6485672586, "lat": -27.3658851, "lon": -55.8959382, "tags": {"amenity": "atm", "operator": "Cajero Express"}}, {"type": "node", "id": 6536881589, "lat": -27.3677836, "lon": -55.8942725, "tags": {"amenity": "atm", "drive_through": "yes", "name": "Banca Digital", "network": "Link", "operator": "Banco Naci\u00f3n"}}, {"type": "node", "id": 6694656286, "lat": -27.3657279, "lon": -55.8935452, "tags": {"addr:city": "Posadas", "addr:housenumber": "1672", "addr:postcode": "3300", "addr:street": "F\u00e9lix de Azara", "amenity": "atm", "name": "Cajero Express", "network": "Multi", "operator": "Dos Arroyos S.A."}}, {"type": "node", "id": 7998167995, "lat": -27.4663229, "lon": -55.8675182, "tags": {"amenity": "atm", "opening_hours": "24/7", "operator": "Banco Macro"}}, {"type": "node", "id": 8005262416, "lat": -27.3318665, "lon": -55.8664414, "tags": {"amenity": "atm", "currency:PYG": "yes", "drive_through": "no", "operator": "Banco Regional"}}, {"type": "node", "id": 8522332632, "lat": -27.4198698, "lon": -55.878194, "tags": {"amenity": "atm", "network": "Banelco", "operator": "Banco Macro"}}, {"type": "node", "id": 8733489991, "lat": -27.4081434, "lon": -55.9831842, "tags": {"addr:city": "Posadas", "addr:housenumber": "10601", "addr:postcode": "3300", "addr:street": "Avenida Los Lirios", "amenity": "atm", "construction": "atm", "network": "Banelco", "operator": "Banco Macro", "source": "https://www.primeraedicion.com.ar/nota/100443281/itaembe-guazu-tendra-su-primer-cajero-automatico-y-sera-de-banco-macro/;https://misionescuatro.com/posadas/banco-macro-inaugura-cajero-en-itaembe-guazu/"}}]}