{"version": 0.6, "generator": "Overpass API 0.7.56.9 76e5016d", "osm3s": {"timestamp_osm_base": "2021-10-16T20:36:37Z", "copyright": "The data included in this document is from www.openstreetmap.org. The data is made available under ODbL."}, "elements": [{"type": "node", "id": 1610257559, "lat": -22.9643957, "lon": -47.0088172}, {"type": "node", "id": 1610257574, "lat": -22.9646888, "lon": -47.0090811}, {"type": "node", "id": 1610257583, "lat": -22.9643625, "lon": -47.0095085}, {"type": "node", "id": 1610257597, "lat": -22.9640695, "lon": -47.0092446}, {"type": "node", "id": 1610826123, "lat": -22.9680305, "lon": -46.9992811}, {"type": "node", "id": 1610826127, "lat": -22.9681136, "lon": -46.9992021}, {"type": "node", "id": 1610826155, "lat": -22.9683025, "lon": -46.9994362}, {"type": "node", "id": 1610826161, "lat": -22.9682194, "lon": -46.9995153}, {"type": "node", "id": 1642528452, "lat": -22.9055365, "lon": -47.0595467, "tags": {"amenity": "police"}}, {"type": "node", "id": 1643741955, "lat": -22.8978018, "lon": -47.067617}, {"type": "node", "id": 1644453480, "lat": -22.8456565, "lon": -47.0681925, "tags": {"addr:city": "Campinas", "addr:suburb": "Jardim Santa Genebra", "amenity": "police", "opening_hours": "Mo-Su 09:00-21:00"}}, {"type": "node", "id": 1647222066, "lat": -22.9157824, "lon": -47.0576235, "tags": {"addr:housenumber": "60", "addr:street": "Avenida do Ipiranga", "amenity": "police", "name": "1\u00ba BAEP"}}, {"type": "node", "id": 1647222067, "lat": -22.9042203, "lon": -47.0695408, "tags": {"addr:housenumber": "159", "addr:street": "Rua Sebasti\u00e3o de Souza", "amenity": "police", "name": "1\u00b0 Departamento de Pol\u00edcia Civil de Campinas", "phone": "(19) 3236 9800", "source": "http://www2.policiacivil.sp.gov.br"}}, {"type": "node", "id": 1647222068, "lat": -22.8999128, "lon": -47.0782943, "tags": {"addr:housenumber": "298", "addr:street": "Rua Luiz Gama", "amenity": "police", "contact:phone": "+55 19 3743-7001", "name": "Comando de Policiamento do Interior 2"}}, {"type": "node", "id": 1712160750, "lat": -22.901365, "lon": -47.0530695, "tags": {"amenity": "police", "name": "Pol\u00edcia Militar", "wheelchair": "limited"}}, {"type": "node", "id": 1735249118, "lat": -22.7621707, "lon": -47.1583113, "tags": {"amenity": "police", "name": "1\u00b0 DP de Paul\u00ednia - S\u00e3o Bento"}}, {"type": "node", "id": 1811708021, "lat": -22.7635609, "lon": -47.1486481}, {"type": "node", "id": 1811708022, "lat": -22.7632685, "lon": -47.1483319}, {"type": "node", "id": 1811708025, "lat": -22.7635708, "lon": -47.1487554}, {"type": "node", "id": 1811708026, "lat": -22.7633237, "lon": -47.1486857}, {"type": "node", "id": 1811708027, "lat": -22.7634424, "lon": -47.1487715}, {"type": "node", "id": 1811708030, "lat": -22.7634375, "lon": -47.1486749}, {"type": "node", "id": 1811708031, "lat": -22.7636549, "lon": -47.1486267}, {"type": "node", "id": 1811708032, "lat": -22.7636054, "lon": -47.1482672}, {"type": "node", "id": 2208922361, "lat": -22.964474, "lon": -47.0091342, "tags": {"amenity": "police", "name": "Delega\u00e7ia de Valinhos"}}, {"type": "node", "id": 2403236205, "lat": -22.9415263, "lon": -47.0352947, "tags": {"amenity": "police", "name": "5\u00ba DP"}}, {"type": "node", "id": 3013492598, "lat": -22.9340606, "lon": -47.0318434, "tags": {"addr:city": "Campinas", "addr:housenumber": "120", "addr:street": "Rua Macara\u00ed", "addr:suburb": "Santa Odila", "amenity": "police", "name": "1\u00aa Cia PM do 35\u00ba BPM/I"}}, {"type": "node", "id": 4303511661, "lat": -22.7154481, "lon": -47.1425743}, {"type": "node", "id": 4303511662, "lat": -22.7154504, "lon": -47.1426638}, {"type": "node", "id": 4303511663, "lat": -22.7156328, "lon": -47.1425688}, {"type": "node", "id": 4303511664, "lat": -22.7156351, "lon": -47.1426583}, {"type": "node", "id": 4359519444, "lat": -22.7648219, "lon": -47.150596, "tags": {"amenity": "police", "name": "Delegacia de Pol\u00edcia de Paul\u00ednia"}}, {"type": "node", "id": 4559125371, "lat": -22.8344402, "lon": -47.0780703, "tags": {"amenity": "police", "name": "8\u00ba Batalh\u00e3o da Pol\u00edcia Militar"}}, {"type": "node", "id": 4628793103, "lat": -22.8705525, "lon": -47.2009555}, {"type": "node", "id": 4628793104, "lat": -22.8708145, "lon": -47.2010521}, {"type": "node", "id": 4628793105, "lat": -22.870859, "lon": -47.2009341}, {"type": "node", "id": 4628793106, "lat": -22.8706019, "lon": -47.2008321}, {"type": "node", "id": 4848528126, "lat": -22.8424335, "lon": -47.1954473, "tags": {"amenity": "police", "name": "Delegacia Seccional de Pol\u00edcia de Sumar\u00e9 5\u00ba DP"}}, {"type": "node", "id": 4851830143, "lat": -22.8982681, "lon": -47.0487498, "tags": {"amenity": "police", "name": "13\u00aa Delegacia de Pol\u00edcia"}}, {"type": "node", "id": 4962930991, "lat": -22.8728675, "lon": -47.0448217}, {"type": "node", "id": 4962930992, "lat": -22.8728689, "lon": -47.0444236}, {"type": "node", "id": 4962930993, "lat": -22.8730722, "lon": -47.0444245}, {"type": "node", "id": 4962930994, "lat": -22.8730709, "lon": -47.0448226}, {"type": "node", "id": 5006144545, "lat": -22.8733778, "lon": -47.0589687}, {"type": "node", "id": 5006144546, "lat": -22.8740405, "lon": -47.0592429}, {"type": "node", "id": 5006144547, "lat": -22.8743151, "lon": -47.0584613}, {"type": "node", "id": 5006144548, "lat": -22.8736523, "lon": -47.0581871}, {"type": "node", "id": 5046324423, "lat": -22.9402311, "lon": -47.153464, "tags": {"amenity": "police", "name": "Guarda Municipal", "name:pt": "Guarda Municipal"}}, {"type": "node", "id": 5046447325, "lat": -22.9492769, "lon": -47.1881496, "tags": {"amenity": "police", "name": "Policia Militar", "name:pt": "Policia Militar"}}, {"type": "node", "id": 5054161121, "lat": -22.9248312, "lon": -47.1271434, "tags": {"amenity": "police", "name": "Receita Federal", "name:pt": "Receita Federal"}}, {"type": "node", "id": 5066986123, "lat": -22.9185003, "lon": -47.1069415, "tags": {"amenity": "police", "name": "2\u00b0 Delegacia Seccional Pol\u00edcia C\u00edvil"}}, {"type": "node", "id": 5302753412, "lat": -22.8523971, "lon": -47.1899151, "tags": {"amenity": "police", "name": "2\u00aa Cia do 48\u00b0 BPM/I", "operator": "Policia Militar"}}, {"type": "node", "id": 5324016084, "lat": -22.943077, "lon": -46.9940578}, {"type": "node", "id": 5324016085, "lat": -22.9432827, "lon": -46.9940633}, {"type": "node", "id": 5324016086, "lat": -22.9432835, "lon": -46.9940133}, {"type": "node", "id": 5324016087, "lat": -22.943281, "lon": -46.9939614}, {"type": "node", "id": 5324016088, "lat": -22.9432682, "lon": -46.9939234}, {"type": "node", "id": 5324016089, "lat": -22.9432469, "lon": -46.9938873}, {"type": "node", "id": 5324016090, "lat": -22.9432187, "lon": -46.9938734}, {"type": "node", "id": 5324016091, "lat": -22.9431914, "lon": -46.9938678}, {"type": "node", "id": 5324016092, "lat": -22.9430762, "lon": -46.993865}, {"type": "node", "id": 5559650279, "lat": -22.7785356, "lon": -47.1440759, "tags": {"addr:city": "Paul\u00ednia", "addr:housenumber": "3112", "addr:postcode": "13140707", "addr:street": "Avenida Jos\u00e9 Paulino", "addr:suburb": "Jardim Europa", "amenity": "police", "name": "4\u00aa Cia da PM", "opening_hours": "24/7"}}, {"type": "node", "id": 5646528603, "lat": -22.9079569, "lon": -47.0825915, "tags": {"amenity": "police"}}, {"type": "node", "id": 5728963222, "lat": -22.9148715, "lon": -47.063617, "tags": {"amenity": "police", "name": "8- Batalh\u00e3o da Pol\u00edcia Militar"}}, {"type": "node", "id": 5920601438, "lat": -22.819423, "lon": -47.0745228}, {"type": "node", "id": 5920601439, "lat": -22.8195413, "lon": -47.0744037}, {"type": "node", "id": 5920601440, "lat": -22.8197329, "lon": -47.0746115}, {"type": "node", "id": 5920601441, "lat": -22.8196059, "lon": -47.0747352}, {"type": "node", "id": 6356551085, "lat": -22.9353539, "lon": -47.0509979, "tags": {"amenity": "police", "name": "Pol\u00edcia Militar do Estado de S\u00e3o Paulo"}}, {"type": "node", "id": 6718713921, "lat": -22.9989337, "lon": -46.8342687}, {"type": "node", "id": 6718713922, "lat": -22.9986478, "lon": -46.8342757}, {"type": "node", "id": 6718713923, "lat": -22.9986478, "lon": -46.8342033}, {"type": "node", "id": 6718713924, "lat": -22.9986736, "lon": -46.8342057}, {"type": "node", "id": 6718713925, "lat": -22.9986736, "lon": -46.8340959}, {"type": "node", "id": 6718713926, "lat": -22.9989294, "lon": -46.8340936}, {"type": "node", "id": 6781270482, "lat": -22.7982404, "lon": -47.0317046}, {"type": "node", "id": 6781270483, "lat": -22.7975912, "lon": -47.031636}, {"type": "node", "id": 6781270484, "lat": -22.7975621, "lon": -47.0321271}, {"type": "node", "id": 6781297785, "lat": -22.7980439, "lon": -47.0321475}, {"type": "node", "id": 7392400565, "lat": -22.9720262, "lon": -47.1284497, "tags": {"amenity": "police"}}, {"type": "node", "id": 7605307351, "lat": -22.8974781, "lon": -47.0675701}, {"type": "node", "id": 7605307352, "lat": -22.897698, "lon": -47.0674051}, {"type": "node", "id": 7605307353, "lat": -22.8977475, "lon": -47.0674789}, {"type": "node", "id": 7605307354, "lat": -22.8977215, "lon": -47.0674977}, {"type": "node", "id": 7605307355, "lat": -22.897593, "lon": -47.0677538}, {"type": "node", "id": 8278552980, "lat": -22.7634418, "lon": -47.1487605}, {"type": "node", "id": 8288282142, "lat": -22.7635694, "lon": -47.1487406}, {"type": "node", "id": 8863852860, "lat": -22.9151885, "lon": -47.0663684}, {"type": "node", "id": 8863852861, "lat": -22.9152179, "lon": -47.0659791}, {"type": "node", "id": 8863852862, "lat": -22.915772, "lon": -47.0661454}, {"type": "node", "id": 8863852863, "lat": -22.9156808, "lon": -47.0665453}, {"type": "way", "id": 147873406, "nodes": [1610257597, 1610257583, 1610257574, 1610257559, 1610257597], "tags": {"amenity": "police", "name": "Delegacia de Pol\u00edcia e Ciretran", "source": "Bing, conhecimento local"}}, {"type": "way", "id": 147964433, "nodes": [1610826161, 1610826155, 1610826127, 1610826123, 1610826161], "tags": {"addr:housenumber": "325", "addr:street": "Campos Salles", "amenity": "police", "name": "Delegacia Defesa da Mulher", "source": "Bing, conhecimento local"}}, {"type": "way", "id": 170019188, "nodes": [1811708031, 1811708032, 1811708022, 1811708026, 1811708030, 8278552980, 1811708027, 1811708025, 8288282142, 1811708021, 1811708031], "tags": {"addr:city": "Paul\u00ednia", "addr:housenumber": "1432", "addr:postcode": "1314177", "addr:street": "Avenida dos Expedicion\u00e1rios", "addr:suburb": "Vista Alegre", "amenity": "police", "building": "yes", "name": "Guarda Civil de Paul\u00ednia \"Pr\u00e9dio Alcides Leopoldino da Fonseca\"", "opening_hours": "24/7", "operator": "Prefeitura Municipal de Paul\u00ednia", "phone": "+55 (19) 38743646 ou 153", "website": "https://gcmpaulinia.online/index.php"}}, {"type": "way", "id": 431103626, "nodes": [4303511662, 4303511661, 4303511663, 4303511664, 4303511662], "tags": {"amenity": "police", "building": "yes", "name": "Policia Rodovi\u00e1ria Estadual", "police": "traffic_police"}}, {"type": "way", "id": 468347899, "nodes": [4628793103, 4628793104, 4628793105, 4628793106, 4628793103], "tags": {"addr:city": "Hortol\u00e2ndia", "addr:housenumber": "70", "addr:street": "R. Flambolant", "addr:suburb": "Parque dos Pinheiros", "amenity": "police", "building": "yes", "name": "Delegacia de Pol\u00edcia de Hortol\u00e2ndia"}}, {"type": "way", "id": 506583175, "nodes": [4962930991, 4962930992, 4962930993, 4962930994, 4962930991], "tags": {"amenity": "police", "building": "yes", "name": "4\u00ba DP"}}, {"type": "way", "id": 511865423, "nodes": [5006144545, 5006144546, 5006144547, 5006144548, 5006144545], "tags": {"amenity": "police", "barrier": "fence", "name": "Guarda Municipal de Campinas"}}, {"type": "way", "id": 551286735, "nodes": [5324016084, 5324016085, 5324016086, 5324016087, 5324016088, 5324016089, 5324016090, 5324016091, 5324016092, 5324016084], "tags": {"addr:city": "Valinhos", "addr:street": "Avenida Um", "addr:suburb": "Jardim Sao Marcos,", "amenity": "police", "building": "yes", "name": "Guarda Municipal"}}, {"type": "way", "id": 627167444, "nodes": [5920601438, 5920601439, 5920601440, 5920601441, 5920601438], "tags": {"addr:city": "Campinas", "addr:housenumber": "791", "amenity": "police", "building": "yes", "name": "7\u00ba Distrito Policial de Campinas"}}, {"type": "way", "id": 714792080, "nodes": [6718713921, 6718713922, 6718713923, 6718713924, 6718713925, 6718713926, 6718713921], "tags": {"amenity": "police", "building": "yes", "name": "Guarda Municipal de Itatiba"}}, {"type": "way", "id": 722968085, "nodes": [6781270482, 6781270483, 6781270484, 6781297785, 6781270482], "tags": {"amenity": "police", "name": "Pol\u00edcia Militar Rodovi\u00e1ria - 4\u00ba BPRv - 2\u00aa Cia", "police": "traffic_police"}}, {"type": "way", "id": 814141760, "nodes": [7605307355, 1643741955, 7605307354, 7605307353, 7605307352, 7605307351, 7605307355], "tags": {"amenity": "police", "building": "yes", "name": "Pol\u00edcia Federal"}}, {"type": "way", "id": 957947839, "nodes": [8863852860, 8863852861, 8863852862, 8863852863, 8863852860], "tags": {"addr:city": "Campinas", "addr:housenumber": "191", "addr:street": "Avenida das Amoreiras", "addr:suburb": "Parque It\u00e1lia", "amenity": "police", "building": "yes", "name": "Pol\u00edcia Militar Ambiental"}}]}