{"version": 0.6, "generator": "Overpass API 0.7.56.9 76e5016d", "osm3s": {"timestamp_osm_base": "2021-10-16T20:30:33Z", "copyright": "The data included in this document is from www.openstreetmap.org. The data is made available under ODbL."}, "elements": [{"type": "node", "id": 2878494087, "lat": -23.498712, "lon": -46.3137453, "tags": {"addr:street": "Rua Maria do Carmo Borges Lingeardi", "amenity": "police"}}, {"type": "node", "id": 3630048405, "lat": -23.5616106, "lon": -46.3341533, "tags": {"amenity": "police"}}, {"type": "node", "id": 3631782960, "lat": -23.5495338, "lon": -46.3143465, "tags": {"addr:city": "Suzano", "addr:street": "Rua General Francisco Glic\u00e9rio", "addr:suburb": "Centro", "amenity": "police"}}, {"type": "node", "id": 4212662510, "lat": -23.5197205, "lon": -46.3411092}, {"type": "node", "id": 4212662511, "lat": -23.5196245, "lon": -46.3407739}, {"type": "node", "id": 4212662512, "lat": -23.5197967, "lon": -46.340739}, {"type": "node", "id": 4212662513, "lat": -23.5198852, "lon": -46.3410823}, {"type": "node", "id": 4465908190, "lat": -23.5228545, "lon": -46.1812695, "tags": {"addr:city": "Mogi das Cruzes", "addr:housenumber": "769", "addr:street": "Pra\u00e7a Norival Tavares", "addr:suburb": "Parque Monte L\u00edbano", "amenity": "police", "name": "1\u00ba Distrito Policial", "phone": "+55 11 4799 1212"}}, {"type": "node", "id": 4511402120, "lat": -23.5016729, "lon": -46.1563998}, {"type": "node", "id": 4511402121, "lat": -23.5018297, "lon": -46.1562251}, {"type": "node", "id": 4511402122, "lat": -23.5019415, "lon": -46.1563452}, {"type": "node", "id": 4511402123, "lat": -23.5019315, "lon": -46.1563579}, {"type": "node", "id": 4511402124, "lat": -23.5019482, "lon": -46.1563779}, {"type": "node", "id": 4511402125, "lat": -23.5019082, "lon": -46.1564271}, {"type": "node", "id": 4511402126, "lat": -23.5018881, "lon": -46.1564107}, {"type": "node", "id": 4511402127, "lat": -23.501788, "lon": -46.1565217}, {"type": "node", "id": 5004101587, "lat": -23.5159269, "lon": -46.17454, "tags": {"addr:city": "Mogi das Cruzes", "addr:housenumber": "51", "addr:postcode": "08780-740", "addr:street": "Rua Antonio Verga\u00e7as", "addr:suburb": "Jardim Arm\u00eania", "amenity": "police", "name": "Base da Guarda Municipal"}}, {"type": "node", "id": 5593533654, "lat": -23.5691749, "lon": -46.041968}, {"type": "node", "id": 5593533655, "lat": -23.569229, "lon": -46.0419975}, {"type": "node", "id": 5593533656, "lat": -23.5693187, "lon": -46.0418473}, {"type": "node", "id": 5593533657, "lat": -23.5693445, "lon": -46.0418621}, {"type": "node", "id": 5593533658, "lat": -23.5693924, "lon": -46.0417789}, {"type": "node", "id": 5593533659, "lat": -23.5693101, "lon": -46.0417213}, {"type": "node", "id": 5652721728, "lat": -23.6482528, "lon": -46.2395875, "tags": {"amenity": "police"}}, {"type": "node", "id": 5755054269, "lat": -23.5806568, "lon": -46.1795293}, {"type": "node", "id": 5755054270, "lat": -23.5806455, "lon": -46.1794972}, {"type": "node", "id": 5755054271, "lat": -23.5805141, "lon": -46.1794835}, {"type": "node", "id": 5762560797, "lat": -23.534513, "lon": -46.1911467, "tags": {"addr:city": "Mogi das Cruzes", "addr:street": "Avenida Pedro Machado", "addr:suburb": "Mogi Moderno", "amenity": "police", "name": "Base Policia Militar"}}, {"type": "node", "id": 5780432930, "lat": -23.5218828, "lon": -46.1804063}, {"type": "node", "id": 5780432931, "lat": -23.5221951, "lon": -46.1805243}, {"type": "node", "id": 5780432932, "lat": -23.5222345, "lon": -46.1803982}, {"type": "node", "id": 5780432933, "lat": -23.5219197, "lon": -46.1802856}, {"type": "node", "id": 5804166971, "lat": -23.5317003, "lon": -46.3236474}, {"type": "node", "id": 5804166972, "lat": -23.5317256, "lon": -46.3236921}, {"type": "node", "id": 5804166973, "lat": -23.5317632, "lon": -46.3237251}, {"type": "node", "id": 5804166974, "lat": -23.5318087, "lon": -46.3237425}, {"type": "node", "id": 5804166975, "lat": -23.5318562, "lon": -46.3237383}, {"type": "node", "id": 5804166976, "lat": -23.5318832, "lon": -46.3237187}, {"type": "node", "id": 5804166977, "lat": -23.5319379, "lon": -46.3237405}, {"type": "node", "id": 5804166978, "lat": -23.5319649, "lon": -46.3236467}, {"type": "node", "id": 5804166979, "lat": -23.5319878, "lon": -46.323549}, {"type": "node", "id": 5804166980, "lat": -23.5319489, "lon": -46.3235203}, {"type": "node", "id": 5804166981, "lat": -23.5318197, "lon": -46.3234344}, {"type": "node", "id": 5804166982, "lat": -23.5317959, "lon": -46.3234389}, {"type": "node", "id": 5804166983, "lat": -23.5317732, "lon": -46.3234478}, {"type": "node", "id": 5804166984, "lat": -23.5317522, "lon": -46.3234607}, {"type": "node", "id": 5804166985, "lat": -23.5317335, "lon": -46.3234773}, {"type": "node", "id": 5804166986, "lat": -23.5317176, "lon": -46.3234972}, {"type": "node", "id": 5804166987, "lat": -23.531705, "lon": -46.3235196}, {"type": "node", "id": 5804166988, "lat": -23.5316961, "lon": -46.3235441}, {"type": "node", "id": 5804166989, "lat": -23.5316901, "lon": -46.3235961}, {"type": "node", "id": 5804166990, "lat": -23.5316932, "lon": -46.3236222}, {"type": "node", "id": 5804166991, "lat": -23.531691, "lon": -46.3235698}, {"type": "node", "id": 5804166992, "lat": -23.5319467, "lon": -46.3234963}, {"type": "node", "id": 5804166993, "lat": -23.5319118, "lon": -46.32346}, {"type": "node", "id": 5804166994, "lat": -23.5318677, "lon": -46.3234386}, {"type": "node", "id": 5819611938, "lat": -23.5324067, "lon": -46.2026619, "tags": {"amenity": "police", "name": "Guarda Municipal", "phone": "153"}}, {"type": "node", "id": 5840734639, "lat": -23.5109668, "lon": -46.1564764}, {"type": "node", "id": 5840734640, "lat": -23.5112994, "lon": -46.1563025}, {"type": "node", "id": 5840734641, "lat": -23.5112228, "lon": -46.1561282}, {"type": "node", "id": 5840734642, "lat": -23.5108902, "lon": -46.156302}, {"type": "node", "id": 5854900555, "lat": -23.5364918, "lon": -46.2194249}, {"type": "node", "id": 5854900556, "lat": -23.5363787, "lon": -46.219087}, {"type": "node", "id": 5854900557, "lat": -23.5366934, "lon": -46.2189502}, {"type": "node", "id": 5854900558, "lat": -23.5367106, "lon": -46.219036}, {"type": "node", "id": 5854900559, "lat": -23.5367156, "lon": -46.2190977}, {"type": "node", "id": 5854900560, "lat": -23.5366713, "lon": -46.2191808}, {"type": "node", "id": 5866912386, "lat": -23.5479373, "lon": -46.2464834}, {"type": "node", "id": 5866912387, "lat": -23.5480012, "lon": -46.2460623}, {"type": "node", "id": 5866912388, "lat": -23.5484315, "lon": -46.2461401}, {"type": "node", "id": 5866912389, "lat": -23.5483578, "lon": -46.2465585}, {"type": "node", "id": 5982118940, "lat": -23.5053932, "lon": -46.2998206}, {"type": "node", "id": 5982118941, "lat": -23.5053588, "lon": -46.2992252}, {"type": "node", "id": 5982118942, "lat": -23.5057966, "lon": -46.2991823}, {"type": "node", "id": 5982118943, "lat": -23.5058261, "lon": -46.2998153}, {"type": "node", "id": 5987462986, "lat": -23.5294729, "lon": -46.3256977}, {"type": "node", "id": 5987462987, "lat": -23.5296064, "lon": -46.3253162}, {"type": "node", "id": 5987462988, "lat": -23.5294746, "lon": -46.3252613}, {"type": "node", "id": 5987462989, "lat": -23.5293411, "lon": -46.3256428}, {"type": "node", "id": 6005294129, "lat": -23.4014468, "lon": -46.3109948, "tags": {"amenity": "police", "name": "Policia Rodovi\u00e1ria Federal", "police": "traffic_police"}}, {"type": "node", "id": 6007581848, "lat": -23.5805445, "lon": -46.1795679}, {"type": "node", "id": 6007581849, "lat": -23.5806146, "lon": -46.1794858}, {"type": "node", "id": 6007581850, "lat": -23.5805956, "lon": -46.1794512}, {"type": "node", "id": 6007581851, "lat": -23.5805549, "lon": -46.1794674, "tags": {"entrance": "yes"}}, {"type": "node", "id": 6007979990, "lat": -23.5695885, "lon": -46.3023659, "tags": {"amenity": "police", "police": "traffic_police"}}, {"type": "node", "id": 6013039948, "lat": -23.4627905, "lon": -46.0780372, "tags": {"amenity": "police", "police": "traffic_police"}}, {"type": "node", "id": 6072031541, "lat": -23.5087821, "lon": -46.1727552, "tags": {"amenity": "police", "name": "Pol\u00edcia Municipal"}}, {"type": "node", "id": 6073327833, "lat": -23.5370142, "lon": -46.1962906}, {"type": "node", "id": 6073327834, "lat": -23.5370528, "lon": -46.196293}, {"type": "node", "id": 6073327835, "lat": -23.5370474, "lon": -46.1963794}, {"type": "node", "id": 6073327836, "lat": -23.53701, "lon": -46.1963782}, {"type": "node", "id": 6451192927, "lat": -23.3961144, "lon": -46.3153162}, {"type": "node", "id": 6451192928, "lat": -23.3960528, "lon": -46.3152035}, {"type": "node", "id": 6451192929, "lat": -23.3961931, "lon": -46.315107}, {"type": "node", "id": 6451192930, "lat": -23.3961611, "lon": -46.315056}, {"type": "node", "id": 6451192931, "lat": -23.3962374, "lon": -46.3150024}, {"type": "node", "id": 6451192932, "lat": -23.3963113, "lon": -46.3151955}, {"type": "node", "id": 6482461395, "lat": -23.5828131, "lon": -46.0421071}, {"type": "node", "id": 6482461396, "lat": -23.5827224, "lon": -46.0422857}, {"type": "node", "id": 6482461397, "lat": -23.5825588, "lon": -46.042208}, {"type": "node", "id": 6482461398, "lat": -23.5825872, "lon": -46.0421517}, {"type": "node", "id": 6482461399, "lat": -23.5824983, "lon": -46.0421052}, {"type": "node", "id": 6482461400, "lat": -23.5824538, "lon": -46.0420819}, {"type": "node", "id": 6482461401, "lat": -23.5824592, "lon": -46.0420392}, {"type": "node", "id": 6482461402, "lat": -23.5824485, "lon": -46.0420198}, {"type": "node", "id": 6482461403, "lat": -23.5823418, "lon": -46.0419751}, {"type": "node", "id": 6482461404, "lat": -23.5823969, "lon": -46.0418451}, {"type": "node", "id": 6482461405, "lat": -23.5825819, "lon": -46.0419615}, {"type": "node", "id": 6482461406, "lat": -23.5826335, "lon": -46.0420256}, {"type": "node", "id": 6542592815, "lat": -23.5378486, "lon": -46.2245568, "tags": {"amenity": "police", "name": "Posto Policial"}}, {"type": "node", "id": 8203433473, "lat": -23.6452871, "lon": -46.3222974}, {"type": "node", "id": 8203433474, "lat": -23.6453658, "lon": -46.3220346}, {"type": "node", "id": 8203433475, "lat": -23.6448498, "lon": -46.3218951}, {"type": "node", "id": 8203433476, "lat": -23.6447982, "lon": -46.3220453}, {"type": "node", "id": 8203433477, "lat": -23.6449309, "lon": -46.3220694}, {"type": "node", "id": 8203433478, "lat": -23.6449972, "lon": -46.3222357}, {"type": "node", "id": 8235862322, "lat": -23.5239898, "lon": -46.3421368, "tags": {"amenity": "police", "name": "CSI Po\u00e1"}}, {"type": "node", "id": 8877898070, "lat": -23.3963999, "lon": -46.3314803}, {"type": "node", "id": 8877898071, "lat": -23.3968053, "lon": -46.331333}, {"type": "node", "id": 8877898072, "lat": -23.3966569, "lon": -46.3308357}, {"type": "node", "id": 8877898073, "lat": -23.3962537, "lon": -46.3309951}, {"type": "node", "id": 8907896531, "lat": -23.3879449, "lon": -46.3258539, "tags": {"addr:street": "Avenida Doutor Armando Col\u00e2ngelo", "addr:suburb": "Parque Rodrigo Barreto", "amenity": "police", "name": "Guarda Civil Municipal de Aruj\u00e1", "operator": "Secretaria de Seguran\u00e7a P\u00fablica e Cidad\u00e3 de Aruj\u00e1", "phone": "153"}}, {"type": "node", "id": 8920179759, "lat": -23.396188, "lon": -46.3203222}, {"type": "node", "id": 8920179760, "lat": -23.3962496, "lon": -46.320298}, {"type": "node", "id": 8920179761, "lat": -23.3961831, "lon": -46.3201076}, {"type": "node", "id": 8920179762, "lat": -23.396065, "lon": -46.3201613}, {"type": "way", "id": 421507307, "nodes": [4212662510, 4212662511, 4212662512, 4212662513, 4212662510], "tags": {"addr:city": "Po\u00e1", "addr:housenumber": "195", "addr:street": "Avenida Ant\u00f4nio Massa", "addr:suburb": "Centro", "amenity": "police", "building": "yes", "name": "Delegacia Pol\u00edcia Civil"}}, {"type": "way", "id": 454595320, "nodes": [4511402120, 4511402121, 4511402122, 4511402123, 4511402124, 4511402125, 4511402126, 4511402127, 4511402120], "tags": {"addr:city": "Mogi das Cruzes", "addr:street": "Rua Inoc\u00eancio da Cunha Rudge", "addr:suburb": "Vila Su\u00edssa", "alt_name": "3\u00ba DP - Delegacia de Pol\u00edcia", "amenity": "police", "building": "yes", "name": "3\u00ba Distrito Policial Doutor Ari D'Antracoli", "operator": "Secretaria de Seguran\u00e7a P\u00fablica do Estado de S\u00e3o Paulo"}}, {"type": "way", "id": 585276270, "nodes": [5593533654, 5593533655, 5593533656, 5593533657, 5593533658, 5593533659, 5593533654], "tags": {"addr:city": "Biritiba-Mirim", "addr:postcode": "08940-000", "addr:street": "Rua Oswaldo Cruz", "addr:suburb": "Centro", "amenity": "police", "building": "yes", "name": "GP PM - 3\u00aa CIA PM - 17\u00ba BPM/M - Biritiba-Mirim", "operator": "Secretaria da Seguran\u00e7a P\u00fablica do Estado de S\u00e3o Paulo", "phone": "+55 11 4692 1090"}}, {"type": "way", "id": 607191537, "nodes": [5755054269, 5755054270, 6007581849, 6007581850, 6007581851, 5755054271, 6007581848, 5755054269], "tags": {"addr:city": "Mogi das Cruzes", "addr:street": "Avenida Prefeito Francisco Ribeiro Nogueira", "addr:suburb": "Vila Moraes", "amenity": "police", "building": "yes", "name": "Base Operacional Mogi das Cruzes", "police": "traffic_police"}}, {"type": "way", "id": 610327733, "nodes": [5780432930, 5780432931, 5780432932, 5780432933, 5780432930], "tags": {"addr:city": "Mogi das Cruzes", "addr:housenumber": "21", "addr:street": "Rua Ant\u00f4nio Nascimento Costa", "addr:suburb": "Vila Oliveira", "amenity": "police", "building": "yes", "name": "Delegacia de Defesa da Mulher", "operator": "Secretaria de Seguran\u00e7a P\u00fablica do Estado de S\u00e3o Paulo"}}, {"type": "way", "id": 613421530, "nodes": [5804166971, 5804166972, 5804166973, 5804166974, 5804166975, 5804166976, 5804166977, 5804166978, 5804166979, 5804166980, 5804166992, 5804166993, 5804166994, 5804166981, 5804166982, 5804166983, 5804166984, 5804166985, 5804166986, 5804166987, 5804166988, 5804166991, 5804166989, 5804166990, 5804166971], "tags": {"amenity": "police", "building": "yes"}}, {"type": "way", "id": 617905920, "nodes": [5840734639, 5840734640, 5840734641, 5840734642, 5840734639], "tags": {"addr:city": "Mogi das Cruzes", "addr:postcode": "08730-060", "addr:street": "Avenida Vereador Dante Jord\u00e3o Stoppa", "addr:suburb": "Jardim S\u00e3o Pedro", "amenity": "police", "building": "yes", "name": "1\u00aa Cia PM/17\u00b0 Batalh\u00e3o da Pol\u00edcia Militar", "note": "Sem numera\u00e7\u00e3o", "operator": "Secretaria da Seguran\u00e7a P\u00fablica do Estado de S\u00e3o Paulo", "source": "http://www.ssp.sp.gov.br/servicos/mapaTelefones.aspx     \u00d7"}}, {"type": "way", "id": 619588693, "nodes": [5854900555, 5854900556, 5854900557, 5854900558, 5854900559, 5854900560, 5854900555], "tags": {"addr:city": "Mogi das Cruzes", "addr:street": "Rua Francisco Vaz Coelho", "amenity": "police", "building": "yes", "name": "DICMA Delegacia do Meio Ambiente", "operator": "Secfretaria da Seguran\u00e7a Publica do Estado de S\u00e3o Paulo"}}, {"type": "way", "id": 621000304, "nodes": [5866912386, 5866912387, 5866912388, 5866912389, 5866912386], "tags": {"addr:city": "Mogi das Cruzes", "addr:street": "Avenida Jo\u00e3o de Souza Franco", "addr:suburb": "Jundiapeba", "amenity": "police", "name": "2\u00aa Cia/17\u00ba BPM/M", "operator": "Secretaria de Seguran\u00e7a P\u00fablica do Estado de S\u00e3o Paulo"}}, {"type": "way", "id": 633753336, "nodes": [5982118940, 5982118941, 5982118942, 5982118943, 5982118940], "tags": {"addr:city": "Suzano", "addr:street": "Avenida Francisco Marengo", "amenity": "police", "name": "4\u00aa CIA 32\u00ba BPM/M", "operator": "Secretaria da Seguran\u00e7a P\u00fablica do Estado de S\u00e3o Paulo"}}, {"type": "way", "id": 634469255, "nodes": [5987462986, 5987462987, 5987462988, 5987462989, 5987462986], "tags": {"addr:housenumber": "173", "addr:street": "Avenida Paulista", "amenity": "police", "building": "yes", "name": "CPM CPA/M12 32\u00ba BPM/M", "operator": "Secretaria da Seguran\u00e7a P\u00fablica do Estado de S\u00e3o Paulo"}}, {"type": "way", "id": 646374516, "nodes": [6073327833, 6073327834, 6073327835, 6073327836, 6073327833], "tags": {"amenity": "police", "building": "yes", "name": "Pol\u00edcia Municipal"}}, {"type": "way", "id": 688085084, "nodes": [6451192927, 6451192928, 6451192929, 6451192930, 6451192931, 6451192932, 6451192927], "tags": {"addr:street": "Rua Rio de Janeiro", "amenity": "police"}}, {"type": "way", "id": 690903020, "nodes": [6482461395, 6482461396, 6482461397, 6482461398, 6482461399, 6482461400, 6482461401, 6482461402, 6482461403, 6482461404, 6482461405, 6482461406, 6482461395], "tags": {"amenity": "police", "building": "yes"}}, {"type": "way", "id": 882128779, "nodes": [8203433473, 8203433474, 8203433475, 8203433476, 8203433477, 8203433478, 8203433473], "tags": {"addr:street": "Estrada do Koyama", "amenity": "police", "operator": "Secretaria da Seguran\u00e7a P\u00fablica do Estado de S\u00e3o Paulo"}}, {"type": "way", "id": 959522141, "nodes": [8877898070, 8877898071, 8877898072, 8877898073, 8877898070], "tags": {"addr:street": "Avenida Jo\u00e3o Manoel", "amenity": "police", "name": "Pol\u00edcia Militar CPA/M7 - 31\u00ba BPM/M - 3\u00aa CIA PM", "operator": "Secretaria da Seguran\u00e7a P\u00fablica do Estado de S\u00e3o Paulo"}}, {"type": "way", "id": 964378608, "nodes": [8920179759, 8920179760, 8920179761, 8920179762, 8920179759], "tags": {"addr:street": "Pra\u00e7a Bartolomeu Bueno", "addr:suburb": "Centro", "amenity": "police", "building": "yes", "name": "Delegacia de Pol\u00edcia de Aruj\u00e1", "operator": "Secretaria da Seguran\u00e7a P\u00fablica do Estado de S\u00e3o Paulo"}}]}