{"version": 0.6, "generator": "Overpass API 0.7.57.1 74a55df1", "osm3s": {"timestamp_osm_base": "2021-12-02T13:07:21Z", "copyright": "The data included in this document is from www.openstreetmap.org. The data is made available under ODbL."}, "elements": [{"type": "node", "id": 298086258, "lat": 37.7889604, "lon": -122.4083142, "tags": {"amenity": "nightclub", "created_by": "Potlatch 0.10f", "name": "Starlight Room"}}, {"type": "node", "id": 389443002, "lat": 37.7772743, "lon": -122.4038409, "tags": {"amenity": "nightclub", "name": "The Endup", "url": "http://www.theendup.com/", "wikidata": "Q7732041"}}, {"type": "node", "id": 459507719, "lat": 37.7671357, "lon": -122.4287948, "tags": {"amenity": "nightclub", "name": "Pilsner Inn"}}, {"type": "node", "id": 1206893704, "lat": 37.7981103, "lon": -122.4036493, "tags": {"amenity": "nightclub", "name": "DejaVu Centerfolds", "opening_hours": "15:00-2:00", "phone": "415-834-0662", "website": "https://centerfoldssf.com/"}}, {"type": "node", "id": 1230343522, "lat": 37.7307999, "lon": -122.405054}, {"type": "node", "id": 1458466024, "lat": 37.7717632, "lon": -122.4143762}, {"type": "node", "id": 1458466060, "lat": 37.7711389, "lon": -122.4124297}, {"type": "node", "id": 1458466077, "lat": 37.7714097, "lon": -122.4140583}, {"type": "node", "id": 1458466163, "lat": 37.771231, "lon": -122.4125502}, {"type": "node", "id": 1458466237, "lat": 37.7709418, "lon": -122.4126788}, {"type": "node", "id": 1458466340, "lat": 37.7719566, "lon": -122.4146291}, {"type": "node", "id": 1458466354, "lat": 37.7710362, "lon": -122.4127951}, {"type": "node", "id": 1612773838, "lat": 37.7713391, "lon": -122.4139596}, {"type": "node", "id": 1612773842, "lat": 37.7714189, "lon": -122.4140712}, {"type": "node", "id": 1612773844, "lat": 37.7714711, "lon": -122.4139986}, {"type": "node", "id": 1612773846, "lat": 37.7714893, "lon": -122.4137643}, {"type": "node", "id": 1612773848, "lat": 37.7715762, "lon": -122.4138696}, {"type": "node", "id": 1612773850, "lat": 37.7716112, "lon": -122.4141699}, {"type": "node", "id": 1612773851, "lat": 37.7717067, "lon": -122.4140515}, {"type": "node", "id": 1612773858, "lat": 37.7717056, "lon": -122.414034}, {"type": "node", "id": 1613924529, "lat": 37.7885478, "lon": -122.398145, "tags": {"addr:housenumber": "46", "addr:street": "Minna Street", "amenity": "nightclub", "email": "info@harlotsf.com", "name": "Harlot", "opening_hours": "We-Sa 21:00-02:00", "phone": "+1 415 777 1077", "website": "http://www.harlotsf.com/"}}, {"type": "node", "id": 1940798155, "lat": 37.788933, "lon": -122.4066607, "tags": {"addr:housenumber": "85", "addr:street": "Campton Place", "amenity": "nightclub", "name": "Vessel"}}, {"type": "node", "id": 2104913089, "lat": 37.7976129, "lon": -122.405601, "tags": {"addr:housenumber": "1031", "addr:street": "Kearny Street", "amenity": "nightclub", "name": "Larry Flynt's Hustler Club", "website": "hustlerclubsf.com"}}, {"type": "node", "id": 2115332564, "lat": 37.782532, "lon": -122.408065, "tags": {"addr:city": "San Francisco", "addr:housenumber": "444", "addr:postcode": "94103", "addr:street": "Jessie Street", "amenity": "nightclub", "name": "Mezzanine", "phone": "415 625 8880", "website": "https://mezzaninesf.com/"}}, {"type": "node", "id": 2166014680, "lat": 37.7977101, "lon": -122.4056497, "tags": {"amenity": "nightclub", "name": "Garden Of Eden", "opening_hours": "18:00-2:00", "phone": "415-397-2596", "website": "https://www.goe-sf.com/"}}, {"type": "node", "id": 2167562335, "lat": 37.796061, "lon": -122.422028, "tags": {"amenity": "nightclub", "email": "VIP@RougeSF.com", "email_1": "Crispytaco@sbcglobal.net", "name": "Rouge Night Club", "opening_hours": "Mo, We, Th 11:30-23:30; Tu 11:30-00:00; Fr 11:30-02:00; Sa 10:30-02:00; Su 10:30-22:00"}}, {"type": "node", "id": 2583230505, "lat": 37.7726957, "lon": -122.4100911}, {"type": "node", "id": 2583230506, "lat": 37.7727503, "lon": -122.4101601}, {"type": "node", "id": 2583230507, "lat": 37.772891, "lon": -122.4098442}, {"type": "node", "id": 2583230508, "lat": 37.7729456, "lon": -122.4099132}, {"type": "node", "id": 2617310015, "lat": 37.7808242, "lon": -122.4083307}, {"type": "node", "id": 2617310020, "lat": 37.7811198, "lon": -122.4083346}, {"type": "node", "id": 2621348379, "lat": 37.7718728, "lon": -122.4142421}, {"type": "node", "id": 2621348382, "lat": 37.7720662, "lon": -122.4144949}, {"type": "node", "id": 2656736283, "lat": 37.7604359, "lon": -122.4213394}, {"type": "node", "id": 2656736289, "lat": 37.7604472, "lon": -122.4211166}, {"type": "node", "id": 2656736309, "lat": 37.7605255, "lon": -122.4213467}, {"type": "node", "id": 2656736318, "lat": 37.76054, "lon": -122.421063}, {"type": "node", "id": 2665707268, "lat": 37.768726, "lon": -122.4194306}, {"type": "node", "id": 2665707270, "lat": 37.7687273, "lon": -122.4194079}, {"type": "node", "id": 2665707280, "lat": 37.7687462, "lon": -122.4190714}, {"type": "node", "id": 2665707317, "lat": 37.76904, "lon": -122.4194588}, {"type": "node", "id": 2665707319, "lat": 37.7690602, "lon": -122.4190995}, {"type": "node", "id": 2680974028, "lat": 37.8036037, "lon": -122.4158254}, {"type": "node", "id": 2680974040, "lat": 37.8036104, "lon": -122.4157719}, {"type": "node", "id": 2680974045, "lat": 37.8036138, "lon": -122.4151936}, {"type": "node", "id": 2680974056, "lat": 37.8036218, "lon": -122.4158934}, {"type": "node", "id": 2680974066, "lat": 37.8036621, "lon": -122.4159243}, {"type": "node", "id": 2680974069, "lat": 37.8036649, "lon": -122.415902}, {"type": "node", "id": 2680974159, "lat": 37.8037964, "lon": -122.4159512}, {"type": "node", "id": 2680974163, "lat": 37.8038044, "lon": -122.4158875}, {"type": "node", "id": 2680974183, "lat": 37.8038632, "lon": -122.4158993}, {"type": "node", "id": 2680974192, "lat": 37.8039022, "lon": -122.4155884}, {"type": "node", "id": 2784138569, "lat": 37.7470494, "lon": -122.419105}, {"type": "node", "id": 2784138575, "lat": 37.7472235, "lon": -122.4189923}, {"type": "node", "id": 2784138576, "lat": 37.7472368, "lon": -122.4195694}, {"type": "node", "id": 2784138592, "lat": 37.747397, "lon": -122.4194659}, {"type": "node", "id": 2940756107, "lat": 37.7305928, "lon": -122.405357}, {"type": "node", "id": 2940756118, "lat": 37.7306884, "lon": -122.405007}, {"type": "node", "id": 2940756119, "lat": 37.7306923, "lon": -122.405009}, {"type": "node", "id": 2940756120, "lat": 37.7307027, "lon": -122.405004}, {"type": "node", "id": 2940756122, "lat": 37.7307076, "lon": -122.405405}, {"type": "node", "id": 2940756125, "lat": 37.7307162, "lon": -122.40501}, {"type": "node", "id": 2940756126, "lat": 37.7307211, "lon": -122.405021}, {"type": "node", "id": 2940756131, "lat": 37.7307651, "lon": -122.405039}, {"type": "node", "id": 2940756135, "lat": 37.7307794, "lon": -122.405034}, {"type": "node", "id": 2940756138, "lat": 37.7307901, "lon": -122.405039}, {"type": "node", "id": 2940756140, "lat": 37.7307955, "lon": -122.405052}, {"type": "node", "id": 2960416136, "lat": 37.7745403, "lon": -122.4085264, "tags": {"amenity": "nightclub", "leisure": "dance", "name": "LEVYStudio", "operator": "LEVYdance", "website": "https://levydance.org/studio/"}}, {"type": "node", "id": 3611826293, "lat": 37.7878176, "lon": -122.4215762, "tags": {"addr:city": "San Francisco", "addr:housenumber": "1300", "addr:postcode": "94109", "addr:state": "CA", "addr:street": "Van Ness Avenue", "amenity": "nightclub", "name": "The Regency Ballroom"}}, {"type": "node", "id": 3635648154, "lat": 37.7908554, "lon": -122.4200374, "tags": {"addr:city": "San Francisco", "addr:housenumber": "1550 Fl 2", "addr:postcode": "94109", "addr:state": "CA", "addr:street": "California Street", "amenity": "nightclub", "name": "Encore Karaoke", "smoking": "no"}}, {"type": "node", "id": 3674104340, "lat": 37.7878534, "lon": -122.3971767, "tags": {"addr:city": "San Francisco", "addr:country": "US", "addr:housenumber": "540", "addr:postcode": "94105", "addr:state": "CA", "addr:street": "Howard Street", "amenity": "nightclub", "name": "Temple Night Club", "wheelchair": "yes"}}, {"type": "node", "id": 3875122058, "lat": 37.803543, "lon": -122.415758}, {"type": "node", "id": 3903390510, "lat": 37.7604503, "lon": -122.421055}, {"type": "node", "id": 4114557297, "lat": 37.7474111, "lon": -122.419456}, {"type": "node", "id": 4139840864, "lat": 37.7448946, "lon": -122.4201726, "tags": {"amenity": "nightclub", "name": "Lucita Niteclub"}}, {"type": "node", "id": 4145232889, "lat": 37.7487135, "lon": -122.418304, "tags": {"addr:housenumber": "3024", "addr:street": "Mission Street", "amenity": "nightclub", "name": "Club 26 Mix"}}, {"type": "node", "id": 4556518008, "lat": 37.7809759, "lon": -122.40852}, {"type": "node", "id": 4884215423, "lat": 37.7716363, "lon": -122.4141387, "tags": {"access": "yes", "entrance": "yes"}}, {"type": "node", "id": 5167702928, "lat": 37.7837503, "lon": -122.4107222, "tags": {"addr:city": "San Francisco", "addr:housenumber": "144", "addr:postcode": "94102", "addr:state": "CA", "addr:street": "Taylor Street", "amenity": "nightclub", "name": "PianoFight"}}, {"type": "node", "id": 5182461992, "lat": 37.7721064, "lon": -122.4313888, "tags": {"addr:city": "San Francisco", "addr:housenumber": "552", "addr:postcode": "94117", "addr:street": "Haight Street", "amenity": "nightclub", "name": "Peacock Lounge"}}, {"type": "node", "id": 5182462007, "lat": 37.7723529, "lon": -122.4293176, "tags": {"addr:housenumber": "424", "addr:postcode": "94117", "addr:street": "Haight Street", "amenity": "nightclub", "name": "Underground SF"}}, {"type": "node", "id": 5261258921, "lat": 37.7841303, "lon": -122.4104304, "tags": {"amenity": "nightclub", "name": "SF Citadel"}}, {"type": "node", "id": 5594507568, "lat": 37.7650253, "lon": -122.4181139, "tags": {"amenity": "nightclub", "name": "Slate"}}, {"type": "node", "id": 6191250683, "lat": 37.7422316, "lon": -122.4218441, "tags": {"addr:city": "San Francisco", "addr:housenumber": "3395", "addr:postcode": "94110", "addr:state": "CA", "addr:street": "Mission Street", "amenity": "nightclub", "name": "Club Malibu"}}, {"type": "node", "id": 8620678599, "lat": 37.7808805, "lon": -122.4082585}, {"type": "node", "id": 8620678601, "lat": 37.7809151, "lon": -122.408221}, {"type": "node", "id": 8620678602, "lat": 37.7809682, "lon": -122.408149}, {"type": "node", "id": 9251127755, "lat": 37.7230834, "lon": -122.4441965, "tags": {"amenity": "nightclub"}}, {"type": "way", "id": 132605490, "nodes": [1458466237, 1458466354, 1458466163, 1458466060, 1458466237], "tags": {"addr:city": "San Francisco", "addr:housenumber": "375", "addr:postcode": "94103", "addr:street": "11th Street", "amenity": "nightclub", "building": "yes", "contact:facebook": "dnalounge", "contact:instagram": "dnalounge", "contact:twitter": "dnalounge", "contact:youtube": "DNALounge", "name": "DNA Lounge", "source": "bing", "website": "https://www.dnalounge.com/", "wikidata": "Q5205728"}}, {"type": "way", "id": 148175381, "nodes": [1612773850, 4884215423, 1612773851, 1612773858, 1612773848, 1612773844, 1612773850], "tags": {"addr:city": "San Francisco", "addr:country": "US", "addr:housenumber": "1501", "addr:postcode": "94103", "addr:state": "CA", "addr:street": "Folsom Street", "amenity": "nightclub", "building": "construction", "height": "6", "level": "0", "name": "Calle-11", "source": "Bing"}}, {"type": "way", "id": 148175385, "nodes": [1612773848, 1612773846, 1612773838, 1458466077, 1612773842, 1612773844, 1612773848], "tags": {"addr:city": "San Francisco", "addr:housenumber": "316;314", "addr:postcode": "94103", "addr:state": "CA", "addr:street": "Folsom Street;11th Street", "amenity": "nightclub", "building": "yes", "height": "7", "name": "Halcyon", "source": "Bing"}}, {"type": "way", "id": 252235323, "nodes": [2583230508, 2583230507, 2583230505, 2583230506, 2583230508], "tags": {"addr:city": "San Francisco", "addr:country": "US", "addr:housenumber": "399", "addr:postcode": "94103", "addr:street": "9th Street", "amenity": "nightclub", "building": "yes", "name": "The Stud Bar"}}, {"type": "way", "id": 256029746, "nodes": [4556518008, 2617310020, 8620678602, 8620678601, 8620678599, 2617310015, 4556518008], "tags": {"addr:city": "San Francisco", "addr:housenumber": "101", "addr:postcode": "94103", "addr:state": "CA", "addr:street": "6th Street", "amenity": "nightclub", "building": "yes", "height": "7", "name": "Monarch", "website": "www.monarchsf.com"}}, {"type": "way", "id": 256471158, "nodes": [2621348382, 2621348379, 1458466024, 1458466340, 2621348382], "tags": {"addr:city": "San Francisco", "addr:country": "US", "addr:housenumber": "298", "addr:postcode": "94103", "addr:state": "CA", "addr:street": "11th Street", "amenity": "nightclub", "building": "yes", "name": "Oasis"}}, {"type": "way", "id": 260188930, "nodes": [2656736283, 2656736309, 2656736318, 3903390510, 2656736289, 2656736283], "tags": {"addr:city": "San Francisco", "addr:housenumber": "777", "addr:postcode": "94110", "addr:state": "CA", "addr:street": "Valencia Street", "amenity": "nightclub", "building": "yes", "name": "The Chapel", "website": "https://www.thechapelsf.com/"}}, {"type": "way", "id": 260973315, "nodes": [2665707268, 2665707317, 2665707319, 2665707280, 2665707270, 2665707268], "tags": {"addr:city": "San Francisco", "addr:housenumber": "161", "addr:postcode": "94103", "addr:state": "CA", "addr:street": "Erie Street", "amenity": "nightclub", "building": "yes", "height": "7", "name": "Public Works"}}, {"type": "way", "id": 262435071, "nodes": [3875122058, 2680974040, 2680974028, 2680974056, 2680974069, 2680974066, 2680974159, 2680974163, 2680974183, 2680974192, 2680974045, 3875122058], "tags": {"addr:city": "San Francisco", "addr:housenumber": "1025", "addr:postcode": "94133", "addr:state": "CA", "addr:street": "Columbus Avenue", "amenity": "nightclub", "building": "yes", "height": "6", "name": "Bimbo's 365 Club", "phone": "415.474.0365", "website": "http://www.bimbos365club.com/", "wikidata": "Q4913716", "wikipedia": "en:Bimbo's 365 Club"}}, {"type": "way", "id": 273580667, "nodes": [4114557297, 2784138575, 2784138569, 2784138576, 2784138592, 4114557297], "tags": {"addr:city": "San Francisco", "addr:housenumber": "3140", "addr:postcode": "94110", "addr:state": "CA", "addr:street": "Mission Street", "amenity": "nightclub", "building": "yes", "height": "7", "name": "Roccapulco", "phone": "+1 (415) 821-3563", "website": "http://roccapulco.com"}}, {"type": "way", "id": 290559578, "nodes": [2940756122, 1230343522, 2940756140, 2940756138, 2940756135, 2940756131, 2940756126, 2940756125, 2940756120, 2940756119, 2940756118, 2940756107, 2940756122], "tags": {"addr:city": "San Francisco", "addr:housenumber": "2470", "addr:postcode": "94134", "addr:state": "CA", "addr:street": "San Bruno Avenue", "amenity": "nightclub", "building": "yes", "height": "8", "name": "El Toro Nightclub"}}]}