{"version": 0.6, "generator": "Overpass API 0.7.56.9 76e5016d", "osm3s": {"timestamp_osm_base": "2021-10-16T20:29:30Z", "copyright": "The data included in this document is from www.openstreetmap.org. The data is made available under ODbL."}, "elements": [{"type": "node", "id": 4371192396, "lat": -24.2065043, "lon": -46.8273146, "tags": {"amenity": "police"}}, {"type": "node", "id": 5391414669, "lat": -24.2362958, "lon": -46.8999633}, {"type": "node", "id": 5391414670, "lat": -24.2360708, "lon": -46.8997729}, {"type": "node", "id": 5391414671, "lat": -24.2361906, "lon": -46.8996387}, {"type": "node", "id": 5391414672, "lat": -24.2364107, "lon": -46.8998211}, {"type": "node", "id": 6008165952, "lat": -24.1767208, "lon": -46.7845071, "tags": {"amenity": "police", "name": "Pol\u00edcia Rodovi\u00e1ria", "police": "traffic_police"}}, {"type": "way", "id": 558945829, "nodes": [5391414669, 5391414670, 5391414671, 5391414672, 5391414669], "tags": {"addr:city": "Itanhaem", "addr:suburb": "Balneario Gaivota", "amenity": "police", "building": "yes"}}]}