{"version": 0.6, "generator": "Overpass API 0.7.56.9 76e5016d", "osm3s": {"timestamp_osm_base": "2021-10-17T17:20:29Z", "copyright": "The data included in this document is from www.openstreetmap.org. The data is made available under ODbL."}, "elements": [{"type": "node", "id": 315411006, "lat": 37.7336386, "lon": -122.4908679}, {"type": "node", "id": 315411007, "lat": 37.7335242, "lon": -122.49086}, {"type": "node", "id": 315411008, "lat": 37.7335368, "lon": -122.4905686}, {"type": "node", "id": 315411009, "lat": 37.7336512, "lon": -122.4905765}, {"type": "node", "id": 317129230, "lat": 37.7769117, "lon": -122.393795, "tags": {"amenity": "bank", "brand": "Wells Fargo", "brand:wikidata": "Q744149", "brand:wikipedia": "en:Wells Fargo", "name": "Wells Fargo"}}, {"type": "node", "id": 334973993, "lat": 37.7994006, "lon": -122.4086568, "tags": {"addr:city": "San Francisco", "addr:housenumber": "480", "addr:street": "Columbus Avenue", "amenity": "bank", "atm": "yes", "brand": "Bank of the West", "brand:wikidata": "Q2881919", "brand:wikipedia": "en:Bank of the West", "depository": "yes", "name": "Bank of the West"}}, {"type": "node", "id": 334975285, "lat": 37.7996508, "lon": -122.4088922, "tags": {"addr:housenumber": "580", "addr:street": "Green Street", "amenity": "bank", "atm": "yes", "brand": "Citibank", "brand:wikidata": "Q857063", "brand:wikipedia": "en:Citibank", "name": "Citibank", "short_name": "Citi", "vestibule_atm": "2", "vestibule_depository": "yes"}}, {"type": "node", "id": 335443049, "lat": 37.7935766, "lon": -122.403101, "tags": {"addr:city": "San Francisco", "addr:country": "US", "addr:housenumber": "451", "addr:postcode": "94104", "addr:state": "CA", "addr:street": "Montgomery Street", "amenity": "bank", "brand": "Citibank", "brand:wikidata": "Q857063", "brand:wikipedia": "en:Citibank", "name": "Citibank", "operator": "Citibank", "short_name": "Citi", "vestibule_atm": "4"}}, {"type": "node", "id": 335444675, "lat": 37.7899212, "lon": -122.4020122, "tags": {"addr:housenumber": "44", "addr:street": "Montgomery Street", "amenity": "bank", "name": "Union Bank of California", "operator": "Union Bank of California", "vestibule_atm": "2", "vestibule_atm_op": "Union Bank of California", "wheelchair": "yes"}}, {"type": "node", "id": 340235848, "lat": 37.7887072, "lon": -122.4017681, "tags": {"addr:housenumber": "33", "addr:street": "New Montgomery Street", "amenity": "bank", "brand": "Bank of America", "brand:wikidata": "Q487907", "brand:wikipedia": "en:Bank of America", "has_outside_atm": "yes", "name": "Bank of America", "opening_hours": "24/7", "operator": "Bank of America", "outside_atm_capacity": "2", "outside_atm_operator": "Bank of America", "wheelchair": "yes"}}, {"type": "node", "id": 366728457, "lat": 37.7932943, "lon": -122.3966141}, {"type": "node", "id": 366728458, "lat": 37.7933227, "lon": -122.3965888}, {"type": "node", "id": 366728459, "lat": 37.7934967, "lon": -122.396628}, {"type": "node", "id": 366728460, "lat": 37.793521, "lon": -122.3966641}, {"type": "node", "id": 371021458, "lat": 37.7888674, "lon": -122.4031867}, {"type": "node", "id": 371021466, "lat": 37.7889004, "lon": -122.4029286}, {"type": "node", "id": 376211774, "lat": 37.778394, "lon": -122.4149002}, {"type": "node", "id": 381953737, "lat": 37.7894328, "lon": -122.4078657, "tags": {"amenity": "bank", "atm": "yes", "brand": "Wells Fargo", "brand:wikidata": "Q744149", "brand:wikipedia": "en:Wells Fargo", "name": "Wells Fargo", "operator": "Wells Fargo", "outside_atm": "yes"}}, {"type": "node", "id": 384346934, "lat": 37.7870234, "lon": -122.4046843, "tags": {"addr:city": "San Francisco", "amenity": "bank", "atm": "yes", "brand": "Wells Fargo", "brand:wikidata": "Q744149", "brand:wikipedia": "en:Wells Fargo", "depository": "yes", "inside_atm": "yes", "name": "Wells Fargo", "operator": "Wells Fargo", "outside_atm": "1", "source": "survey", "wheelchair": "yes"}}, {"type": "node", "id": 386573667, "lat": 37.7892529, "lon": -122.4022383, "tags": {"amenity": "bank", "atm": "yes", "brand": "Wells Fargo", "brand:wikidata": "Q744149", "brand:wikipedia": "en:Wells Fargo", "has_outside_atm": "yes", "name": "Wells Fargo", "operator": "Wells Fargo", "outside_atm_capacity": "2", "outside_atm_operator": "Wells Fargo", "wheelchair": "yes"}}, {"type": "node", "id": 386574705, "lat": 37.7893573, "lon": -122.4016086, "tags": {"addr:city": "San Francisco", "addr:housenumber": "590", "addr:state": "CA", "addr:street": "Market Street", "amenity": "bank", "brand": "Citibank", "brand:wikidata": "Q857063", "brand:wikipedia": "en:Citibank", "has_vestibule_atm": "yes", "name": "Citibank", "operator": "Citi Bank", "short_name": "Citi", "source": "survey", "vestibule_atm_capacity": "3", "vestibule_atm_operator": "Citi Bank"}}, {"type": "node", "id": 386585954, "lat": 37.7917704, "lon": -122.3986223, "tags": {"amenity": "bank", "brand": "Bank of the West", "brand:wikidata": "Q2881919", "brand:wikipedia": "en:Bank of the West", "name": "Bank of the West"}}, {"type": "node", "id": 386596676, "lat": 37.7928387, "lon": -122.3965185, "tags": {"amenity": "bank", "brand": "Citibank", "brand:wikidata": "Q857063", "brand:wikipedia": "en:Citibank", "name": "Citibank", "short_name": "Citi", "vestibule_atm": "yes"}}, {"type": "node", "id": 386611572, "lat": 37.7937348, "lon": -122.395344, "tags": {"amenity": "bank", "atm": "yes", "brand": "Bank of America", "brand:wikidata": "Q487907", "brand:wikipedia": "en:Bank of America", "name": "Bank of America", "operator": "Bank of America", "outside_atm": "yes", "outside_atm_capacity": "4", "outside_atm_operator": "Bank of America"}}, {"type": "node", "id": 387251385, "lat": 37.7940428, "lon": -122.423323, "tags": {"amenity": "bank", "name": "First Republic Bank", "operator": "First Republic Bank", "outside_atm": "yes", "outside_atm_capacity": "1", "outside_atm_operator": "First Republic Bank"}}, {"type": "node", "id": 387252662, "lat": 37.7941174, "lon": -122.4228252, "tags": {"amenity": "bank", "name": "Metro United Bank", "operator": "Metro United Bank", "outside_atm": "yes", "outside_atm_capacity": "1", "outside_atm_operator": "Metro United Bank"}}, {"type": "node", "id": 387254338, "lat": 37.7922793, "lon": -122.4229797, "tags": {"amenity": "bank", "brand": "Citibank", "brand:wikidata": "Q857063", "brand:wikipedia": "en:Citibank", "name": "Citibank", "operator": "Citi Bank", "short_name": "Citi", "vestibule_atm": "yes", "vestibule_atm_capacity": "1", "vestibule_atm_operator": "Citi Bank"}}, {"type": "node", "id": 387673951, "lat": 37.7909499, "lon": -122.4221885, "tags": {"amenity": "bank", "atm": "yes", "brand": "Bank of America", "brand:wikidata": "Q487907", "brand:wikipedia": "en:Bank of America", "cash_in": "yes", "name": "Bank of America", "operator": "Bank of America", "source": "survey"}}, {"type": "node", "id": 389408925, "lat": 37.7781153, "lon": -122.3965448}, {"type": "node", "id": 389408926, "lat": 37.7781156, "lon": -122.3966199}, {"type": "node", "id": 389408927, "lat": 37.7779577, "lon": -122.3968216}, {"type": "node", "id": 389408928, "lat": 37.7777969, "lon": -122.3965458}, {"type": "node", "id": 389458008, "lat": 37.775175, "lon": -122.4189129, "tags": {"amenity": "bank", "brand": "Bank of America", "brand:wikidata": "Q487907", "brand:wikipedia": "en:Bank of America", "name": "Bank of America", "operator": "Bank of America", "outside_atm": "yes", "outside_atm_capacity": "4", "outside_atm_operator": "Bank of America", "source": "survey"}}, {"type": "node", "id": 392198178, "lat": 37.7887945, "lon": -122.4035257, "tags": {"amenity": "bank", "atm": "yes", "brand": "Citibank", "brand:wikidata": "Q857063", "brand:wikipedia": "en:Citibank", "name": "Citibank", "operator": "Citibank", "outside_atm": "2", "outside_atm_operator": "Citibank", "short_name": "Citi", "source": "survey"}}, {"type": "node", "id": 393732505, "lat": 37.7819982, "lon": -122.4495291, "tags": {"addr:city": "San Francisco", "addr:country": "US", "addr:housenumber": "2835", "addr:postcode": "94118", "addr:state": "CA", "addr:street": "Geary Boulevard", "amenity": "bank", "brand": "Bank of America", "brand:wikidata": "Q487907", "brand:wikipedia": "en:Bank of America", "name": "Bank of America", "opening_hours": "Mo-Fr 09:00-17:00; Sa-Su off", "operator": "Bank of America", "outside_atm": "2", "outside_atm_operator": "Bank of America", "source": "survey", "wheelchair": "yes"}}, {"type": "node", "id": 411084946, "lat": 37.7938731, "lon": -122.403151, "tags": {"amenity": "bank", "atm": "no", "brand": "Bank of the West", "brand:wikidata": "Q2881919", "brand:wikipedia": "en:Bank of the West", "name": "Bank of the West", "operator": "Bank of the West", "wheelchair": "yes"}}, {"type": "node", "id": 411087104, "lat": 37.7939409, "lon": -122.4028506, "tags": {"amenity": "bank", "atm": "no", "name": "Far East National Bank", "operator": "Far East National Bank", "source": "survey", "wheelchair": "yes"}}, {"type": "node", "id": 411281590, "lat": 37.7991718, "lon": -122.4083676, "tags": {"addr:city": "San Francisco", "addr:housenumber": "488", "addr:street": "Columbus Avenue", "amenity": "bank", "atm": "yes", "brand": "Wells Fargo", "brand:wikidata": "Q744149", "brand:wikipedia": "en:Wells Fargo", "depository": "yes", "name": "Wells Fargo", "operator": "Wells Fargo", "outside_atm": "3", "source": "survey"}}, {"type": "node", "id": 411283248, "lat": 37.7993386, "lon": -122.4091907, "tags": {"addr:city": "San Francisco", "addr:housenumber": "1455", "addr:street": "Stockton Street", "amenity": "bank", "atm": "yes", "brand": "Bank of America", "brand:wikidata": "Q487907", "brand:wikipedia": "en:Bank of America", "depository": "yes", "drive_through_atm": "1", "name": "Bank of America", "operator": "Bank of America", "source": "survey"}}, {"type": "node", "id": 411286615, "lat": 37.797748, "lon": -122.408814, "tags": {"addr:city": "San Francisco", "addr:housenumber": "1301", "addr:street": "Stockton Street", "amenity": "bank", "atm": "yes", "brand": "EastWest Unibank", "brand:wikidata": "Q5327595", "brand:wikipedia": "en:EastWest Bank", "depository": "yes", "drive_through": "no", "name": "EastWest Unibank", "operator": "East West Bank", "outside_atm": "1", "source": "survey", "wheelchair": "yes"}}, {"type": "node", "id": 411288804, "lat": 37.7972269, "lon": -122.4087051, "tags": {"addr:city": "San Francisco", "addr:housenumber": "1241", "addr:street": "Stockton Street", "amenity": "bank", "atm": "no", "brand": "EastWest Unibank", "brand:wikidata": "Q5327595", "brand:wikipedia": "en:EastWest Bank", "depository": "yes", "name": "EastWest Unibank", "operator": "East West Bank"}}, {"type": "node", "id": 411289223, "lat": 37.7957536, "lon": -122.4081187, "tags": {"addr:city": "San Francisco", "addr:housenumber": "1088", "addr:street": "Stockton Street", "amenity": "bank", "atm": "no", "depository": "no", "name": "First Republic Bank", "operator": "First Republic Bank", "source": "survey"}}, {"type": "node", "id": 411290141, "lat": 37.795295, "lon": -122.4083069, "tags": {"addr:city": "San Francisco", "addr:housenumber": "1023", "addr:street": "Stockton Street", "amenity": "bank", "depository": "yes", "name": "Bank of the Orient", "operator": "Bank of the Orient", "outside_atm": "1", "source": "survey"}}, {"type": "node", "id": 411290345, "lat": 37.7951667, "lon": -122.4082734, "tags": {"addr:city": "San Francisco", "addr:housenumber": "1015", "addr:street": "Stockton Street", "amenity": "bank", "brand": "Wells Fargo", "brand:wikidata": "Q744149", "brand:wikipedia": "en:Wells Fargo", "depository": "no", "name": "Wells Fargo", "operator": "Wells Fargo", "outside_atm": "1", "source": "survey"}}, {"type": "node", "id": 412112860, "lat": 37.7907882, "lon": -122.4205582, "tags": {"addr:city": "San Francisco", "addr:housenumber": "1500", "addr:street": "Polk Street", "amenity": "bank", "atm": "yes", "brand": "Chase", "brand:wikidata": "Q524629", "brand:wikipedia": "en:Chase Bank", "name": "Chase", "operator": "Chase", "outside_atm": "1", "source": "survey"}}, {"type": "node", "id": 412583137, "lat": 37.7783752, "lon": -122.4145185}, {"type": "node", "id": 412583138, "lat": 37.7782337, "lon": -122.4146973}, {"type": "node", "id": 412583141, "lat": 37.7785354, "lon": -122.4147214}, {"type": "node", "id": 412583421, "lat": 37.783867, "lon": -122.4124813}, {"type": "node", "id": 412583422, "lat": 37.7839106, "lon": -122.4121421}, {"type": "node", "id": 412583423, "lat": 37.7837873, "lon": -122.4121179}, {"type": "node", "id": 412583424, "lat": 37.7837622, "lon": -122.4123203}, {"type": "node", "id": 412583425, "lat": 37.7837296, "lon": -122.412312}, {"type": "node", "id": 412583426, "lat": 37.7837517, "lon": -122.4121103}, {"type": "node", "id": 412583427, "lat": 37.783631, "lon": -122.4120857}, {"type": "node", "id": 412583428, "lat": 37.7835892, "lon": -122.4124263}, {"type": "node", "id": 412587023, "lat": 37.7782674, "lon": -122.416137}, {"type": "node", "id": 412587025, "lat": 37.7780682, "lon": -122.4158824}, {"type": "node", "id": 412587407, "lat": 37.7784589, "lon": -122.4163818}, {"type": "node", "id": 412587410, "lat": 37.7785546, "lon": -122.416262}, {"type": "node", "id": 412587414, "lat": 37.7781628, "lon": -122.4157613}, {"type": "node", "id": 412588519, "lat": 37.778339, "lon": -122.4159865}, {"type": "node", "id": 416669966, "lat": 37.8000657, "lon": -122.4430333, "tags": {"amenity": "bank", "name": "First Federal Savings of San Rafael"}}, {"type": "node", "id": 416782619, "lat": 37.8005967, "lon": -122.4370151, "tags": {"addr:city": "San Francisco", "addr:housenumber": "2055", "addr:street": "Chestnut Street", "amenity": "bank", "atm": "yes", "brand": "Wells Fargo", "brand:wikidata": "Q744149", "brand:wikipedia": "en:Wells Fargo", "drive_through": "yes", "name": "Wells Fargo"}}, {"type": "node", "id": 420515721, "lat": 37.7555826, "lon": -122.4185428, "tags": {"addr:city": "San Francisco", "amenity": "bank", "brand": "Wells Fargo", "brand:wikidata": "Q744149", "brand:wikipedia": "en:Wells Fargo", "depository": "yes", "name": "Wells Fargo", "operator": "Wells Fargo", "outside_atm": "4", "wheelchair": "yes"}}, {"type": "node", "id": 420519036, "lat": 37.7505269, "lon": -122.4184913, "tags": {"addr:city": "San Francisco", "addr:housenumber": "2900", "addr:street": "Mission Street", "amenity": "bank", "brand": "Chase", "brand:wikidata": "Q524629", "brand:wikipedia": "en:Chase Bank", "depository": "no", "name": "Chase", "operator": "Chase", "outside_atm": "3", "source": "survey"}}, {"type": "node", "id": 426229962, "lat": 37.7815274, "lon": -122.4575693, "tags": {"addr:city": "San Francisco", "addr:country": "US", "addr:housenumber": "3550", "addr:street": "Geary Boulevard", "amenity": "bank", "brand": "U.S. Bank", "brand:wikidata": "Q739084", "brand:wikipedia": "en:U.S. Bancorp", "depository": "yes", "name": "U.S. Bank", "opening_hours": "Mo-Fr 09:30-16:00; Sa 09:30-13:00", "outside_atm": "1", "source": "survey"}}, {"type": "node", "id": 426233725, "lat": 37.7815396, "lon": -122.4582451, "tags": {"addr:city": "San Francisco", "addr:housenumber": "3624", "addr:street": "Geary Boulevard", "amenity": "bank", "atm": "yes", "name": "Wells Fargo", "opening_hours": "Mo-Fr 09:00-17:00; Sa 09:00-12:00", "operator": "Wells Fargo", "outside_atm": "4", "source": "survey"}}, {"type": "node", "id": 426256520, "lat": 37.7807541, "lon": -122.465749, "tags": {"addr:city": "San Francisco", "addr:housenumber": "4355", "addr:street": "Geary Boulevard", "amenity": "bank", "brand": "EastWest Unibank", "brand:wikidata": "Q5327595", "brand:wikipedia": "en:EastWest Bank", "depository": "yes", "name": "EastWest Unibank", "outside_atm": "1", "source": "survey"}}, {"type": "node", "id": 426259584, "lat": 37.7807541, "lon": -122.466058, "tags": {"addr:city": "San Francisco", "addr:housenumber": "4375", "addr:street": "Geary Boulevard", "amenity": "bank", "name": "San Francisco Federal Credit Union", "source": "survey", "vestibule_atm": "1", "vestibule_atm_fee": "no"}}, {"type": "node", "id": 426266452, "lat": 37.7806727, "lon": -122.4672424, "tags": {"addr:city": "San Francisco", "addr:housenumber": "4455", "addr:street": "Geary Boulevard", "amenity": "bank", "brand": "Citibank", "brand:wikidata": "Q857063", "brand:wikipedia": "en:Citibank", "depository": "no", "name": "Citibank", "opening_hours": "Mo-Fr 10:00-17:00; Sa 10:00-14:00", "outside_atm": "2", "short_name": "Citi", "source": "survey"}}, {"type": "node", "id": 427172235, "lat": 37.7802861, "lon": -122.4759314, "tags": {"addr:city": "San Francisco", "addr:housenumber": "5255", "addr:street": "Geary Boulevard", "amenity": "bank", "depository": "yes", "name": "California Bank & Trust", "outside_atm": "2", "source": "survey"}}, {"type": "node", "id": 427173109, "lat": 37.7801911, "lon": -122.4780428, "tags": {"addr:city": "San Francisco", "addr:housenumber": "5455", "addr:street": "Geary Boulevard", "amenity": "bank", "brand": "Wells Fargo", "brand:wikidata": "Q744149", "brand:wikipedia": "en:Wells Fargo", "depository": "yes", "name": "Wells Fargo", "opening_hours": "Mo-Sa 09:00-18:00", "operator": "Wells Fargo", "outside_atm": "3", "source": "survey"}}, {"type": "node", "id": 427173443, "lat": 37.7805779, "lon": -122.4784879, "tags": {"addr:city": "San Francisco", "addr:housenumber": "5500", "addr:street": "Geary Boulevard", "amenity": "bank", "brand": "Bank of America", "brand:wikidata": "Q487907", "brand:wikipedia": "en:Bank of America", "depository": "yes", "name": "Bank of America", "outside_atm": "3", "source": "survey"}}, {"type": "node", "id": 427173655, "lat": 37.7801707, "lon": -122.4784462, "tags": {"addr:city": "San Francisco", "addr:housenumber": "5501", "addr:street": "Geary Boulevard", "amenity": "bank", "depository": "yes", "name": "United Commercial Bank", "outside_atm": "1", "source": "survey"}}, {"type": "node", "id": 427178584, "lat": 37.7800977, "lon": -122.4802207, "tags": {"addr:housenumber": "5655", "addr:street": "Geary Boulevard", "amenity": "bank", "brand": "Chase", "brand:wikidata": "Q524629", "brand:wikipedia": "en:Chase Bank", "depository": "no", "name": "Chase", "opening_hours": "Mo-Fr 9:00-18:00; Sa 9:00-16:00; Su off", "outside_atm": "2", "source": "survey"}}, {"type": "node", "id": 427186726, "lat": 37.7802808, "lon": -122.484915, "tags": {"addr:city": "San Francisco", "addr:housenumber": "6100", "addr:street": "Geary Boulevard", "amenity": "bank", "brand": "Citibank", "brand:wikidata": "Q857063", "brand:wikipedia": "en:Citibank", "name": "Citibank", "short_name": "Citi", "source": "survey"}}, {"type": "node", "id": 429632651, "lat": 37.7861076, "lon": -122.4246875, "tags": {"amenity": "bank", "brand": "Citibank", "brand:wikidata": "Q857063", "brand:wikipedia": "en:Citibank", "depository": "no", "name": "Citibank", "operator": "CitiBank", "outside_atm": "1", "short_name": "Citi", "source": "survey"}}, {"type": "node", "id": 429640531, "lat": 37.7857298, "lon": -122.4295946, "tags": {"amenity": "bank", "depository": "yes", "name": "California Bank & Trust", "source": "survey", "vestibule_atm": "2"}}, {"type": "node", "id": 429640565, "lat": 37.7854908, "lon": -122.4294806, "tags": {"amenity": "bank", "atm": "no", "depository": "yes", "level": "1", "name": "Union Bank of California", "source": "survey"}}, {"type": "node", "id": 429655448, "lat": 37.7861013, "lon": -122.439746, "tags": {"addr:city": "San Francisco", "addr:housenumber": "1750C", "addr:street": "Bush Street", "amenity": "bank", "brand": "Wells Fargo", "brand:wikidata": "Q744149", "brand:wikipedia": "en:Wells Fargo", "depository": "yes", "name": "Wells Fargo", "operator": "Wells Fargo", "outside_atm": "1", "source": "survey", "wheelchair": "yes"}}, {"type": "node", "id": 429656509, "lat": 37.7871595, "lon": -122.4333688, "tags": {"addr:city": "San Francisco", "addr:housenumber": "1900", "addr:street": "Fillmore Street", "amenity": "bank", "depository": "no", "name": "Sterling Bank & Trust", "outside_atm": "1", "wheelchair": "yes"}}, {"type": "node", "id": 432820845, "lat": 37.7821655, "lon": -122.420944, "tags": {"addr:city": "San Francisco", "addr:housenumber": "711", "addr:street": "Van Ness Avenue", "amenity": "bank", "depository": "no", "name": "United Commercial Bank", "outside_atm": "1", "source": "survey"}}, {"type": "node", "id": 530286818, "lat": 37.768891, "lon": -122.428442, "tags": {"addr:city": "San Francisco", "addr:housenumber": "2020", "addr:postcode": "94114", "addr:state": "CA", "addr:street": "Market Street", "amenity": "bank", "atm": "yes", "brand": "Wells Fargo", "brand:wikidata": "Q744149", "brand:wikipedia": "en:Wells Fargo", "drive_through": "no", "name": "Wells Fargo", "name:en": "Wells Fargo", "phone": "1-415-865-1486"}}, {"type": "node", "id": 582132544, "lat": 37.796092, "lon": -122.406278, "tags": {"amenity": "bank", "description": "Citibank"}}, {"type": "node", "id": 638752550, "lat": 37.7394148, "lon": -122.4676461, "tags": {"addr:city": "San Francisco", "addr:country": "US", "addr:housenumber": "130", "addr:postcode": "94127", "addr:state": "CA", "addr:street": "West Portal Avenue", "amenity": "bank", "atm": "yes", "brand": "Citibank", "brand:wikidata": "Q857063", "brand:wikipedia": "en:Citibank", "name": "Citibank", "short_name": "Citi"}}, {"type": "node", "id": 761805255, "lat": 37.7302767, "lon": -122.4761674, "tags": {"addr:housenumber": "599", "addr:street": "Buckingham Way", "amenity": "bank", "brand": "Wells Fargo", "brand:wikidata": "Q744149", "brand:wikipedia": "en:Wells Fargo", "name": "Wells Fargo", "opening_hours": "Mo-Sa 09:00-18:00; Su off"}}, {"type": "node", "id": 800140650, "lat": 37.856031, "lon": -122.4798113, "tags": {"amenity": "bank", "brand": "Wells Fargo", "brand:wikidata": "Q744149", "brand:wikipedia": "en:Wells Fargo", "name": "Wells Fargo"}}, {"type": "node", "id": 806237000, "lat": 37.7949192, "lon": -122.4065261, "tags": {"addr:city": "San Francisco", "addr:housenumber": "845", "addr:street": "Grant Avenue", "amenity": "bank", "brand": "Citibank", "brand:wikidata": "Q857063", "brand:wikipedia": "en:Citibank", "name": "Citibank", "short_name": "Citi"}}, {"type": "node", "id": 1205027717, "lat": 37.7911278, "lon": -122.4026113, "tags": {"amenity": "bank", "atm": "yes", "brand": "U.S. Bank", "brand:wikidata": "Q739084", "brand:wikipedia": "en:U.S. Bancorp", "name": "U.S. Bank", "outside_atm": "1", "source": "survey", "wheelchair": "yes"}}, {"type": "node", "id": 1206893695, "lat": 37.7944715, "lon": -122.4029279, "tags": {"amenity": "bank", "atm": "no", "brand": "Cathay Bank", "brand:wikidata": "Q4189507", "brand:wikipedia": "en:Cathay Bank", "name": "Cathay Bank", "operator": "Cathay Bank", "source": "survey", "wheelchair": "yes"}}, {"type": "node", "id": 1206893696, "lat": 37.7926992, "lon": -122.4025803, "tags": {"amenity": "bank", "atm": "yes", "brand": "U.S. Bank", "brand:wikidata": "Q739084", "brand:wikipedia": "en:U.S. Bancorp", "layer": "0", "name": "U.S. Bank", "operator": "US Bank", "wheelchair": "yes"}}, {"type": "node", "id": 1206893699, "lat": 37.7930659, "lon": -122.4030539, "tags": {"addr:city": "San Francisco", "addr:country": "US", "addr:housenumber": "417", "addr:postcode": "94104", "addr:state": "CA", "addr:street": "Montgomery Street", "amenity": "bank", "name": "America California Bank"}}, {"type": "node", "id": 1221413740, "lat": 37.7412915, "lon": -122.3875591, "tags": {"amenity": "bank"}}, {"type": "node", "id": 1221413789, "lat": 37.7331211, "lon": -122.3915726, "tags": {"amenity": "bank", "atm": "yes", "name": "Bank of America"}}, {"type": "node", "id": 1221414466, "lat": 37.7333559, "lon": -122.3907541, "tags": {"amenity": "bank", "atm": "yes", "name": "USBank"}}, {"type": "node", "id": 1230343378, "lat": 37.7280384, "lon": -122.4035148, "tags": {"amenity": "bank", "brand": "Bank of the West", "brand:wikidata": "Q2881919", "brand:wikipedia": "en:Bank of the West", "name": "Bank of the West"}}, {"type": "node", "id": 1230343396, "lat": 37.729598, "lon": -122.4042642, "tags": {"amenity": "bank", "name": "Sterling Bank & Trust"}}, {"type": "node", "id": 1230343476, "lat": 37.7306977, "lon": -122.404695, "tags": {"amenity": "bank", "atm": "yes", "name": "Bank of America"}}, {"type": "node", "id": 1270635904, "lat": 37.7777963, "lon": -122.3966188}, {"type": "node", "id": 1279407559, "lat": 37.7830086, "lon": -122.4656267}, {"type": "node", "id": 1279407581, "lat": 37.7826906, "lon": -122.4679481}, {"type": "node", "id": 1279407585, "lat": 37.7824866, "lon": -122.4677333}, {"type": "node", "id": 1279407593, "lat": 37.7833208, "lon": -122.4657427}, {"type": "node", "id": 1279407598, "lat": 37.7824792, "lon": -122.4679359}, {"type": "node", "id": 1279407599, "lat": 37.7826996, "lon": -122.4677458}, {"type": "node", "id": 1279407602, "lat": 37.7833247, "lon": -122.4656518}, {"type": "node", "id": 1279407604, "lat": 37.7830047, "lon": -122.465721}, {"type": "node", "id": 1393986231, "lat": 37.7846363, "lon": -122.4080882, "tags": {"amenity": "bank", "atm": "yes", "brand": "Bank of America", "brand:wikidata": "Q487907", "brand:wikipedia": "en:Bank of America", "name": "Bank of America", "wheelchair": "yes"}}, {"type": "node", "id": 1494512590, "lat": 37.7661188, "lon": -122.4314646, "tags": {"amenity": "bank"}}, {"type": "node", "id": 1532496946, "lat": 37.7855647, "lon": -122.396389, "tags": {"amenity": "bank", "atm": "yes", "brand": "Wells Fargo", "brand:wikidata": "Q744149", "brand:wikipedia": "en:Wells Fargo", "name": "Wells Fargo", "wheelchair": "yes"}}, {"type": "node", "id": 1612762243, "lat": 37.7641445, "lon": -122.4666546}, {"type": "node", "id": 1612762244, "lat": 37.7641523, "lon": -122.4664617}, {"type": "node", "id": 1612762258, "lat": 37.7644191, "lon": -122.4666722}, {"type": "node", "id": 1612762259, "lat": 37.7644268, "lon": -122.4664793}, {"type": "node", "id": 1618082758, "lat": 37.7886485, "lon": -122.4031451}, {"type": "node", "id": 1713269599, "lat": 37.7512689, "lon": -122.4329008, "tags": {"addr:city": "San Francisco", "addr:housenumber": "4045", "addr:postcode": "94114", "addr:state": "CA", "addr:street": "24th Street", "amenity": "bank", "atm": "yes", "brand": "Wells Fargo", "brand:wikidata": "Q744149", "brand:wikipedia": "en:Wells Fargo", "drive_through": "no", "name": "Wells Fargo", "opening_hours": "Mo-Sa 09:00-18:00", "operator": "Wells Fargo", "phone": "1-415-550-0128"}}, {"type": "node", "id": 1713269637, "lat": 37.7515292, "lon": -122.4317033, "tags": {"amenity": "bank", "brand": "Chase", "brand:wikidata": "Q524629", "brand:wikipedia": "en:Chase Bank", "name": "Chase"}}, {"type": "node", "id": 1747594996, "lat": 37.701197, "lon": -122.4823275, "tags": {"amenity": "bank", "atm": "yes", "brand": "Bank of the West", "brand:wikidata": "Q2881919", "brand:wikipedia": "en:Bank of the West", "name": "Bank of the West"}}, {"type": "node", "id": 1769223554, "lat": 37.7826586, "lon": -122.4624877}, {"type": "node", "id": 1769223555, "lat": 37.7826625, "lon": -122.4623814}, {"type": "node", "id": 1769223556, "lat": 37.7826948, "lon": -122.4625046}, {"type": "node", "id": 1769223557, "lat": 37.7826954, "lon": -122.4624899}, {"type": "node", "id": 1769223585, "lat": 37.7828566, "lon": -122.4625141}, {"type": "node", "id": 1769223599, "lat": 37.7829339, "lon": -122.4625187}, {"type": "node", "id": 1769223601, "lat": 37.7829427, "lon": -122.4623979}, {"type": "node", "id": 1819811643, "lat": 37.78229, "lon": -122.4646588}, {"type": "node", "id": 1819811644, "lat": 37.7822959, "lon": -122.4645192}, {"type": "node", "id": 1819811649, "lat": 37.7823805, "lon": -122.464792}, {"type": "node", "id": 1819811652, "lat": 37.7824572, "lon": -122.4645306}, {"type": "node", "id": 1819811657, "lat": 37.782519, "lon": -122.4647957}, {"type": "node", "id": 1819811658, "lat": 37.7825256, "lon": -122.4646303}, {"type": "node", "id": 1880208429, "lat": 37.7704352, "lon": -122.403736, "tags": {"amenity": "bank", "name": "Union Bank"}}, {"type": "node", "id": 1880213221, "lat": 37.7707911, "lon": -122.4075973, "tags": {"amenity": "bank", "brand": "Chase", "brand:wikidata": "Q524629", "brand:wikipedia": "en:Chase Bank", "name": "Chase"}}, {"type": "node", "id": 1979537360, "lat": 37.7787837, "lon": -122.3931047, "tags": {"addr:city": "San Francisco", "addr:country": "US", "addr:housenumber": "200", "addr:postcode": "94107", "addr:state": "CA", "addr:street": "Townsend Street", "amenity": "bank", "atm": "yes", "drive_through": "no", "name": "Fremont Bank"}}, {"type": "node", "id": 2035218073, "lat": 37.7922919, "lon": -122.394082, "tags": {"addr:city": "San Francisco", "addr:housenumber": "101", "addr:postcode": "94105", "addr:state": "CA", "addr:street": "Mission Street", "addr:unit": "Suite 100", "amenity": "bank", "atm": "yes", "brand": "Wells Fargo", "brand:wikidata": "Q744149", "brand:wikipedia": "en:Wells Fargo", "name": "Wells Fargo", "phone": "+1 415 777 9497"}}, {"type": "node", "id": 2054109848, "lat": 37.7241479, "lon": -122.4353989, "tags": {"amenity": "bank", "atm": "yes", "brand": "Citibank", "brand:wikidata": "Q857063", "brand:wikipedia": "en:Citibank", "name": "Citibank", "short_name": "Citi"}}, {"type": "node", "id": 2054109870, "lat": 37.7244407, "lon": -122.4351736, "tags": {"amenity": "bank", "atm": "yes", "brand": "U.S. Bank", "brand:wikidata": "Q739084", "brand:wikipedia": "en:U.S. Bancorp", "name": "U.S. Bank"}}, {"type": "node", "id": 2054109917, "lat": 37.7241479, "lon": -122.4350019, "tags": {"amenity": "bank", "atm": "yes", "name": "Sterling Bank"}}, {"type": "node", "id": 2054109937, "lat": 37.7240312, "lon": -122.4356295, "tags": {"amenity": "bank", "atm": "yes", "brand": "Wells Fargo", "brand:wikidata": "Q744149", "brand:wikipedia": "en:Wells Fargo", "name": "Wells Fargo"}}, {"type": "node", "id": 2057396831, "lat": 37.716296, "lon": -122.4414251, "tags": {"amenity": "bank", "atm": "yes", "brand": "Bank of America", "brand:wikidata": "Q487907", "brand:wikipedia": "en:Bank of America", "name": "Bank of America"}}, {"type": "node", "id": 2057447440, "lat": 37.7235202, "lon": -122.4354263, "tags": {"amenity": "bank", "brand": "Chase", "brand:wikidata": "Q524629", "brand:wikipedia": "en:Chase Bank", "name": "Chase"}}, {"type": "node", "id": 2059601719, "lat": 37.689906, "lon": -122.4655278, "tags": {"amenity": "bank", "brand": "Bank of America", "brand:wikidata": "Q487907", "brand:wikipedia": "en:Bank of America", "name": "Bank of America"}}, {"type": "node", "id": 2069126194, "lat": 37.7568974, "lon": -122.4190594, "tags": {"addr:housenumber": "2500", "addr:street": "Mission Street", "amenity": "bank", "name": "Chase"}}, {"type": "node", "id": 2074158440, "lat": 37.7755467, "lon": -122.49871}, {"type": "node", "id": 2074158466, "lat": 37.7755685, "lon": -122.4974828, "tags": {"addr:housenumber": "3601", "addr:postcode": "94121", "addr:street": "Balboa Street", "amenity": "bank", "atm": "yes", "name": "East West Bank", "name:zh": "\u83ef\u7f8e\u9280\u884c", "opening_hours": "Mo-Th 09:00-17:00; Fr 09:00-18:00; Sa 10:00-17:00; Su off"}}, {"type": "node", "id": 2074158484, "lat": 37.775556, "lon": -122.4985034}, {"type": "node", "id": 2074158489, "lat": 37.7753459, "lon": -122.4986954}, {"type": "node", "id": 2074158514, "lat": 37.7753552, "lon": -122.4984888}, {"type": "node", "id": 2133322298, "lat": 37.790972, "lon": -122.4341258, "tags": {"amenity": "bank", "atm": "yes", "brand": "Bank of America", "brand:wikidata": "Q487907", "brand:wikipedia": "en:Bank of America", "name": "Bank of America", "wheelchair": "yes"}}, {"type": "node", "id": 2147410231, "lat": 37.7761722, "lon": -122.4453438, "tags": {"addr:city": "San Francisco", "addr:country": "US", "addr:housenumber": "1720", "addr:postcode": "94117", "addr:state": "CA", "addr:street": "Fulton Street", "amenity": "bank", "atm": "yes", "brand": "Chase", "brand:wikidata": "Q524629", "brand:wikipedia": "en:Chase Bank", "name": "Chase"}}, {"type": "node", "id": 2220968791, "lat": 37.7902606, "lon": -122.4219112, "tags": {"amenity": "bank", "brand": "Wells Fargo", "brand:wikidata": "Q744149", "brand:wikipedia": "en:Wells Fargo", "name": "Wells Fargo"}}, {"type": "node", "id": 2232657029, "lat": 37.7400025, "lon": -122.4673321}, {"type": "node", "id": 2232657030, "lat": 37.7398671, "lon": -122.4670989}, {"type": "node", "id": 2232657031, "lat": 37.7401834, "lon": -122.4671506}, {"type": "node", "id": 2232657032, "lat": 37.7398971, "lon": -122.4671847}, {"type": "node", "id": 2232657033, "lat": 37.7400112, "lon": -122.4673504}, {"type": "node", "id": 2232657035, "lat": 37.7399596, "lon": -122.467381}, {"type": "node", "id": 2232657036, "lat": 37.740022, "lon": -122.4669193}, {"type": "node", "id": 2232841899, "lat": 37.7401431, "lon": -122.4670846}, {"type": "node", "id": 2249187308, "lat": 37.7382767, "lon": -122.4692441}, {"type": "node", "id": 2249187309, "lat": 37.7382059, "lon": -122.4685568}, {"type": "node", "id": 2249187311, "lat": 37.7384637, "lon": -122.4691325}, {"type": "node", "id": 2249187312, "lat": 37.7381975, "lon": -122.4683662}, {"type": "node", "id": 2249187318, "lat": 37.7380318, "lon": -122.4685515}, {"type": "node", "id": 2249187320, "lat": 37.7381765, "lon": -122.4691144}, {"type": "node", "id": 2249187328, "lat": 37.7381016, "lon": -122.4684824}, {"type": "node", "id": 2249187329, "lat": 37.7382755, "lon": -122.4684935}, {"type": "node", "id": 2249187334, "lat": 37.738279, "lon": -122.4684776}, {"type": "node", "id": 2249187335, "lat": 37.7381192, "lon": -122.4684434}, {"type": "node", "id": 2249187337, "lat": 37.7381907, "lon": -122.4683654}, {"type": "node", "id": 2249187341, "lat": 37.7381264, "lon": -122.4684533}, {"type": "node", "id": 2249187343, "lat": 37.7380989, "lon": -122.4686569}, {"type": "node", "id": 2249187346, "lat": 37.7380352, "lon": -122.46857}, {"type": "node", "id": 2249187348, "lat": 37.7384572, "lon": -122.4691236}, {"type": "node", "id": 2249187349, "lat": 37.7382037, "lon": -122.4683709}, {"type": "node", "id": 2249187351, "lat": 37.7393676, "lon": -122.4671894}, {"type": "node", "id": 2249187353, "lat": 37.738035, "lon": -122.4685421}, {"type": "node", "id": 2249187361, "lat": 37.7382131, "lon": -122.4685667}, {"type": "node", "id": 2249187365, "lat": 37.7380316, "lon": -122.4685601}, {"type": "node", "id": 2249187366, "lat": 37.7382379, "lon": -122.4690462}, {"type": "node", "id": 2249187367, "lat": 37.7392539, "lon": -122.467036}, {"type": "node", "id": 2249187370, "lat": 37.7381202, "lon": -122.4686573}, {"type": "node", "id": 2249187372, "lat": 37.7382873, "lon": -122.4692298}, {"type": "node", "id": 2249187377, "lat": 37.7380944, "lon": -122.4684724}, {"type": "node", "id": 2249187378, "lat": 37.7383343, "lon": -122.4689439}, {"type": "node", "id": 2249187380, "lat": 37.7382491, "lon": -122.4690581}, {"type": "node", "id": 2249187381, "lat": 37.7381825, "lon": -122.4683692}, {"type": "node", "id": 2249187387, "lat": 37.7381139, "lon": -122.4686606}, {"type": "node", "id": 2249187391, "lat": 37.738279, "lon": -122.4684859}, {"type": "node", "id": 2249187392, "lat": 37.7383247, "lon": -122.4692794}, {"type": "node", "id": 2249187395, "lat": 37.7383515, "lon": -122.4688869}, {"type": "node", "id": 2249187396, "lat": 37.7381072, "lon": -122.4686606}, {"type": "node", "id": 2249187399, "lat": 37.7383191, "lon": -122.4689256}, {"type": "node", "id": 2249187401, "lat": 37.7382765, "lon": -122.46847}, {"type": "node", "id": 2249214362, "lat": 37.7384445, "lon": -122.4690203}, {"type": "node", "id": 2249214365, "lat": 37.7384008, "lon": -122.4689576}, {"type": "node", "id": 2253307454, "lat": 37.7829176, "lon": -122.4314752, "tags": {"amenity": "bank", "brand": "Wells Fargo", "brand:wikidata": "Q744149", "brand:wikipedia": "en:Wells Fargo", "name": "Wells Fargo"}}, {"type": "node", "id": 2257608464, "lat": 37.7392673, "lon": -122.467311}, {"type": "node", "id": 2257608494, "lat": 37.7391096, "lon": -122.4670984}, {"type": "node", "id": 2257608498, "lat": 37.7392555, "lon": -122.4672951}, {"type": "node", "id": 2257608519, "lat": 37.7392122, "lon": -122.4669767}, {"type": "node", "id": 2272820965, "lat": 37.7392324, "lon": -122.4172623, "tags": {"addr:housenumber": "433", "addr:postcode": "94110", "addr:street": "Cortland Avenue", "amenity": "bank", "atm": "yes", "name": "Bank of America"}}, {"type": "node", "id": 2300024327, "lat": 37.7932688, "lon": -122.4013084, "tags": {"amenity": "bank", "name": "UnionBank"}}, {"type": "node", "id": 2318098410, "lat": 37.7617848, "lon": -122.4349717}, {"type": "node", "id": 2318098414, "lat": 37.7616999, "lon": -122.435599}, {"type": "node", "id": 2318098426, "lat": 37.7617035, "lon": -122.435536}, {"type": "node", "id": 2318098430, "lat": 37.7617814, "lon": -122.435607}, {"type": "node", "id": 2318098453, "lat": 37.7618705, "lon": -122.4347651}, {"type": "node", "id": 2318098510, "lat": 37.7618007, "lon": -122.4347058}, {"type": "node", "id": 2318098516, "lat": 37.7618576, "lon": -122.4349787}, {"type": "node", "id": 2318098520, "lat": 37.7618027, "lon": -122.435258}, {"type": "node", "id": 2318098524, "lat": 37.7617866, "lon": -122.435518}, {"type": "node", "id": 2318098556, "lat": 37.7618736, "lon": -122.4347128}, {"type": "node", "id": 2318098577, "lat": 37.7617213, "lon": -122.43525}, {"type": "node", "id": 2318749839, "lat": 37.7607453, "lon": -122.4345713}, {"type": "node", "id": 2318749844, "lat": 37.7606765, "lon": -122.4346815}, {"type": "node", "id": 2318749863, "lat": 37.7607449, "lon": -122.4345853}, {"type": "node", "id": 2318749888, "lat": 37.7608385, "lon": -122.4345796}, {"type": "node", "id": 2318749890, "lat": 37.7608231, "lon": -122.4348393}, {"type": "node", "id": 2318749895, "lat": 37.7606829, "lon": -122.4345792}, {"type": "node", "id": 2318749897, "lat": 37.7605861, "lon": -122.4346716}, {"type": "node", "id": 2318821830, "lat": 37.7599702, "lon": -122.4347736, "tags": {"addr:housenumber": "557", "addr:postcode": "94114", "addr:street": "Castro Street", "amenity": "bank", "brand": "Wells Fargo", "brand:wikidata": "Q744149", "brand:wikipedia": "en:Wells Fargo", "name": "Wells Fargo", "phone": "+1 (415) 621-0122", "website": "https://www.wellsfargo.com/"}}, {"type": "node", "id": 2321144648, "lat": 37.7607902, "lon": -122.4348737}, {"type": "node", "id": 2321144658, "lat": 37.760575, "lon": -122.4348531}, {"type": "node", "id": 2321299130, "lat": 37.760605, "lon": -122.4348559}, {"type": "node", "id": 2321299143, "lat": 37.7606516, "lon": -122.4347772}, {"type": "node", "id": 2321299153, "lat": 37.7606783, "lon": -122.4347804}, {"type": "node", "id": 2321299161, "lat": 37.7607132, "lon": -122.4348663}, {"type": "node", "id": 2321299167, "lat": 37.7607149, "lon": -122.434837}, {"type": "node", "id": 2321299179, "lat": 37.7606071, "lon": -122.4348251}, {"type": "node", "id": 2340004152, "lat": 37.8005024, "lon": -122.4396223, "tags": {"addr:city": "San Francisco", "addr:housenumber": "2200", "addr:street": "Chestnut Street", "amenity": "bank", "atm": "yes", "brand": "Bank of America", "brand:wikidata": "Q487907", "brand:wikipedia": "en:Bank of America", "drive_through": "no", "name": "Bank of America", "source": "memory and survey"}}, {"type": "node", "id": 2411607007, "lat": 37.7682528, "lon": -122.4220877, "tags": {"amenity": "bank", "atm": "yes", "brand": "Chase", "brand:wikidata": "Q524629", "brand:wikipedia": "en:Chase Bank", "name": "Chase"}}, {"type": "node", "id": 2453601075, "lat": 37.7690673, "lon": -122.3897861, "tags": {"amenity": "bank", "atm": "yes"}}, {"type": "node", "id": 2453601076, "lat": 37.7682828, "lon": -122.392945, "tags": {"amenity": "bank", "atm": "yes", "brand": "Chase", "brand:wikidata": "Q524629", "brand:wikipedia": "en:Chase Bank", "name": "Chase"}}, {"type": "node", "id": 2616704054, "lat": 37.789254, "lon": -122.4010574, "tags": {"amenity": "bank", "brand": "Chase", "brand:wikidata": "Q524629", "brand:wikipedia": "en:Chase Bank", "name": "Chase", "wheelchair": "yes"}}, {"type": "node", "id": 2620996912, "lat": 37.7650682, "lon": -122.421212}, {"type": "node", "id": 2620996913, "lat": 37.7650802, "lon": -122.4210286}, {"type": "node", "id": 2620996916, "lat": 37.7653364, "lon": -122.4212353}, {"type": "node", "id": 2620996917, "lat": 37.7653434, "lon": -122.4210493}, {"type": "node", "id": 2623471818, "lat": 37.767268, "lon": -122.4295401}, {"type": "node", "id": 2623471833, "lat": 37.7673223, "lon": -122.4294722}, {"type": "node", "id": 2623471870, "lat": 37.7674481, "lon": -122.4297706}, {"type": "node", "id": 2623471883, "lat": 37.7675024, "lon": -122.4297027}, {"type": "node", "id": 2623632040, "lat": 37.7945244, "lon": -122.4079011}, {"type": "node", "id": 2623632041, "lat": 37.7945527, "lon": -122.4076649}, {"type": "node", "id": 2623632043, "lat": 37.7947491, "lon": -122.4077025}, {"type": "node", "id": 2623632047, "lat": 37.7948964, "lon": -122.4079724}, {"type": "node", "id": 2623632048, "lat": 37.7949246, "lon": -122.4077362}, {"type": "node", "id": 2625053419, "lat": 37.7758759, "lon": -122.402969}, {"type": "node", "id": 2625053422, "lat": 37.7760242, "lon": -122.403152}, {"type": "node", "id": 2625053423, "lat": 37.7760496, "lon": -122.4027438}, {"type": "node", "id": 2625053424, "lat": 37.7760992, "lon": -122.4030583}, {"type": "node", "id": 2625053429, "lat": 37.7761991, "lon": -122.4029311}, {"type": "node", "id": 2626139469, "lat": 37.7734295, "lon": -122.4380441}, {"type": "node", "id": 2626139470, "lat": 37.7731584, "lon": -122.4379871}, {"type": "node", "id": 2626139471, "lat": 37.7732256, "lon": -122.4376016}, {"type": "node", "id": 2626139472, "lat": 37.7734802, "lon": -122.4376551}, {"type": "node", "id": 2626607880, "lat": 37.7518268, "lon": -122.4185898, "tags": {"amenity": "bank", "atm": "yes", "brand": "Bank of the West", "brand:wikidata": "Q2881919", "brand:wikipedia": "en:Bank of the West", "name": "Bank of the West"}}, {"type": "node", "id": 2657598257, "lat": 37.7934427, "lon": -122.39908}, {"type": "node", "id": 2657598260, "lat": 37.7934621, "lon": -122.3989328}, {"type": "node", "id": 2657598340, "lat": 37.7937154, "lon": -122.3991368}, {"type": "node", "id": 2657598353, "lat": 37.7937353, "lon": -122.3989912}, {"type": "node", "id": 2657634640, "lat": 37.7934845, "lon": -122.3987096}, {"type": "node", "id": 2657634647, "lat": 37.793507, "lon": -122.3985416}, {"type": "node", "id": 2657634766, "lat": 37.7937461, "lon": -122.3987658}, {"type": "node", "id": 2657634768, "lat": 37.7937476, "lon": -122.3987548}, {"type": "node", "id": 2657634777, "lat": 37.7937687, "lon": -122.3985979}, {"type": "node", "id": 2658217840, "lat": 37.7646534, "lon": -122.4203469}, {"type": "node", "id": 2658217842, "lat": 37.7646634, "lon": -122.420157}, {"type": "node", "id": 2658217845, "lat": 37.7647293, "lon": -122.4203628}, {"type": "node", "id": 2658217846, "lat": 37.7647298, "lon": -122.4203532}, {"type": "node", "id": 2658217848, "lat": 37.7647408, "lon": -122.4201635}, {"type": "node", "id": 2658217849, "lat": 37.7647412, "lon": -122.420155}, {"type": "node", "id": 2658217850, "lat": 37.7648918, "lon": -122.4203764}, {"type": "node", "id": 2658217852, "lat": 37.7648923, "lon": -122.4203668}, {"type": "node", "id": 2658217853, "lat": 37.7649012, "lon": -122.4201736}, {"type": "node", "id": 2658217854, "lat": 37.7649015, "lon": -122.4201684}, {"type": "node", "id": 2658217856, "lat": 37.7649156, "lon": -122.4203688}, {"type": "node", "id": 2658217857, "lat": 37.7649161, "lon": -122.4201782}, {"type": "node", "id": 2658217859, "lat": 37.7649163, "lon": -122.4201748}, {"type": "node", "id": 2658217860, "lat": 37.7649255, "lon": -122.4201789}, {"type": "node", "id": 2665226406, "lat": 37.7947673, "lon": -122.407706}, {"type": "node", "id": 2667722691, "lat": 37.7660616, "lon": -122.4315691}, {"type": "node", "id": 2667722724, "lat": 37.76607, "lon": -122.4314277}, {"type": "node", "id": 2667722806, "lat": 37.7661368, "lon": -122.4315762}, {"type": "node", "id": 2667722935, "lat": 37.7662498, "lon": -122.431587}, {"type": "node", "id": 2667723001, "lat": 37.7664146, "lon": -122.4316027}, {"type": "node", "id": 2667723010, "lat": 37.766423, "lon": -122.4314612}, {"type": "node", "id": 2688420894, "lat": 37.7890363, "lon": -122.4337515}, {"type": "node", "id": 2688420895, "lat": 37.7890576, "lon": -122.4335711}, {"type": "node", "id": 2688420917, "lat": 37.7891644, "lon": -122.4335913}, {"type": "node", "id": 2688420990, "lat": 37.7891534, "lon": -122.4337738}, {"type": "node", "id": 2688421003, "lat": 37.7892789, "lon": -122.4336138}, {"type": "node", "id": 2694737821, "lat": 37.7736361, "lon": -122.4391391}, {"type": "node", "id": 2694737824, "lat": 37.7736617, "lon": -122.4389431}, {"type": "node", "id": 2694737826, "lat": 37.7736662, "lon": -122.4389441}, {"type": "node", "id": 2694737837, "lat": 37.7737897, "lon": -122.4391711}, {"type": "node", "id": 2694737838, "lat": 37.7738096, "lon": -122.4389741}, {"type": "node", "id": 2694737839, "lat": 37.7738153, "lon": -122.4389751}, {"type": "node", "id": 2699012383, "lat": 37.794494, "lon": -122.4237368, "tags": {"addr:city": "San Francisco", "addr:housenumber": "2045", "addr:postcode": "94109", "addr:street": "Van Ness Avenue", "amenity": "bank", "atm": "yes", "name": "Sterling Bank", "opening_hours": "Mo-Th 09:00-05:00, Fr 09:00-06:00"}}, {"type": "node", "id": 2713447257, "lat": 37.7231247, "lon": -122.4809232, "tags": {"amenity": "bank", "atm": "no", "brand": "U.S. Bank", "brand:wikidata": "Q739084", "brand:wikipedia": "en:U.S. Bancorp", "name": "U.S. Bank", "name:en": "US Bank"}}, {"type": "node", "id": 2725297729, "lat": 37.7636849, "lon": -122.465769}, {"type": "node", "id": 2725297731, "lat": 37.7636858, "lon": -122.4656832}, {"type": "node", "id": 2725297736, "lat": 37.7637555, "lon": -122.4656877}, {"type": "node", "id": 2725297737, "lat": 37.7637589, "lon": -122.4656029}, {"type": "node", "id": 2725297739, "lat": 37.7637643, "lon": -122.4654818}, {"type": "node", "id": 2725297740, "lat": 37.7637694, "lon": -122.4653544}, {"type": "node", "id": 2725297743, "lat": 37.7638296, "lon": -122.465486}, {"type": "node", "id": 2725297744, "lat": 37.7638387, "lon": -122.465608}, {"type": "node", "id": 2725297752, "lat": 37.7638975, "lon": -122.4656118}, {"type": "node", "id": 2725297755, "lat": 37.7639041, "lon": -122.4654908}, {"type": "node", "id": 2725297756, "lat": 37.7639075, "lon": -122.4656124}, {"type": "node", "id": 2725297759, "lat": 37.7639139, "lon": -122.4654914}, {"type": "node", "id": 2725297770, "lat": 37.7639561, "lon": -122.4657872}, {"type": "node", "id": 2725297771, "lat": 37.763963, "lon": -122.465616}, {"type": "node", "id": 2725297780, "lat": 37.7639706, "lon": -122.465495}, {"type": "node", "id": 2725297784, "lat": 37.7639718, "lon": -122.4653673}, {"type": "node", "id": 2725297786, "lat": 37.7639741, "lon": -122.4654953}, {"type": "node", "id": 2725297789, "lat": 37.7639788, "lon": -122.4653773}, {"type": "node", "id": 2725297791, "lat": 37.7639792, "lon": -122.4653678}, {"type": "node", "id": 2726290724, "lat": 37.7231598, "lon": -122.4830003, "tags": {"amenity": "bank"}}, {"type": "node", "id": 2732277993, "lat": 37.7617123, "lon": -122.435395}, {"type": "node", "id": 2732277996, "lat": 37.761716, "lon": -122.435334}, {"type": "node", "id": 2732278001, "lat": 37.7617919, "lon": -122.435432}, {"type": "node", "id": 2732278006, "lat": 37.7617962, "lon": -122.435364}, {"type": "node", "id": 2781967115, "lat": 37.7861896, "lon": -122.4520805}, {"type": "node", "id": 2781967119, "lat": 37.7862088, "lon": -122.4519323}, {"type": "node", "id": 2781967128, "lat": 37.7862863, "lon": -122.4513315}, {"type": "node", "id": 2781967129, "lat": 37.7863092, "lon": -122.4511547}, {"type": "node", "id": 2781967135, "lat": 37.7863686, "lon": -122.4506612}, {"type": "node", "id": 2781967139, "lat": 37.7863953, "lon": -122.4504546}, {"type": "node", "id": 2781967145, "lat": 37.7864137, "lon": -122.4521269}, {"type": "node", "id": 2781967147, "lat": 37.7864329, "lon": -122.4519787}, {"type": "node", "id": 2781967159, "lat": 37.7865018, "lon": -122.4513762}, {"type": "node", "id": 2781967160, "lat": 37.7865077, "lon": -122.4513774}, {"type": "node", "id": 2781967162, "lat": 37.7865246, "lon": -122.4511993}, {"type": "node", "id": 2781967164, "lat": 37.7865306, "lon": -122.4512006}, {"type": "node", "id": 2781967169, "lat": 37.7865949, "lon": -122.4507081}, {"type": "node", "id": 2781967171, "lat": 37.7866035, "lon": -122.4507108}, {"type": "node", "id": 2781967173, "lat": 37.7866217, "lon": -122.4505015}, {"type": "node", "id": 2784101004, "lat": 37.7445638, "lon": -122.4207364}, {"type": "node", "id": 2784101016, "lat": 37.7445993, "lon": -122.4208206}, {"type": "node", "id": 2784101020, "lat": 37.7446152, "lon": -122.4208585}, {"type": "node", "id": 2784101031, "lat": 37.7446558, "lon": -122.4209549}, {"type": "node", "id": 2784101036, "lat": 37.7446842, "lon": -122.4206554}, {"type": "node", "id": 2784101039, "lat": 37.7447259, "lon": -122.4211215}, {"type": "node", "id": 2784101049, "lat": 37.7448463, "lon": -122.4210405}, {"type": "node", "id": 2795165164, "lat": 37.7824798, "lon": -122.4679184}, {"type": "node", "id": 2795165165, "lat": 37.7824865, "lon": -122.4677355}, {"type": "node", "id": 2795165279, "lat": 37.7825219, "lon": -122.4679384}, {"type": "node", "id": 2795165282, "lat": 37.7825311, "lon": -122.467939}, {"type": "node", "id": 2795165307, "lat": 37.7825911, "lon": -122.4679425}, {"type": "node", "id": 2795165317, "lat": 37.7826115, "lon": -122.4679437}, {"type": "node", "id": 2795400052, "lat": 37.782999, "lon": -122.4656512}, {"type": "node", "id": 2795400053, "lat": 37.7830007, "lon": -122.4656365}, {"type": "node", "id": 2795400054, "lat": 37.7830026, "lon": -122.4656663}, {"type": "node", "id": 2795400057, "lat": 37.7830067, "lon": -122.4656734}, {"type": "node", "id": 2795400058, "lat": 37.7830151, "lon": -122.4656189}, {"type": "node", "id": 2795400061, "lat": 37.7830283, "lon": -122.4656155}, {"type": "node", "id": 2795400064, "lat": 37.7830429, "lon": -122.4656194}, {"type": "node", "id": 2795400067, "lat": 37.7830543, "lon": -122.4656332}, {"type": "node", "id": 2795401732, "lat": 37.7833233, "lon": -122.4656844}, {"type": "node", "id": 2796941318, "lat": 37.7826624, "lon": -122.4623832}, {"type": "node", "id": 2796941366, "lat": 37.7829383, "lon": -122.462519}, {"type": "node", "id": 2811432389, "lat": 37.7635601, "lon": -122.4797388}, {"type": "node", "id": 2811432392, "lat": 37.7635747, "lon": -122.4794014}, {"type": "node", "id": 2811432396, "lat": 37.7637578, "lon": -122.4797525}, {"type": "node", "id": 2811432399, "lat": 37.7637708, "lon": -122.4797534}, {"type": "node", "id": 2811432400, "lat": 37.7637822, "lon": -122.4794903}, {"type": "node", "id": 2811433401, "lat": 37.7637849, "lon": -122.4794271}, {"type": "node", "id": 2811433403, "lat": 37.7637854, "lon": -122.4794161}, {"type": "node", "id": 2811661601, "lat": 37.7633237, "lon": -122.4774528}, {"type": "node", "id": 2811661602, "lat": 37.7633281, "lon": -122.4773483}, {"type": "node", "id": 2811661613, "lat": 37.7634479, "lon": -122.4774612}, {"type": "node", "id": 2811661614, "lat": 37.7634523, "lon": -122.4773566}, {"type": "node", "id": 2811867836, "lat": 37.7631305, "lon": -122.4791438}, {"type": "node", "id": 2811867838, "lat": 37.7631382, "lon": -122.4789601}, {"type": "node", "id": 2811867862, "lat": 37.7633787, "lon": -122.4791604}, {"type": "node", "id": 2811867863, "lat": 37.7633864, "lon": -122.4789767}, {"type": "node", "id": 2812307191, "lat": 37.7634195, "lon": -122.4828097}, {"type": "node", "id": 2812307195, "lat": 37.7634212, "lon": -122.4827684}, {"type": "node", "id": 2812307199, "lat": 37.7634282, "lon": -122.4828254}, {"type": "node", "id": 2812307200, "lat": 37.7634288, "lon": -122.4828103}, {"type": "node", "id": 2812316101, "lat": 37.7634305, "lon": -122.482769}, {"type": "node", "id": 2812316102, "lat": 37.7634306, "lon": -122.4826405}, {"type": "node", "id": 2812316105, "lat": 37.7634355, "lon": -122.4826482}, {"type": "node", "id": 2812316106, "lat": 37.7634507, "lon": -122.4826181}, {"type": "node", "id": 2812316107, "lat": 37.763456, "lon": -122.4826259}, {"type": "node", "id": 2812316113, "lat": 37.7635162, "lon": -122.4828312}, {"type": "node", "id": 2812316135, "lat": 37.763619, "lon": -122.4828381}, {"type": "node", "id": 2812316138, "lat": 37.7636273, "lon": -122.4826372}, {"type": "node", "id": 2812406162, "lat": 37.7629225, "lon": -122.4830482}, {"type": "node", "id": 2812406163, "lat": 37.7629299, "lon": -122.4828739}, {"type": "node", "id": 2812406169, "lat": 37.7629397, "lon": -122.4830493}, {"type": "node", "id": 2812406179, "lat": 37.7630072, "lon": -122.4828791}, {"type": "node", "id": 2812406311, "lat": 37.7631978, "lon": -122.4830667}, {"type": "node", "id": 2812406315, "lat": 37.7632013, "lon": -122.4829845}, {"type": "node", "id": 2812406318, "lat": 37.7632035, "lon": -122.4829329}, {"type": "node", "id": 2812406319, "lat": 37.7632052, "lon": -122.4828924}, {"type": "node", "id": 2812406325, "lat": 37.7632149, "lon": -122.4829854}, {"type": "node", "id": 2812406327, "lat": 37.7632171, "lon": -122.4829338}, {"type": "node", "id": 2823796133, "lat": 37.7943358, "lon": -122.4011662, "tags": {"amenity": "bank", "brand": "Umpqua Bank", "brand:wikidata": "Q7881772", "brand:wikipedia": "en:Umpqua Holdings Corporation", "name": "Umpqua Bank", "wheelchair": "yes"}}, {"type": "node", "id": 2831769148, "lat": 37.7428848, "lon": -122.4754616}, {"type": "node", "id": 2831769149, "lat": 37.7428977, "lon": -122.4751165}, {"type": "node", "id": 2831769154, "lat": 37.7429546, "lon": -122.4754658}, {"type": "node", "id": 2831769155, "lat": 37.742958, "lon": -122.4751201}, {"type": "node", "id": 2831769157, "lat": 37.7429675, "lon": -122.4751207}, {"type": "node", "id": 2873178497, "lat": 37.7431977, "lon": -122.4762083}, {"type": "node", "id": 2873190431, "lat": 37.743126, "lon": -122.4763624}, {"type": "node", "id": 2873190432, "lat": 37.7431266, "lon": -122.4765398}, {"type": "node", "id": 2873190433, "lat": 37.7431278, "lon": -122.4765047}, {"type": "node", "id": 2873190434, "lat": 37.743128, "lon": -122.4763047}, {"type": "node", "id": 2873190435, "lat": 37.7431407, "lon": -122.4765054}, {"type": "node", "id": 2873190436, "lat": 37.7431431, "lon": -122.4764387}, {"type": "node", "id": 2873190437, "lat": 37.7431559, "lon": -122.4764394}, {"type": "node", "id": 2873190438, "lat": 37.7431585, "lon": -122.4763642}, {"type": "node", "id": 2873190439, "lat": 37.7431622, "lon": -122.4763066}, {"type": "node", "id": 2873190440, "lat": 37.7431633, "lon": -122.4762757}, {"type": "node", "id": 2873190441, "lat": 37.7431783, "lon": -122.4762765}, {"type": "node", "id": 2873190442, "lat": 37.7431794, "lon": -122.476244}, {"type": "node", "id": 2873190443, "lat": 37.7431964, "lon": -122.476245}, {"type": "node", "id": 2873190444, "lat": 37.7432134, "lon": -122.4762091}, {"type": "node", "id": 2873190445, "lat": 37.7432141, "lon": -122.4761868}, {"type": "node", "id": 2873190446, "lat": 37.7433111, "lon": -122.4765502}, {"type": "node", "id": 2873190447, "lat": 37.7433155, "lon": -122.4764263}, {"type": "node", "id": 2873190448, "lat": 37.7433393, "lon": -122.4764677}, {"type": "node", "id": 2873190449, "lat": 37.7433407, "lon": -122.4764277}, {"type": "node", "id": 2873190454, "lat": 37.743397, "lon": -122.476471}, {"type": "node", "id": 2873190458, "lat": 37.7434067, "lon": -122.4761977}, {"type": "node", "id": 2873291723, "lat": 37.7430925, "lon": -122.4770583}, {"type": "node", "id": 2873291724, "lat": 37.7430939, "lon": -122.4770237}, {"type": "node", "id": 2873291726, "lat": 37.7430956, "lon": -122.4769844}, {"type": "node", "id": 2873291730, "lat": 37.7430999, "lon": -122.4768831}, {"type": "node", "id": 2873291733, "lat": 37.7431036, "lon": -122.4770244}, {"type": "node", "id": 2873291734, "lat": 37.7431052, "lon": -122.4769851}, {"type": "node", "id": 2873291739, "lat": 37.7431465, "lon": -122.4769007}, {"type": "node", "id": 2873291741, "lat": 37.7431472, "lon": -122.4768863}, {"type": "node", "id": 2873291743, "lat": 37.7431723, "lon": -122.4769024}, {"type": "node", "id": 2873291744, "lat": 37.7431729, "lon": -122.476888}, {"type": "node", "id": 2873291765, "lat": 37.7432759, "lon": -122.4769102}, {"type": "node", "id": 2873291766, "lat": 37.7432765, "lon": -122.476895}, {"type": "node", "id": 2873291782, "lat": 37.7433416, "lon": -122.4770752}, {"type": "node", "id": 2873291785, "lat": 37.7433483, "lon": -122.4769151}, {"type": "node", "id": 2874974112, "lat": 37.7538606, "lon": -122.4767648}, {"type": "node", "id": 2874974117, "lat": 37.7538673, "lon": -122.4765904}, {"type": "node", "id": 2874974121, "lat": 37.753901, "lon": -122.4768015}, {"type": "node", "id": 2874974122, "lat": 37.7539023, "lon": -122.4767674}, {"type": "node", "id": 2874974183, "lat": 37.754071, "lon": -122.4768119}, {"type": "node", "id": 2874974186, "lat": 37.7540723, "lon": -122.4767778}, {"type": "node", "id": 2874974206, "lat": 37.7541215, "lon": -122.4767808}, {"type": "node", "id": 2874974207, "lat": 37.7541281, "lon": -122.4766063}, {"type": "node", "id": 2910081663, "lat": 37.7753179, "lon": -122.4985723}, {"type": "node", "id": 2910081664, "lat": 37.7753194, "lon": -122.4985393}, {"type": "node", "id": 2910081669, "lat": 37.7753513, "lon": -122.4986958}, {"type": "node", "id": 2910081670, "lat": 37.7753514, "lon": -122.4985747}, {"type": "node", "id": 2910081671, "lat": 37.7753528, "lon": -122.4985417}, {"type": "node", "id": 2910081696, "lat": 37.7755445, "lon": -122.4987098}, {"type": "node", "id": 2920561276, "lat": 37.8009388, "lon": -122.4242128}, {"type": "node", "id": 2920561279, "lat": 37.800949, "lon": -122.4242301}, {"type": "node", "id": 2920561280, "lat": 37.8009508, "lon": -122.4242153}, {"type": "node", "id": 2920561283, "lat": 37.800967, "lon": -122.4239797}, {"type": "node", "id": 2920561284, "lat": 37.8009778, "lon": -122.4239818}, {"type": "node", "id": 2920561285, "lat": 37.8009794, "lon": -122.4239692}, {"type": "node", "id": 2920561323, "lat": 37.8012753, "lon": -122.4242933}, {"type": "node", "id": 2920561324, "lat": 37.8012769, "lon": -122.4242804}, {"type": "node", "id": 2920561327, "lat": 37.801289, "lon": -122.4242827}, {"type": "node", "id": 2920561328, "lat": 37.8013068, "lon": -122.4240485}, {"type": "node", "id": 2920561329, "lat": 37.8013086, "lon": -122.4240337}, {"type": "node", "id": 2920561330, "lat": 37.8013087, "lon": -122.4240329}, {"type": "node", "id": 2920561332, "lat": 37.801317, "lon": -122.4240503}, {"type": "node", "id": 2920675015, "lat": 37.7923514, "lon": -122.4031844}, {"type": "node", "id": 2920675016, "lat": 37.7923993, "lon": -122.4028034}, {"type": "node", "id": 2920675018, "lat": 37.7926512, "lon": -122.4032438}, {"type": "node", "id": 2920675019, "lat": 37.7926703, "lon": -122.4032317}, {"type": "node", "id": 2920675020, "lat": 37.792704, "lon": -122.4028615}, {"type": "node", "id": 2920675021, "lat": 37.7927127, "lon": -122.4028796}, {"type": "node", "id": 2924776175, "lat": 37.7321775, "lon": -122.4740548}, {"type": "node", "id": 2924776231, "lat": 37.7323649, "lon": -122.4738847}, {"type": "node", "id": 2924776233, "lat": 37.7323715, "lon": -122.4738797}, {"type": "node", "id": 2924776239, "lat": 37.7323812, "lon": -122.4739003}, {"type": "node", "id": 2996292602, "lat": 37.7517903, "lon": -122.4276515, "tags": {"amenity": "bank", "atm": "yes", "name": "Sterling Bank and Trust"}}, {"type": "node", "id": 3023246624, "lat": 37.7516112, "lon": -122.4305108, "tags": {"addr:city": "San Francisco", "addr:housenumber": "3938", "addr:street": "24th Street", "amenity": "bank", "atm": "yes", "brand": "Umpqua Bank", "brand:wikidata": "Q7881772", "brand:wikipedia": "en:Umpqua Holdings Corporation", "name": "Umpqua Bank"}}, {"type": "node", "id": 3079509210, "lat": 37.7384979, "lon": -122.4690894}, {"type": "node", "id": 3148123212, "lat": 37.7980158, "lon": -122.4085608, "tags": {"amenity": "bank", "atm": "yes", "brand": "Chase", "brand:wikidata": "Q524629", "brand:wikipedia": "en:Chase Bank", "inside_atm": "2", "name": "Chase"}}, {"type": "node", "id": 3174203338, "lat": 37.7913199, "lon": -122.3927742, "tags": {"addr:city": "San Francisco", "addr:housenumber": "188", "addr:postcode": "94105", "addr:state": "CA", "addr:street": "Spear Street", "amenity": "bank", "brand": "Chase", "brand:wikidata": "Q524629", "brand:wikipedia": "en:Chase Bank", "drive_through": "no", "name": "Chase"}}, {"type": "node", "id": 3189444971, "lat": 37.7813381, "lon": -122.4544157, "tags": {"addr:city": "San Francisco", "addr:housenumber": "3301", "addr:postcode": "94118", "addr:state": "CA", "addr:street": "Geary Boulevard", "amenity": "bank", "atm": "yes", "brand": "Chase", "brand:wikidata": "Q524629", "brand:wikipedia": "en:Chase Bank", "name": "Chase"}}, {"type": "node", "id": 3489778568, "lat": 37.7813621, "lon": -122.4190293, "tags": {"addr:city": "San Francisco", "addr:housenumber": "500", "addr:postcode": "94102", "addr:state": "CA", "addr:street": "Golden Gate Avenue", "amenity": "bank", "atm": "yes", "brand": "Golden 1 Credit Union", "brand:wikidata": "Q7736976", "brand:wikipedia": "en:Golden 1 Credit Union", "drive_through": "no", "name": "Golden 1 Credit Union", "operator": "Golden 1 Credit Union", "source": "Field observation"}}, {"type": "node", "id": 3504141935, "lat": 37.7514168, "lon": -122.4339129, "tags": {"addr:city": "San Francisco", "addr:housenumber": "4098", "addr:postcode": "94114", "addr:state": "CA", "addr:street": "24th Street", "amenity": "bank", "atm": "yes", "brand": "Bank of America", "brand:wikidata": "Q487907", "brand:wikipedia": "en:Bank of America", "drive_through": "no", "name": "Bank of America", "opening_hours": "Mo-Th 09:00-17:00; Fr 09:00-18:00; Sa 10:00-14:00", "operator": "Bank of America"}}, {"type": "node", "id": 3523031624, "lat": 37.7434668, "lon": -122.4394337, "tags": {"addr:city": "San Francisco", "addr:housenumber": "5268", "addr:postcode": "94131", "addr:state": "CA", "addr:street": "Diamond Heights Boulevard", "amenity": "bank", "atm": "yes", "brand": "Bank of America", "brand:wikidata": "Q487907", "brand:wikipedia": "en:Bank of America", "drive_through": "no", "name": "Bank of America", "opening_hours": "Mo-Fr 09:00-17:00; Sa 09:00-14:00", "phone": "+1 (415) 953-2773", "wheelchair": "yes"}}, {"type": "node", "id": 3540160997, "lat": 37.7394191, "lon": -122.4670841, "tags": {"addr:city": "San Francisco", "addr:country": "US", "addr:housenumber": "109", "addr:postcode": "94127", "addr:state": "CA", "addr:street": "West Portal Avenue", "amenity": "bank", "name": "Sterling Bank & Trust"}}, {"type": "node", "id": 3545343709, "lat": 37.744436, "lon": -122.4530137, "tags": {"addr:city": "San Francisco", "addr:country": "US", "addr:housenumber": "699", "addr:postcode": "94127", "addr:state": "CA", "addr:street": "Portola Drive", "amenity": "bank", "atm": "yes", "name": "First National Bank of Northern California"}}, {"type": "node", "id": 3564511107, "lat": 37.7428796, "lon": -122.4771049}, {"type": "node", "id": 3564511108, "lat": 37.7426359, "lon": -122.4770874}, {"type": "node", "id": 3564511110, "lat": 37.742888, "lon": -122.4768982}, {"type": "node", "id": 3564511111, "lat": 37.7426193, "lon": -122.4768772}, {"type": "node", "id": 3564511112, "lat": 37.7426089, "lon": -122.4770859}, {"type": "node", "id": 3577449193, "lat": 37.7641132, "lon": -122.4329134, "tags": {"addr:city": "San Francisco", "addr:country": "US", "addr:postcode": "94114", "addr:street": "Market Street", "amenity": "bank", "atm": "yes", "brand": "Bank of the West", "brand:wikidata": "Q2881919", "brand:wikipedia": "en:Bank of the West", "name": "Bank of the West"}}, {"type": "node", "id": 3656998556, "lat": 37.7638958, "lon": -122.4668187, "tags": {"addr:city": "San Francisco", "addr:country": "US", "addr:housenumber": "825", "addr:postcode": "94122", "addr:state": "CA", "addr:street": "Irving Street", "amenity": "bank", "atm": "yes", "name": "Sterling Bank & Trust"}}, {"type": "node", "id": 3667880728, "lat": 37.7639724, "lon": -122.4651068, "tags": {"addr:city": "San Francisco", "addr:country": "US", "addr:housenumber": "653", "addr:postcode": "94122", "addr:state": "CA", "addr:street": "Irving Street", "amenity": "bank", "atm": "yes", "name": "First Republic Bank"}}, {"type": "node", "id": 3669469797, "lat": 37.7769228, "lon": -122.4159354, "tags": {"amenity": "bank", "name": "First Republic"}}, {"type": "node", "id": 3801395698, "lat": 37.7696489, "lon": -122.4507189, "tags": {"addr:housenumber": "1726", "addr:street": "Haight Street", "amenity": "bank", "atm": "yes", "brand": "Wells Fargo", "brand:wikidata": "Q744149", "brand:wikipedia": "en:Wells Fargo", "name": "Wells Fargo", "opening_hours": "Mo-Sa 09:00-18:00; Suvoff"}}, {"type": "node", "id": 3853404469, "lat": 37.7673279, "lon": -122.4294793}, {"type": "node", "id": 3931497662, "lat": 37.7926808, "lon": -122.3997139, "tags": {"amenity": "bank", "name": "First National Bank of Northern California"}}, {"type": "node", "id": 3931687098, "lat": 37.868619, "lon": -122.5019567, "tags": {"addr:city": "Sausalito", "addr:housenumber": "2656, Suite D", "addr:postcode": "94965", "addr:state": "CA", "addr:street": "Bridgeway", "amenity": "bank", "atm": "yes", "drive_through": "no", "name": "Bank of Marin", "operator": "Bank of Marin"}}, {"type": "node", "id": 3940885557, "lat": 37.8675117, "lon": -122.5007247, "tags": {"addr:city": "Sausalito", "addr:housenumber": "1", "addr:postcode": "94965", "addr:state": "CA", "addr:street": "Harbor Drive", "amenity": "bank", "atm": "yes", "drive_through": "no", "name": "Westamerica Bank", "opening_hours": "Mo-Th 09:00-16:00; Fr 09:00-18:00", "operator": "Westamerica Bancorporation"}}, {"type": "node", "id": 3951067928, "lat": 37.8568288, "lon": -122.479819, "tags": {"addr:city": "Sausalito", "addr:housenumber": "750", "addr:postcode": "94965", "addr:state": "CA", "addr:street": "Bridgeway", "amenity": "bank", "atm": "yes", "brand": "Bank of America", "brand:wikidata": "Q487907", "brand:wikipedia": "en:Bank of America", "drive_through": "no", "name": "Bank of America", "opening_hours": "Mo-Fr 10:00-16:00"}}, {"type": "node", "id": 3976419686, "lat": 37.7976965, "lon": -122.4068806, "tags": {"amenity": "bank", "atm": "yes", "brand": "Wells Fargo", "brand:wikidata": "Q744149", "brand:wikipedia": "en:Wells Fargo", "name": "Wells Fargo"}}, {"type": "node", "id": 3976445299, "lat": 37.7963554, "lon": -122.4048645, "tags": {"addr:city": "San Francisco", "addr:housenumber": "900", "addr:state": "CA", "addr:street": "Kearny Street", "amenity": "bank", "brand": "EastWest Unibank", "brand:wikidata": "Q5327595", "brand:wikipedia": "en:EastWest Bank", "name": "EastWest Unibank"}}, {"type": "node", "id": 4008802794, "lat": 37.7000927, "lon": -122.4829092, "tags": {"addr:city": "Daly City", "addr:housenumber": "440", "addr:postcode": "94015", "addr:street": "Westlake Center", "amenity": "bank", "atm": "yes", "name": "Sterling Bank"}}, {"type": "node", "id": 4012290644, "lat": 37.797788, "lon": -122.4307879, "tags": {"amenity": "bank", "brand": "Wells Fargo", "brand:wikidata": "Q744149", "brand:wikipedia": "en:Wells Fargo", "name": "Wells Fargo"}}, {"type": "node", "id": 4012383153, "lat": 37.7974021, "lon": -122.4319871, "tags": {"amenity": "bank", "brand": "Bank of America", "brand:wikidata": "Q487907", "brand:wikipedia": "en:Bank of America", "name": "Bank of America"}}, {"type": "node", "id": 4015798336, "lat": 37.7631135, "lon": -122.4847657, "tags": {"addr:city": "San Francisco", "addr:country": "US", "addr:housenumber": "2501", "addr:postcode": "94122", "addr:state": "CA", "addr:street": "Irving Street", "amenity": "bank", "atm": "yes", "name": "Sterling Bank"}}, {"type": "node", "id": 4017234595, "lat": 37.7636672, "lon": -122.4779929, "tags": {"addr:city": "San Francisco", "addr:housenumber": "1850", "addr:postcode": "94122", "addr:state": "CA", "addr:street": "Irving Street", "amenity": "bank", "atm": "yes", "brand": "U.S. Bank", "brand:wikidata": "Q739084", "brand:wikipedia": "en:U.S. Bancorp", "name": "U.S. Bank"}}, {"type": "node", "id": 4017234695, "lat": 37.7633456, "lon": -122.4794373, "tags": {"addr:city": "San Francisco", "addr:housenumber": "2001", "addr:postcode": "94122", "addr:state": "CA", "addr:street": "Irving Street", "amenity": "bank", "atm": "yes", "name": "Bank of the Orient"}}, {"type": "node", "id": 4018792595, "lat": 37.7632104, "lon": -122.482329, "tags": {"addr:city": "San Francisco", "addr:housenumber": "2257", "addr:postcode": "94122", "addr:state": "CA", "addr:street": "Irving Street", "amenity": "bank", "atm": "yes", "brand": "HSBC", "brand:wikidata": "Q190464", "brand:wikipedia": "en:HSBC", "name": "HSBC"}}, {"type": "node", "id": 4018792690, "lat": 37.7632324, "lon": -122.481785, "tags": {"addr:city": "San Francisco", "addr:housenumber": "2219", "addr:postcode": "94122", "addr:state": "CA", "addr:street": "Irving Street", "amenity": "bank", "atm": "yes", "brand": "East West Bank", "brand:wikidata": "Q3046549", "brand:wikipedia": "en:East West Bank", "name": "East West Bank", "name:en": "East West Bank", "name:zh": "\u83ef\u7f8e\u9280\u884c", "name:zh-Hans": "\u534e\u7f8e\u94f6\u884c", "name:zh-Hant": "\u83ef\u7f8e\u9280\u884c"}}, {"type": "node", "id": 4024227024, "lat": 37.7971247, "lon": -122.4103452, "tags": {"addr:city": "San Francisco", "addr:housenumber": "1351", "addr:street": "Powell Street", "amenity": "bank", "name": "Metropolitan Bank"}}, {"type": "node", "id": 4039511538, "lat": 37.7950693, "lon": -122.4062602, "tags": {"amenity": "bank", "brand": "EastWest Unibank", "brand:wikidata": "Q5327595", "brand:wikipedia": "en:EastWest Bank", "name": "EastWest Unibank"}}, {"type": "node", "id": 4055481595, "lat": 37.7961947, "lon": -122.4065803, "tags": {"amenity": "bank", "atm": "yes", "brand": "Citibank", "brand:wikidata": "Q857063", "brand:wikipedia": "en:Citibank", "name": "Citibank", "short_name": "Citi"}}, {"type": "node", "id": 4077362417, "lat": 37.7961267, "lon": -122.4068027, "tags": {"addr:city": "San Francisco", "addr:housenumber": "1001", "addr:street": "Grant Avenue", "amenity": "bank", "name": "Industrial and Commercial Bank of China"}}, {"type": "node", "id": 4117790315, "lat": 37.7649387, "lon": -122.4194943, "tags": {"amenity": "bank", "brand": "U.S. Bank", "brand:wikidata": "Q739084", "brand:wikipedia": "en:U.S. Bancorp", "name": "U.S. Bank"}}, {"type": "node", "id": 4117790317, "lat": 37.7648719, "lon": -122.4195171, "tags": {"amenity": "bank", "brand": "Western Union", "brand:wikidata": "Q861042", "brand:wikipedia": "en:Western Union", "name": "Western Union"}}, {"type": "node", "id": 4199804597, "lat": 37.754057, "lon": -122.4777245, "tags": {"amenity": "bank", "atm": "yes", "name": "EastWest Bank", "name:zh": "\u83ef\u7f8e\u9280\u884c", "opening_hours": "Mo-Th 09:00-17:00; Fr 9:00-18:00; Sa 10:00-17:00; Su off; PH off"}}, {"type": "node", "id": 4199813889, "lat": 37.7540935, "lon": -122.4771455, "tags": {"addr:city": "San Francisco", "addr:housenumber": "1239", "addr:postcode": "94122", "addr:state": "CA", "addr:street": "Noriega Street", "amenity": "bank", "atm": "yes", "name": "Sterling Bank & Trust"}}, {"type": "node", "id": 4199813890, "lat": 37.754335, "lon": -122.4774291, "tags": {"addr:city": "San Francisco", "addr:housenumber": "1250", "addr:postcode": "94122", "addr:state": "CA", "addr:street": "Noriega Street", "amenity": "bank", "atm": "yes", "name": "Industrial and Commercial Bank of China"}}, {"type": "node", "id": 4238376198, "lat": 37.730628, "lon": -122.4714906, "tags": {"addr:city": "San Francisco", "addr:housenumber": "2499", "addr:postcode": "94127", "addr:state": "CA", "addr:street": "Ocean Avenue", "amenity": "bank", "atm": "yes", "brand": "Citibank", "brand:wikidata": "Q857063", "brand:wikipedia": "en:Citibank", "name": "Citibank", "short_name": "Citi"}}, {"type": "node", "id": 4238459890, "lat": 37.7318585, "lon": -122.4732563, "tags": {"addr:city": "San Francisco", "addr:housenumber": "2606", "addr:postcode": "94127", "addr:state": "CA", "addr:street": "Ocean Avenue", "amenity": "bank", "atm": "yes", "brand": "Bank of the West", "brand:wikidata": "Q2881919", "brand:wikipedia": "en:Bank of the West", "name": "Bank of the West"}}, {"type": "node", "id": 4238465589, "lat": 37.7318362, "lon": -122.4739431, "tags": {"amenity": "bank", "atm": "yes", "name": "San Francisco Credit Union"}}, {"type": "node", "id": 4238705725, "lat": 37.7321024, "lon": -122.4738965}, {"type": "node", "id": 4238705729, "lat": 37.7322989, "lon": -122.4737454}, {"type": "node", "id": 4343738966, "lat": 37.7934587, "lon": -122.3969173}, {"type": "node", "id": 4343738985, "lat": 37.7934915, "lon": -122.3968851}, {"type": "node", "id": 4343738988, "lat": 37.7932677, "lon": -122.3968392}, {"type": "node", "id": 4343739289, "lat": 37.7932904, "lon": -122.3968792}, {"type": "node", "id": 4343745963, "lat": 37.7886614, "lon": -122.4028926}, {"type": "node", "id": 4343745971, "lat": 37.7885796, "lon": -122.4031301}, {"type": "node", "id": 4365583731, "lat": 37.7633526, "lon": -122.4850877, "tags": {"addr:city": "San Francisco", "addr:housenumber": "2550", "addr:postcode": "94122-1515", "addr:state": "CA", "addr:street": "Irving Street", "amenity": "bank", "atm": "yes", "description": "SF Police Credit Union\nSan Francisco Main Office & Branch", "drive_through": "no", "level": "0", "name": "SF Police Credit Union Main Office & Branch", "opening_hours": "Mo-Fr 08:30-18:00; Sa 09:00-15:00; Su off; PH off", "operator": "SF Police Credit Union", "phone": "+1 415 5643800", "website": "https://www.sfpcu.org/", "wheelchair": "yes"}}, {"type": "node", "id": 4436498883, "lat": 37.7719051, "lon": -122.3893131, "tags": {"addr:housenumber": "1375", "addr:postcode": "94158", "addr:street": "3rd Street", "amenity": "bank", "brand": "Chase", "brand:wikidata": "Q524629", "brand:wikipedia": "en:Chase Bank", "drive_through": "no", "name": "Chase"}}, {"type": "node", "id": 4530915847, "lat": 37.782792, "lon": -122.4080126, "tags": {"addr:street": "Mint Plaza", "amenity": "bank", "name": "San Francisco Fire Credit Union"}}, {"type": "node", "id": 4548821684, "lat": 37.7534735, "lon": -122.4890342, "tags": {"amenity": "bank", "brand": "Bank of America", "brand:wikidata": "Q487907", "brand:wikipedia": "en:Bank of America", "name": "Bank of America"}}, {"type": "node", "id": 4548821689, "lat": 37.7541015, "lon": -122.4842595, "tags": {"amenity": "bank", "brand": "Citibank", "brand:wikidata": "Q857063", "brand:wikipedia": "en:Citibank", "name": "Citibank", "short_name": "Citi"}}, {"type": "node", "id": 4548821702, "lat": 37.7536984, "lon": -122.4183507, "tags": {"amenity": "bank", "brand": "Bank of America", "brand:wikidata": "Q487907", "brand:wikipedia": "en:Bank of America", "name": "Bank of America"}}, {"type": "node", "id": 4548821710, "lat": 37.8048071, "lon": -122.4338261, "tags": {"amenity": "bank", "brand": "Chase", "brand:wikidata": "Q524629", "brand:wikipedia": "en:Chase Bank", "name": "Chase"}}, {"type": "node", "id": 4548821897, "lat": 37.8005688, "lon": -122.4390348, "tags": {"addr:housenumber": "2164-2166", "addr:street": "Chestnut Street", "amenity": "bank", "brand": "Chase", "brand:wikidata": "Q524629", "brand:wikipedia": "en:Chase Bank", "name": "Chase"}}, {"type": "node", "id": 4548821903, "lat": 37.8003441, "lon": -122.439336, "tags": {"addr:housenumber": "2197", "addr:street": "Chestnut Street", "amenity": "bank", "name": "First National Bank of Northern California"}}, {"type": "node", "id": 4567603392, "lat": 37.8005266, "lon": -122.4393734, "tags": {"amenity": "bank", "atm": "yes", "brand": "Citibank", "brand:wikidata": "Q857063", "brand:wikipedia": "en:Citibank", "name": "Citibank", "short_name": "Citi", "wheelchair": "yes"}}, {"type": "node", "id": 4615943014, "lat": 37.7892576, "lon": -122.4337943}, {"type": "node", "id": 4616136993, "lat": 37.792879, "lon": -122.4012811, "tags": {"amenity": "bank", "brand": "Chase", "brand:wikidata": "Q524629", "brand:wikipedia": "en:Chase Bank", "name": "Chase"}}, {"type": "node", "id": 4616136999, "lat": 37.7932255, "lon": -122.4009003, "tags": {"alt_name": "UnionBank", "amenity": "bank", "brand": "Union Bank", "brand:wikidata": "Q1442804", "brand:wikipedia": "en:MUFG Union Bank", "name": "Union Bank", "wheelchair": "yes"}}, {"type": "node", "id": 4616141809, "lat": 37.7938704, "lon": -122.4014681, "tags": {"amenity": "bank", "name": "Mechanics Bank", "wheelchair": "yes"}}, {"type": "node", "id": 4618173567, "lat": 37.7933712, "lon": -122.399845, "tags": {"amenity": "bank", "brand": "Citibank", "brand:wikidata": "Q857063", "brand:wikipedia": "en:Citibank", "name": "Citibank", "opening_hours": "Mo,Fr 09:00-17:00, Tu-Th 09:00-16:00", "short_name": "Citi"}}, {"type": "node", "id": 4618173568, "lat": 37.7947901, "lon": -122.4000636, "tags": {"amenity": "bank", "name": "City Bank", "wheelchair": "yes"}}, {"type": "node", "id": 4618173569, "lat": 37.7945139, "lon": -122.4032669, "tags": {"amenity": "bank", "brand": "EastWest Unibank", "brand:wikidata": "Q5327595", "brand:wikipedia": "en:EastWest Bank", "name": "EastWest Unibank", "wheelchair": "yes"}}, {"type": "node", "id": 4618173571, "lat": 37.7947465, "lon": -122.4033929, "tags": {"amenity": "bank", "brand": "HSBC", "brand:wikidata": "Q190464", "brand:wikipedia": "en:HSBC", "name": "HSBC"}}, {"type": "node", "id": 4628571735, "lat": 37.7883282, "lon": -122.4089555, "tags": {"amenity": "bank", "brand": "Chase", "brand:wikidata": "Q524629", "brand:wikipedia": "en:Chase Bank", "name": "Chase"}}, {"type": "node", "id": 4631802346, "lat": 37.7901469, "lon": -122.402345, "tags": {"amenity": "bank", "brand": "Chase", "brand:wikidata": "Q524629", "brand:wikipedia": "en:Chase Bank", "name": "Chase"}}, {"type": "node", "id": 4631802347, "lat": 37.7901933, "lon": -122.401892, "tags": {"amenity": "bank", "brand": "City National Bank", "brand:wikidata": "Q5123314", "brand:wikipedia": "en:City National Bank (California)", "name": "City National Bank"}}, {"type": "node", "id": 4631982794, "lat": 37.7968164, "lon": -122.4066742, "tags": {"amenity": "bank", "atm": "yes", "brand": "EastWest Unibank", "brand:wikidata": "Q5327595", "brand:wikipedia": "en:EastWest Bank", "name": "EastWest Unibank"}}, {"type": "node", "id": 4631999417, "lat": 37.789127, "lon": -122.4035705, "tags": {"amenity": "bank", "brand": "Wells Fargo", "brand:wikidata": "Q744149", "brand:wikipedia": "en:Wells Fargo", "name": "Wells Fargo"}}, {"type": "node", "id": 4632029099, "lat": 37.7886183, "lon": -122.3987513, "tags": {"amenity": "bank", "brand": "Chase", "brand:wikidata": "Q524629", "brand:wikipedia": "en:Chase Bank", "name": "Chase"}}, {"type": "node", "id": 4632084891, "lat": 37.7890421, "lon": -122.4013748, "tags": {"amenity": "bank", "atm": "yes", "branch": "Market Financial District", "brand": "Wells Fargo", "brand:wikidata": "Q744149", "brand:wikipedia": "en:Wells Fargo", "drive_through": "no", "name": "Wells Fargo", "official_name": "Wells Fargo", "opening_hours": "Mo-Fr 09:00-18:00"}}, {"type": "node", "id": 5067639715, "lat": 37.7940493, "lon": -122.3999594, "tags": {"addr:city": "San Francisco", "addr:housenumber": "292", "addr:postcode": "94121", "addr:state": "CA", "addr:street": "Battery Street", "amenity": "bank", "atm": "yes", "brand": "Wells Fargo", "brand:wikidata": "Q744149", "brand:wikipedia": "en:Wells Fargo", "name": "Wells Fargo", "toilets:wheelchair": "yes", "wheelchair": "yes"}}, {"type": "node", "id": 5504036910, "lat": 37.7204087, "lon": -122.4378552, "tags": {"addr:housenumber": "4873", "addr:street": "Mission Street", "amenity": "bank", "name": "Lucky Money", "phone": "415-452-2831"}}, {"type": "node", "id": 5604917322, "lat": 37.7925277, "lon": -122.3988035, "tags": {"amenity": "bank", "brand": "Chase", "brand:wikidata": "Q524629", "brand:wikipedia": "en:Chase Bank", "name": "Chase", "wheelchair": "yes"}}, {"type": "node", "id": 5604933821, "lat": 37.7923758, "lon": -122.3978328, "tags": {"amenity": "bank", "name": "First Republic Bank"}}, {"type": "node", "id": 5791164133, "lat": 37.7114746, "lon": -122.4038854, "tags": {"amenity": "bank", "atm": "yes", "brand": "Bank of America", "brand:wikidata": "Q487907", "brand:wikipedia": "en:Bank of America", "drive_through": "no", "name": "Bank of America"}}, {"type": "node", "id": 6217699233, "lat": 37.7708968, "lon": -122.404696, "tags": {"amenity": "bank", "atm": "yes", "brand": "Wells Fargo", "brand:wikidata": "Q744149", "brand:wikipedia": "en:Wells Fargo", "name": "Wells Fargo"}}, {"type": "node", "id": 6317172603, "lat": 37.855402, "lon": -122.479441, "tags": {"amenity": "bank", "brand": "Chase", "brand:wikidata": "Q524629", "brand:wikipedia": "en:Chase Bank", "name": "Chase"}}, {"type": "node", "id": 6488899085, "lat": 37.7912605, "lon": -122.398456, "tags": {"amenity": "bank", "brand": "Bank of America", "brand:wikidata": "Q487907", "brand:wikipedia": "en:Bank of America", "name": "Bank of America"}}, {"type": "node", "id": 6502703597, "lat": 37.7539905, "lon": -122.4790009, "tags": {"addr:housenumber": "1405", "addr:street": "Noriega Street", "amenity": "bank", "name": "Patelco Credit Union"}}, {"type": "node", "id": 6587912694, "lat": 37.7805745, "lon": -122.4781917, "tags": {"amenity": "bank", "name": "Sterling Bank & Trust", "opening_hours": "Mo-Th 09:00-17:00; Fr 09:00-18:00; Sa 10:00-14:00; Su off"}}, {"type": "node", "id": 6615153560, "lat": 37.7302577, "lon": -122.4767834, "tags": {"addr:housenumber": "565", "addr:street": "Buckingham Way", "amenity": "bank", "name": "San Francisco Fire Credit Union", "opening_hours": "Mo-Fr 08:30-18:00; Sa 08:30-15:00; Su off; PH off"}}, {"type": "node", "id": 6615153567, "lat": 37.7303153, "lon": -122.4757352, "tags": {"amenity": "bank", "brand:wikidata": "Q857063", "name": "Citibank", "opening_hours": "Mo-Fr 10:00-17:00; Sa-Su off"}}, {"type": "node", "id": 6701950546, "lat": 37.7799885, "lon": -122.4830418, "tags": {"addr:housenumber": "5923", "addr:street": "Geary Boulevard", "amenity": "bank", "name": "Polam Federal Credit Union"}}, {"type": "node", "id": 6724844665, "lat": 37.7965329, "lon": -122.4066749, "tags": {"addr:housenumber": "1040", "addr:street": "Grant Ave", "amenity": "bank", "brand": "Chase", "brand:wikidata": "Q524629", "brand:wikipedia": "en:Chase Bank", "description": "Chinatown Grant Chase Bank", "name": "Chase", "opening_hours": "Mo-Fr 09:00-18:00; Sa 09:00-16:00; Su 09:00-13:00", "phone": "+1-415-421-5422"}}, {"type": "node", "id": 6791676305, "lat": 37.7831031, "lon": -122.46428, "tags": {"addr:housenumber": "498", "addr:street": "Clement Street", "amenity": "bank", "atm": "yes", "check_date:opening_hours": "2021-05-01", "drive_through": "no", "name": "East West Bank", "name:zh": "\u83ef\u7f8e\u9280\u884c", "opening_hours": "Mo-Th 09:00-17:00; Fr 09:00-18:00; Sa 10:00-17:00; Su off", "operator": "East West Bank"}}, {"type": "node", "id": 6872253565, "lat": 37.7686603, "lon": -122.3889072, "tags": {"amenity": "bank", "atm": "yes", "brand": "Chase", "brand:wikidata": "Q524629", "brand:wikipedia": "en:Chase Bank", "name": "Chase"}}, {"type": "node", "id": 7152720383, "lat": 37.7633681, "lon": -122.4789755}, {"type": "node", "id": 7194831085, "lat": 37.7795535, "lon": -122.4233551, "tags": {"amenity": "bank"}}, {"type": "node", "id": 7826835915, "lat": 37.6980449, "lon": -122.4812042, "tags": {"amenity": "bank", "brand": "Bank of America", "brand:wikidata": "Q487907", "brand:wikipedia": "en:Bank of America", "name": "Bank of America"}}, {"type": "node", "id": 8220825976, "lat": 37.7732078, "lon": -122.4376174}, {"type": "node", "id": 8262429772, "lat": 37.7028987, "lon": -122.4632382, "tags": {"amenity": "bank", "name": "Tri-Counties Bank"}}, {"type": "node", "id": 8707797871, "lat": 37.7878154, "lon": -122.40362, "tags": {"addr:housenumber": "700", "addr:street": "Market Street", "amenity": "bank", "atm": "yes", "brand": "Chase", "brand:wikidata": "Q524629", "brand:wikipedia": "en:Chase Bank", "has_vestibule_atm": "yes", "name": "Chase", "operator": "Chase", "source": "survey", "vestibule_atm_capacity": "3", "vestibule_atm_operator": "Chase"}}, {"type": "node", "id": 8888577417, "lat": 37.6979245, "lon": -122.4815882, "tags": {"alt_name": "UnionBank", "amenity": "bank", "brand": "Union Bank", "brand:wikidata": "Q1442804", "brand:wikipedia": "en:MUFG Union Bank", "name": "Union Bank"}}, {"type": "node", "id": 8888577419, "lat": 37.69802, "lon": -122.481316, "tags": {"amenity": "bank", "name": "Patelco"}}, {"type": "node", "id": 9000171989, "lat": 37.7949481, "lon": -122.3989492, "tags": {"amenity": "bank", "brand": "Chase", "brand:wikidata": "Q524629", "brand:wikipedia": "en:Chase Bank", "name": "Chase"}}, {"type": "node", "id": 9000171992, "lat": 37.7945803, "lon": -122.399242, "tags": {"amenity": "bank", "name": "First Republic Bank"}}, {"type": "node", "id": 9000171994, "lat": 37.7934876, "lon": -122.39898, "tags": {"amenity": "bank", "brand": "Charles Schwab", "brand:wikidata": "Q1066028", "brand:wikipedia": "en:Charles Schwab Corporation", "name": "Charles Schwab", "office": "financial_advisor"}}, {"type": "way", "id": 28694017, "nodes": [315411006, 315411007, 315411008, 315411009, 315411006], "tags": {"addr:housenumber": "1595", "addr:street": "Lakeshore Plaza", "amenity": "bank", "atm": "yes", "brand": "Wells Fargo", "brand:wikidata": "Q744149", "brand:wikipedia": "en:Wells Fargo", "building": "yes", "contact:phone": "+1 (415) 242-0231", "height": "6", "name": "Wells Fargo", "wheelchair": "yes"}}, {"type": "way", "id": 32946665, "nodes": [371021458, 1618082758, 4343745971, 4343745963, 371021466, 371021458], "tags": {"amenity": "bank", "building": "yes", "height": "43", "name": "First National Bank of Northern California", "operator": "First National Bank of Northern California", "outside_atm": "1", "outside_atm_operator": "First National Bank of Northern California", "source": "survey"}}, {"type": "way", "id": 33994962, "nodes": [389408925, 389408926, 389408927, 1270635904, 389408928, 389408925], "tags": {"addr:housenumber": "501", "addr:street": "Brannan Street", "amenity": "bank", "brand": "Bank of America", "brand:wikidata": "Q487907", "brand:wikipedia": "en:Bank of America", "building": "yes", "drive_through_atm": "yes", "drive_through_atm_capacity": "1", "height": "4", "name": "Bank of America", "operator": "Bank of Americ", "outside_atm": "yes", "outside_atm_capacity": "1"}}, {"type": "way", "id": 35176266, "nodes": [376211774, 412583141, 412583137, 412583138, 376211774], "tags": {"addr:city": "San Francisco", "addr:country": "US", "addr:housenumber": "1201", "addr:postcode": "94103", "addr:state": "CA", "addr:street": "Market Street", "amenity": "bank", "brand": "Chase", "brand:wikidata": "Q524629", "brand:wikipedia": "en:Chase Bank", "building": "yes", "height": "8", "name": "Chase", "wheelchair": "yes"}}, {"type": "way", "id": 35176313, "nodes": [412583421, 412583422, 412583423, 412583424, 412583425, 412583426, 412583427, 412583428, 412583421], "tags": {"amenity": "bank", "building": "yes", "height": "25", "name": "Northeast Community Federal Credit Union, Tenderloin Branch"}}, {"type": "way", "id": 35176497, "nodes": [412587407, 412587410, 412588519, 412587414, 412587025, 412587023, 412587407], "tags": {"addr:housenumber": "1256;1266", "addr:street": "Market Street", "amenity": "bank", "atm": "yes", "brand": "Wells Fargo", "brand:wikidata": "Q744149", "brand:wikipedia": "en:Wells Fargo", "building": "commercial", "height": "10", "name": "Wells Fargo", "operator": "Wells Fargo"}}, {"type": "way", "id": 112595126, "nodes": [1279407604, 2795400057, 2795400054, 2795400052, 2795400053, 1279407559, 2795400058, 2795400061, 2795400064, 2795400067, 1279407602, 2795401732, 1279407593, 1279407604], "tags": {"addr:housenumber": "600", "addr:street": "Clement Street", "amenity": "bank", "brand": "Bank of America", "brand:wikidata": "Q487907", "brand:wikipedia": "en:Bank of America", "building": "yes", "height": "7", "name": "Bank of America", "opening_hours": "Mo-Th 09:00-17:00; Fr 09:00-17:00; Sa 10:00-14:00", "source": "Bing"}}, {"type": "way", "id": 112595127, "nodes": [1279407581, 1279407599, 1279407585, 2795165165, 2795165164, 1279407598, 2795165279, 2795165282, 2795165307, 2795165317, 1279407581], "tags": {"addr:city": "San Francisco", "addr:housenumber": "801", "addr:postcode": "94118", "addr:state": "CA", "addr:street": "Clement Street", "amenity": "bank", "brand": "Bank of the West", "brand:wikidata": "Q2881919", "brand:wikipedia": "en:Bank of the West", "building": "yes", "height": "10", "name": "Bank of the West", "source": "Bing"}}, {"type": "way", "id": 148174269, "nodes": [1612762258, 1612762259, 1612762244, 1612762243, 1612762258], "tags": {"addr:city": "San Francisco", "addr:country": "US", "addr:housenumber": "800", "addr:postcode": "94122", "addr:state": "CA", "addr:street": "Irving Street", "amenity": "bank", "atm": "yes", "brand": "Bank of America", "brand:wikidata": "Q487907", "brand:wikipedia": "en:Bank of America", "building": "yes", "drive_through": "no", "height": "5", "name": "Bank of America", "source": "bing"}}, {"type": "way", "id": 165372053, "nodes": [1769223599, 2796941366, 1769223601, 1769223555, 2796941318, 1769223554, 1769223557, 1769223556, 1769223585, 1769223599], "tags": {"addr:city": "San Francisco", "addr:housenumber": "301", "addr:postcode": "94118", "addr:street": "Clement Street", "amenity": "bank", "brand": "Chase", "brand:wikidata": "Q524629", "brand:wikipedia": "en:Chase Bank", "building": "yes", "height": "11", "name": "Chase", "old_name": "Washington Mutual", "source": "Bing", "wheelchair": "yes"}}, {"type": "way", "id": 170845456, "nodes": [1819811658, 1819811657, 1819811649, 1819811643, 1819811644, 1819811652, 1819811658], "tags": {"addr:housenumber": "317", "addr:street": "6th Avenue", "amenity": "bank", "building": "yes", "height": "8", "name": "Bank of the Orient", "name:en": "Bank of the Orient", "opening_hours": "Mo-Fr 10:00-18:00", "source": "Bing"}}, {"type": "way", "id": 197117556, "nodes": [2074158440, 2074158484, 2074158514, 2910081671, 2910081664, 2910081663, 2910081670, 2074158489, 2910081669, 2910081696, 2074158440], "tags": {"addr:housenumber": "3701", "addr:street": "Balboa Street", "amenity": "bank", "building": "yes", "depository": "yes", "height": "7", "name": "Bank of America", "operator": "Bank of America", "outside_atm": "2", "outside_atm_operator": "Bank of America", "source": "survey"}}, {"type": "way", "id": 213593038, "nodes": [2232657036, 2232657030, 2232657032, 2232657035, 2232657029, 2232657033, 2232657031, 2232841899, 2232657036], "tags": {"addr:city": "San Francisco", "addr:country": "US", "addr:housenumber": "98", "addr:postcode": "94127", "addr:state": "CA", "addr:street": "West Portal Avenue", "amenity": "bank", "atm": "yes", "brand": "Chase", "brand:wikidata": "Q524629", "brand:wikipedia": "en:Chase Bank", "building": "yes", "height": "9", "name": "Chase"}}, {"type": "way", "id": 215472861, "nodes": [2249187395, 2249214365, 2249214362, 3079509210, 2249187311, 2249187348, 2249187392, 2249187372, 2249187308, 2249187320, 2249187366, 2249187380, 2249187378, 2249187399, 2249187395], "tags": {"addr:city": "San Francisco", "addr:country": "US", "addr:housenumber": "288", "addr:postcode": "94127", "addr:state": "CA", "addr:street": "West Portal Avenue", "amenity": "bank", "brand": "Bank of America", "brand:wikidata": "Q487907", "brand:wikipedia": "en:Bank of America", "building": "yes", "height": "6", "name": "Bank of America"}}, {"type": "way", "id": 215472864, "nodes": [2249187318, 2249187353, 2249187377, 2249187328, 2249187341, 2249187335, 2249187381, 2249187337, 2249187312, 2249187349, 2249187401, 2249187334, 2249187391, 2249187329, 2249187361, 2249187309, 2249187370, 2249187387, 2249187396, 2249187343, 2249187346, 2249187365, 2249187318], "tags": {"addr:city": "San Francisco", "addr:country": "US", "addr:housenumber": "279", "addr:postcode": "94127", "addr:state": "CA", "addr:street": "West Portal Avenue", "amenity": "bank", "building": "yes", "height": "4", "name": "First Republic Bank"}}, {"type": "way", "id": 216409860, "nodes": [2249187367, 2257608519, 2257608494, 2257608498, 2257608464, 2249187351, 2249187367], "tags": {"addr:city": "San Francisco", "addr:country": "US", "addr:housenumber": "145", "addr:postcode": "94127", "addr:state": "CA", "addr:street": "West Portal Avenue", "amenity": "bank", "atm": "yes", "brand": "Wells Fargo", "brand:wikidata": "Q744149", "brand:wikipedia": "en:Wells Fargo", "building": "yes", "height": "5", "name": "Wells Fargo", "opening_hours": "Mo-Sa 09:00-18:00", "operator": "Wells Fargo Bank"}}, {"type": "way", "id": 222862966, "nodes": [2318098516, 2318098453, 2318098556, 2318098510, 2318098410, 2318098516], "tags": {"addr:housenumber": "443", "addr:postcode": "94114", "addr:street": "Castro Street", "amenity": "bank", "brand": "U.S. Bank", "brand:wikidata": "Q739084", "brand:wikipedia": "en:U.S. Bancorp", "building": "yes", "height": "7", "name": "U.S. Bank"}}, {"type": "way", "id": 222862969, "nodes": [2318098520, 2732278006, 2732278001, 2318098524, 2318098430, 2318098414, 2318098426, 2732277993, 2732277996, 2318098577, 2318098520], "tags": {"addr:housenumber": "444", "addr:postcode": "94114", "addr:street": "Castro Street", "amenity": "bank", "brand": "Citibank", "brand:wikidata": "Q857063", "brand:wikipedia": "en:Citibank", "building": "yes", "height": "9", "name": "Citibank", "phone": "+1 (800) 627-3999", "short_name": "Citi", "website": "http://citibank.com"}}, {"type": "way", "id": 222937847, "nodes": [2321144658, 2321299130, 2321299179, 2321299143, 2321299153, 2321299167, 2321299161, 2321144648, 2318749890, 2318749888, 2318749839, 2318749863, 2318749895, 2318749844, 2318749897, 2321144658], "tags": {"addr:housenumber": "501", "addr:postcode": "94114", "addr:street": "Castro Street", "amenity": "bank", "brand": "Bank of America", "brand:wikidata": "Q487907", "brand:wikipedia": "en:Bank of America", "building": "yes", "name": "Bank of America", "phone": "+1 (800) 432-1000", "website": "https://www.bankofamerica.com/"}}, {"type": "way", "id": 256436213, "nodes": [2620996916, 2620996917, 2620996913, 2620996912, 2620996916], "tags": {"addr:housenumber": "3060;3068", "addr:street": "16th Street", "amenity": "bank", "building": "yes", "height": "14", "name": "Mission National Bank"}}, {"type": "way", "id": 256710409, "nodes": [2623471883, 3853404469, 2623471833, 2623471818, 2623471870, 2623471883], "tags": {"addr:housenumber": "2122;2120", "addr:postcode": "94114", "addr:street": "Market Street", "amenity": "bank", "atm": "yes", "building": "retail", "building:levels": "3", "building:material": "masonry;wood", "height": "11", "name": "Sterling Bank and Trust"}}, {"type": "way", "id": 256730074, "nodes": [2623632047, 2623632048, 2665226406, 2623632043, 2623632041, 2623632040, 2623632047], "tags": {"addr:city": "San Francisco", "addr:street": "Stockton Street", "amenity": "bank", "brand": "Bank of America", "brand:wikidata": "Q487907", "brand:wikipedia": "en:Bank of America", "building": "yes", "depository": "yes", "height": "57", "name": "Bank of America", "operator": "Bank of America", "outside_atm": "2", "source": "survey"}}, {"type": "way", "id": 256997180, "nodes": [2626139469, 2626139470, 8220825976, 2626139471, 2626139472, 2626139469], "tags": {"addr:city": "San Francisco", "addr:country": "US", "addr:housenumber": "401", "addr:postcode": "94117", "addr:state": "CA", "addr:street": "Divisadero Street", "amenity": "bank", "brand": "Chase", "brand:wikidata": "Q524629", "brand:wikipedia": "en:Chase Bank", "building": "yes", "height": "13", "name": "Chase", "operator": "Chase Bank"}}, {"type": "way", "id": 260286442, "nodes": [2657598260, 2657598257, 2657598340, 2657598353, 2657598260], "tags": {"addr:housenumber": "200;210", "addr:street": "California Street", "amenity": "bank", "building": "yes", "building:levels": "5"}}, {"type": "way", "id": 260288451, "nodes": [2657634777, 2657634647, 2657634640, 2657634766, 2657634768, 2657634777], "tags": {"amenity": "bank", "brand": "City National Bank", "brand:wikidata": "Q5123314", "brand:wikipedia": "en:City National Bank (California)", "building": "yes", "building:levels": "5", "name": "City National Bank"}}, {"type": "way", "id": 260353676, "nodes": [2658217840, 2658217846, 2658217845, 2658217850, 2658217852, 2658217856, 2658217860, 2658217857, 2658217859, 2658217853, 2658217854, 2658217849, 2658217848, 2658217842, 2658217840], "tags": {"addr:housenumber": "3027", "addr:street": "16th Street", "amenity": "bank", "brand": "Wells Fargo", "brand:wikidata": "Q744149", "brand:wikipedia": "en:Wells Fargo", "building": "yes", "height": "6", "name": "Wells Fargo", "wheelchair": "yes"}}, {"type": "way", "id": 261145414, "nodes": [2667722691, 2667722806, 2667722935, 2667723001, 2667723010, 2667722724, 2667722691], "tags": {"addr:housenumber": "2112", "addr:postcode": "94114", "addr:street": "15th", "amenity": "bank", "atm": "yes", "brand": "Chase", "brand:wikidata": "Q524629", "brand:wikipedia": "en:Chase Bank", "building": "yes", "building:levels": "1", "building:material": "masonry;wood", "height": "6", "name": "Chase"}}, {"type": "way", "id": 263219744, "nodes": [2688420917, 2688420895, 2688420894, 2688420990, 4615943014, 2688421003, 2688420917], "tags": {"addr:housenumber": "2100", "addr:street": "Fillmore Street", "amenity": "bank", "brand": "Wells Fargo", "brand:wikidata": "Q744149", "brand:wikipedia": "en:Wells Fargo", "building": "yes", "height": "7", "name": "Wells Fargo"}}, {"type": "way", "id": 263824675, "nodes": [2694737837, 2694737839, 2694737838, 2694737826, 2694737824, 2694737821, 2694737837], "tags": {"addr:housenumber": "1275", "addr:street": "Fell Street", "amenity": "bank", "atm": "yes", "brand": "Bank of America", "brand:wikidata": "Q487907", "brand:wikipedia": "en:Bank of America", "building": "yes", "height": "9", "level": "0", "name": "Bank of America"}}, {"type": "way", "id": 267048367, "nodes": [2725297739, 2725297743, 2725297755, 2725297759, 2725297780, 2725297786, 2725297789, 2725297791, 2725297784, 2725297740, 2725297739], "tags": {"addr:city": "San Francisco", "addr:country": "US", "addr:housenumber": "701", "addr:postcode": "94122", "addr:state": "CA", "addr:street": "Irving Street", "amenity": "bank", "atm": "yes", "brand": "Citibank", "brand:wikidata": "Q857063", "brand:wikipedia": "en:Citibank", "building": "yes", "height": "10", "name": "Citibank", "operator": "Citi", "short_name": "Citi"}}, {"type": "way", "id": 267048373, "nodes": [2725297744, 2725297737, 2725297736, 2725297731, 2725297729, 2725297770, 2725297771, 2725297756, 2725297752, 2725297744], "tags": {"addr:city": "San Francisco", "addr:country": "US", "addr:housenumber": "725", "addr:postcode": "94122", "addr:state": "CA", "addr:street": "Irving Street", "amenity": "bank", "atm": "yes", "brand": "Wells Fargo", "brand:wikidata": "Q744149", "brand:wikipedia": "en:Wells Fargo", "building": "yes", "height": "5", "name": "Wells Fargo"}}, {"type": "way", "id": 273331474, "nodes": [2781967119, 2781967115, 2781967145, 2781967147, 2781967119], "tags": {"addr:housenumber": "3533", "addr:street": "California Street", "amenity": "bank", "atm": "yes", "building": "yes", "name": "First  Republic Bank"}}, {"type": "way", "id": 273331487, "nodes": [2781967173, 2781967139, 2781967135, 2781967169, 2781967171, 2781967173], "tags": {"addr:housenumber": "3431", "addr:street": "California Street", "amenity": "bank", "atm": "yes", "building": "yes", "height": "6", "name": "Wells Fargo"}}, {"type": "way", "id": 273331512, "nodes": [2781967129, 2781967128, 2781967159, 2781967160, 2781967164, 2781967162, 2781967129], "tags": {"addr:housenumber": "3473", "addr:street": "California Street", "amenity": "bank", "atm": "yes", "building": "yes", "height": "9", "name": "Union Bank"}}, {"type": "way", "id": 273575865, "nodes": [2784101039, 2784101049, 2784101036, 2784101004, 2784101016, 2784101020, 2784101031, 2784101039], "tags": {"amenity": "bank", "brand": "Bank of America", "brand:wikidata": "Q487907", "brand:wikipedia": "en:Bank of America", "building": "yes", "name": "Bank of America"}}, {"type": "way", "id": 276546374, "nodes": [2811432389, 2811432396, 2811432399, 2811432400, 2811433401, 2811433403, 2811432392, 2811432389], "tags": {"addr:city": "San Francisco", "addr:country": "US", "addr:housenumber": "2000", "addr:postcode": "94122", "addr:state": "CA", "addr:street": "Irving Street", "amenity": "bank", "atm": "yes", "brand": "Citibank", "brand:wikidata": "Q857063", "brand:wikipedia": "en:Citibank", "building": "yes", "height": "7", "name": "Citibank", "operator": "Citibank", "short_name": "Citi"}}, {"type": "way", "id": 276561993, "nodes": [2811661601, 2811661613, 2811661614, 2811661602, 2811661601], "tags": {"addr:city": "San Francisco", "addr:housenumber": "1809", "addr:postcode": "94122", "addr:state": "CA", "addr:street": "Irving Street", "amenity": "bank", "atm": "yes", "building": "yes", "height": "8", "name": "First Republic Bank"}}, {"type": "way", "id": 276587661, "nodes": [2811867862, 2811867863, 7152720383, 2811867838, 2811867836, 2811867862], "tags": {"addr:city": "San Francisco", "addr:housenumber": "1945", "addr:postcode": "94122", "addr:state": "CA", "addr:street": "Irving Street", "amenity": "bank", "atm": "yes", "brand": "Bank of America", "brand:wikidata": "Q487907", "brand:wikipedia": "en:Bank of America", "building": "yes", "height": "6", "name": "Bank of America"}}, {"type": "way", "id": 276641712, "nodes": [2812316138, 2812316107, 2812316106, 2812316102, 2812316105, 2812316101, 2812307195, 2812307191, 2812307200, 2812307199, 2812316113, 2812316135, 2812316138], "tags": {"addr:city": "San Francisco", "addr:country": "US", "addr:housenumber": "2300", "addr:postcode": "94122", "addr:state": "CA", "addr:street": "Irving Street", "amenity": "bank", "atm": "yes", "brand": "Wells Fargo", "brand:wikidata": "Q744149", "brand:wikipedia": "en:Wells Fargo", "building": "yes", "name": "Wells Fargo"}}, {"type": "way", "id": 276652801, "nodes": [2812406169, 2812406311, 2812406315, 2812406325, 2812406327, 2812406318, 2812406319, 2812406179, 2812406163, 2812406162, 2812406169], "tags": {"addr:city": "San Francisco", "addr:housenumber": "2323", "addr:postcode": "94122", "addr:state": "CA", "addr:street": "Irving Street", "amenity": "bank", "atm": "yes", "branch": "Private Client", "brand": "Chase", "brand:wikidata": "Q524629", "brand:wikipedia": "en:Chase Bank", "building": "yes", "height": "5", "name": "Chase"}}, {"type": "way", "id": 278887485, "nodes": [2831769148, 2831769154, 2831769157, 2831769155, 2831769149, 2831769148], "tags": {"addr:city": "San Francisco", "addr:country": "US", "addr:housenumber": "2400", "addr:postcode": "94116", "addr:state": "CA", "addr:street": "19th Avenue", "amenity": "bank", "atm": "yes", "brand": "Citibank", "brand:wikidata": "Q857063", "brand:wikipedia": "en:Citibank", "building": "yes", "height": "4", "name": "Citibank", "short_name": "Citi"}}, {"type": "way", "id": 283457600, "nodes": [2873190458, 2873190445, 2873190444, 2873178497, 2873190443, 2873190442, 2873190441, 2873190440, 2873190439, 2873190434, 2873190431, 2873190438, 2873190437, 2873190436, 2873190435, 2873190433, 2873190432, 2873190446, 2873190447, 2873190449, 2873190448, 2873190454, 2873190458], "tags": {"addr:city": "San Francisco", "addr:housenumber": "926", "addr:street": "Taraval Street", "amenity": "bank", "atm": "yes", "brand": "Chase", "brand:wikidata": "Q524629", "brand:wikipedia": "en:Chase Bank", "building": "yes", "height": "5", "name": "Chase"}}, {"type": "way", "id": 283469478, "nodes": [2873291782, 2873291785, 2873291765, 2873291766, 2873291744, 2873291743, 2873291739, 2873291741, 2873291730, 2873291726, 2873291734, 2873291733, 2873291724, 2873291723, 2873291782], "tags": {"amenity": "bank", "building": "yes", "height": "6", "name": "First Bank", "website": "https://www.firstbanks.com/"}}, {"type": "way", "id": 283656493, "nodes": [2874974117, 2874974112, 2874974122, 2874974121, 2874974183, 2874974186, 2874974206, 2874974207, 2874974117], "tags": {"addr:city": "San Francisco", "addr:country": "US", "addr:housenumber": "1811", "addr:postcode": "94122", "addr:state": "CA", "addr:street": "19th Avenue", "amenity": "bank", "atm": "yes", "brand": "Chase", "brand:wikidata": "Q524629", "brand:wikipedia": "en:Chase Bank", "building": "yes", "height": "7", "name": "Chase"}}, {"type": "way", "id": 288498280, "nodes": [2920561328, 2920561329, 2920561330, 2920561285, 2920561284, 2920561283, 2920561276, 2920561280, 2920561279, 2920561323, 2920561324, 2920561327, 2920561332, 2920561328], "tags": {"addr:housenumber": "2750", "addr:street": "Van Ness Avenue", "amenity": "bank", "atm": "yes", "brand": "Chase", "brand:wikidata": "Q524629", "brand:wikipedia": "en:Chase Bank", "building": "yes", "height": "12", "name": "Chase", "operator": "Chase", "outside_atm": "yes", "outside_atm_capacity": "1", "outside_atm_operator": "Chase"}}, {"type": "way", "id": 288511103, "nodes": [2920675016, 2920675015, 2920675018, 2920675019, 2920675021, 2920675020, 2920675016], "tags": {"addr:housenumber": "345", "addr:street": "Montgomery Street", "amenity": "bank", "atm": "yes", "brand": "Bank of America", "brand:wikidata": "Q487907", "brand:wikipedia": "en:Bank of America", "building": "yes", "height": "30 m", "name": "Bank of America", "name:kn": "\u0cac\u0ccd\u0caf\u0cbe\u0c82\u0c95\u0ccd \u0c86\u0cab\u0ccd \u0c85\u0cae\u0cc7\u0cb0\u0cbf\u0c95", "wheelchair": "yes"}}, {"type": "way", "id": 350686500, "nodes": [3564511107, 3564511110, 3564511111, 3564511112, 3564511108, 3564511107], "tags": {"addr:city": "San Francisco", "addr:housenumber": "1007", "addr:postcode": "94116", "addr:state": "CA", "addr:street": "Taraval Street", "amenity": "bank", "brand": "Bank of America", "brand:wikidata": "Q487907", "brand:wikipedia": "en:Bank of America", "building": "yes", "name": "Bank of America", "name:ar": "\u0628\u0646\u0643 \u0623\u0648\u0641 \u0623\u0645\u0631\u064a\u0643\u0627", "name:fa": "\u0628\u0646\u06a9 \u0622\u0648 \u0627\u0645\u0631\u06cc\u06a9\u0627", "name:he": "\u05d1\u05e0\u05e7 \u05d0\u05d5\u05e3 \u05d0\u05de\u05e8\u05d9\u05e7\u05d4", "name:ja": "\u30d0\u30f3\u30af\u30fb\u30aa\u30d6\u30fb\u30a2\u30e1\u30ea\u30ab", "name:ko": "\ubc45\ud06c \uc624\ube0c \uc544\uba54\ub9ac\uce74", "name:pa": "\u0a2c\u0a48\u0a02\u0a15 \u0a06\u0a2b\u0a3c \u0a05\u0a2e\u0a30\u0a40\u0a15\u0a3e", "name:zh": "\u7f8e\u570b\u9280\u884c", "website": "https://www.bankofamerica.com/"}}, {"type": "way", "id": 424466581, "nodes": [4238705725, 2924776175, 2924776239, 2924776233, 2924776231, 4238705729, 4238705725], "tags": {"addr:city": "San Francisco", "addr:housenumber": "2656", "addr:postcode": "94127", "addr:state": "CA", "addr:street": "Ocean Avenue", "amenity": "bank", "atm": "yes", "brand": "U.S. Bank", "brand:wikidata": "Q739084", "brand:wikipedia": "en:U.S. Bancorp", "building": "yes", "height": "5", "name": "U.S. Bank"}}, {"type": "way", "id": 436484074, "nodes": [4343738985, 4343738966, 4343739289, 4343738988, 366728457, 366728458, 366728459, 366728460, 4343738985], "tags": {"amenity": "bank", "brand": "Wells Fargo", "brand:wikidata": "Q744149", "brand:wikipedia": "en:Wells Fargo", "building": "yes", "height": "15 m", "name": "Wells Fargo", "operator": "Wells Fargo", "outside_atm": "yes", "outside_atm_capacity": "4", "outside_atm_operator": "Wells Fargo", "wheelchair": "yes"}}, {"type": "way", "id": 978874287, "nodes": [2625053429, 2625053423, 2625053419, 2625053422, 2625053424, 2625053429], "tags": {"addr:housenumber": "802", "addr:street": "Bryant Street", "amenity": "bank", "building": "yes", "name": "SF Police Credit Union", "website": "https://www.sfpcu.org/about-us/branches-atms-hours"}}]}