{"version": 0.6, "generator": "Overpass API 0.7.56.9 76e5016d", "osm3s": {"timestamp_osm_base": "2021-10-16T20:14:29Z", "copyright": "The data included in this document is from www.openstreetmap.org. The data is made available under ODbL."}, "elements": [{"type": "node", "id": 470104363, "lat": -23.4982609, "lon": -46.8544976, "tags": {"amenity": "bank", "name": "Itau", "operator": "Itau"}}, {"type": "node", "id": 1719506448, "lat": -23.4978256, "lon": -46.8551552, "tags": {"amenity": "bank", "name": "Santander"}}, {"type": "node", "id": 2428026127, "lat": -23.4839897, "lon": -46.8594845, "tags": {"amenity": "bank", "name": "ITAU"}}, {"type": "node", "id": 2684571404, "lat": -23.5923585, "lon": -46.8364911, "tags": {"addr:city": "Cotia", "addr:street": "Rua Ushima Kira", "amenity": "bank", "atm": "yes", "brand": "Ita\u00fa Unibanco", "brand:wikidata": "Q1424293", "brand:wikipedia": "pt:Ita\u00fa Unibanco", "name": "Ita\u00fa"}}, {"type": "node", "id": 3184429536, "lat": -23.5119961, "lon": -46.8762235}, {"type": "node", "id": 3184429537, "lat": -23.5119942, "lon": -46.8761131}, {"type": "node", "id": 3184429538, "lat": -23.511815, "lon": -46.8761168}, {"type": "node", "id": 3184429539, "lat": -23.511817, "lon": -46.8762272}, {"type": "node", "id": 3186267296, "lat": -23.5114276, "lon": -46.8762397}, {"type": "node", "id": 3186267297, "lat": -23.5114252, "lon": -46.8761327}, {"type": "node", "id": 3186267298, "lat": -23.511665, "lon": -46.8761294}, {"type": "node", "id": 3186267299, "lat": -23.5116673, "lon": -46.8762459}, {"type": "node", "id": 3186272611, "lat": -23.5114573, "lon": -46.8777994}, {"type": "node", "id": 3186272612, "lat": -23.5115963, "lon": -46.8778013}, {"type": "node", "id": 3186272613, "lat": -23.5116062, "lon": -46.8778888}, {"type": "node", "id": 3186272614, "lat": -23.5115076, "lon": -46.87785}, {"type": "node", "id": 4682008851, "lat": -23.4633769, "lon": -46.8728075}, {"type": "node", "id": 4682008852, "lat": -23.463431, "lon": -46.87266}, {"type": "node", "id": 4682008853, "lat": -23.4636278, "lon": -46.8727538}, {"type": "node", "id": 4682008854, "lat": -23.4635786, "lon": -46.8729041}, {"type": "node", "id": 4953448821, "lat": -23.5497243, "lon": -46.9398503, "tags": {"addr:housenumber": "200", "addr:street": "Rodovia Engenheiro Ren\u00ea Benedito Silva", "amenity": "bank", "name": "Banco 24 Horas - Itapevi Center", "name:pt": "Banco 24 Horas - Itapevi Center"}}, {"type": "node", "id": 5242096031, "lat": -23.4957534, "lon": -46.9654143, "tags": {"amenity": "bank", "brand": "Banco Santander", "brand:en": "Santander Bank", "brand:es": "Banco Santander", "brand:wikidata": "Q6496310", "brand:wikipedia": "es:Banco Santander", "name": "Banco Santander", "name:en": "Santander Bank", "name:es": "Banco Santander", "official_name": "Santander Group"}}, {"type": "node", "id": 5242096034, "lat": -23.4898015, "lon": -46.9549792, "tags": {"amenity": "bank", "brand": "Bradesco", "brand:wikidata": "Q806181", "brand:wikipedia": "en:Banco Bradesco", "name": "Bradesco"}}, {"type": "node", "id": 5242096035, "lat": -23.4904011, "lon": -46.9549792, "tags": {"amenity": "bank", "name": "Banco Ita\u00fa"}}, {"type": "node", "id": 5538402211, "lat": -23.5115077, "lon": -46.8778935}, {"type": "node", "id": 5538402212, "lat": -23.5114643, "lon": -46.8778371}, {"type": "node", "id": 6030845342, "lat": -23.503654, "lon": -46.8482249}, {"type": "node", "id": 6030845343, "lat": -23.5036932, "lon": -46.8482274}, {"type": "node", "id": 6030845344, "lat": -23.5037001, "lon": -46.8480986}, {"type": "node", "id": 6030845345, "lat": -23.5036576, "lon": -46.8480959}, {"type": "node", "id": 6030845346, "lat": -23.5036616, "lon": -46.8480199}, {"type": "node", "id": 6030845347, "lat": -23.5035672, "lon": -46.8480139}, {"type": "node", "id": 6030845363, "lat": -23.5035535, "lon": -46.8482685}, {"type": "node", "id": 6030845364, "lat": -23.5036513, "lon": -46.8482747}, {"type": "node", "id": 6060994041, "lat": -23.4975939, "lon": -46.8480566}, {"type": "node", "id": 6060994042, "lat": -23.497889, "lon": -46.8480313}, {"type": "node", "id": 6060994043, "lat": -23.4978689, "lon": -46.8477874}, {"type": "node", "id": 6060994044, "lat": -23.4976703, "lon": -46.8478068}, {"type": "node", "id": 6060994045, "lat": -23.4976744, "lon": -46.8478566}, {"type": "node", "id": 6060994046, "lat": -23.4975797, "lon": -46.8478672}, {"type": "node", "id": 6060994051, "lat": -23.4971121, "lon": -46.848995, "tags": {"amenity": "bank", "name": "Santander"}}, {"type": "node", "id": 6060994076, "lat": -23.4954731, "lon": -46.848398}, {"type": "node", "id": 6060994077, "lat": -23.4957386, "lon": -46.848359}, {"type": "node", "id": 6060994078, "lat": -23.4956961, "lon": -46.8480144}, {"type": "node", "id": 6060994079, "lat": -23.4954305, "lon": -46.8480533}, {"type": "node", "id": 6202472996, "lat": -23.5495328, "lon": -46.9399999, "tags": {"addr:street": "Rodovia Engenheiro Ren\u00ea Benedito Silva", "amenity": "bank", "atm": "yes", "brand": "Bradesco", "brand:wikidata": "Q806181", "brand:wikipedia": "en:Banco Bradesco", "name": "Bradesco"}}, {"type": "node", "id": 6338846898, "lat": -23.493207, "lon": -46.8498137}, {"type": "node", "id": 6338846899, "lat": -23.4931946, "lon": -46.8497285}, {"type": "node", "id": 6338846900, "lat": -23.4932107, "lon": -46.8497153}, {"type": "node", "id": 6338846901, "lat": -23.493176, "lon": -46.8494753}, {"type": "node", "id": 6338846902, "lat": -23.4933281, "lon": -46.8494491}, {"type": "node", "id": 6338846903, "lat": -23.4933778, "lon": -46.8497921}, {"type": "node", "id": 6338846904, "lat": -23.4933601, "lon": -46.8497952}, {"type": "node", "id": 6338846905, "lat": -23.493365, "lon": -46.8498287}, {"type": "node", "id": 6338846906, "lat": -23.4932427, "lon": -46.8498499}, {"type": "node", "id": 6338846907, "lat": -23.4932366, "lon": -46.8498086}, {"type": "node", "id": 6564105082, "lat": -23.5475366, "lon": -46.9353574}, {"type": "node", "id": 6564105083, "lat": -23.5474039, "lon": -46.9355277}, {"type": "node", "id": 6564105084, "lat": -23.5472361, "lon": -46.9353894}, {"type": "node", "id": 6564105085, "lat": -23.5473747, "lon": -46.9352127}, {"type": "node", "id": 6564105094, "lat": -23.5475701, "lon": -46.9360015}, {"type": "node", "id": 6564105095, "lat": -23.5475144, "lon": -46.9359503}, {"type": "node", "id": 6564105096, "lat": -23.5475285, "lon": -46.9359301}, {"type": "node", "id": 6564105097, "lat": -23.5474171, "lon": -46.9358367}, {"type": "node", "id": 6564105098, "lat": -23.5472882, "lon": -46.9360426}, {"type": "node", "id": 6564105099, "lat": -23.5473931, "lon": -46.9361039}, {"type": "node", "id": 6564105100, "lat": -23.547418, "lon": -46.9360728}, {"type": "node", "id": 6564105101, "lat": -23.5474806, "lon": -46.936125}, {"type": "node", "id": 6564105102, "lat": -23.5451543, "lon": -46.9331733}, {"type": "node", "id": 6564105103, "lat": -23.5452361, "lon": -46.9333169}, {"type": "node", "id": 6564105104, "lat": -23.5451623, "lon": -46.9333985}, {"type": "node", "id": 6564105105, "lat": -23.5450679, "lon": -46.9332822}, {"type": "node", "id": 6564105106, "lat": -23.5428753, "lon": -46.9360211}, {"type": "node", "id": 6564105107, "lat": -23.5427818, "lon": -46.9360802}, {"type": "node", "id": 6564105108, "lat": -23.5426751, "lon": -46.9359083}, {"type": "node", "id": 6564105109, "lat": -23.5427621, "lon": -46.9358332}, {"type": "node", "id": 6564105113, "lat": -23.5482521, "lon": -46.936232}, {"type": "node", "id": 6564105114, "lat": -23.5483193, "lon": -46.9361607}, {"type": "node", "id": 6564105115, "lat": -23.5482035, "lon": -46.9360061}, {"type": "node", "id": 6564105116, "lat": -23.5481401, "lon": -46.9360964}, {"type": "node", "id": 6904403584, "lat": -23.5451999, "lon": -46.9332497}, {"type": "node", "id": 7377356855, "lat": -23.5927337, "lon": -46.8376284, "tags": {"addr:street": "Rua Ushima Kira", "amenity": "bank", "atm": "yes", "brand": "Bradesco", "brand:wikidata": "Q806181", "brand:wikipedia": "en:Banco Bradesco", "name": "Bradesco"}}, {"type": "node", "id": 8849547001, "lat": -23.5409732, "lon": -46.9381172}, {"type": "node", "id": 8849547002, "lat": -23.5410337, "lon": -46.9382085}, {"type": "node", "id": 8849547003, "lat": -23.5412603, "lon": -46.9380498}, {"type": "node", "id": 8849547004, "lat": -23.5410144, "lon": -46.9376551}, {"type": "node", "id": 8849547005, "lat": -23.5407955, "lon": -46.9378054}, {"type": "node", "id": 8849547006, "lat": -23.5411284, "lon": -46.9378686}, {"type": "node", "id": 8986540629, "lat": -23.5488889, "lon": -46.9363547}, {"type": "node", "id": 8986540631, "lat": -23.5490088, "lon": -46.9361574}, {"type": "node", "id": 8986540632, "lat": -23.5489584, "lon": -46.9364025}, {"type": "node", "id": 8986540633, "lat": -23.5491592, "lon": -46.9363373}, {"type": "node", "id": 8986540634, "lat": -23.5490745, "lon": -46.9364149}, {"type": "node", "id": 8986540635, "lat": -23.5489001, "lon": -46.9362761}, {"type": "way", "id": 312572590, "nodes": [3184429536, 3184429537, 3184429538, 3184429539, 3184429536], "tags": {"addr:city": "Barueri", "addr:housenumber": "112", "addr:postcode": "06401-060", "addr:street": "Rua Dom Pedro II", "addr:suburb": "Centro", "amenity": "bank", "atm": "yes", "brand": "Santander", "brand:wikidata": "Q5835668", "brand:wikipedia": "en:Santander Bank", "building": "yes", "name": "Santander"}}, {"type": "way", "id": 312738196, "nodes": [3186267296, 3186267297, 3186267298, 3186267299, 3186267296], "tags": {"addr:city": "Barueri", "addr:housenumber": "10", "addr:postcode": "06401-020", "addr:street": "Travessa Celid\u00f4nio Guerra", "addr:suburb": "Centro", "amenity": "bank", "atm": "yes", "brand": "Bradesco", "brand:wikidata": "Q806181", "brand:wikipedia": "en:Banco Bradesco", "building": "yes", "name": "Bradesco"}}, {"type": "way", "id": 312740399, "nodes": [3186272611, 3186272612, 3186272613, 5538402211, 3186272614, 5538402212, 3186272611], "tags": {"addr:street": "Avenida Vinte e Seis de Mar\u00e7o", "amenity": "bank", "atm": "yes", "brand": "Ita\u00fa", "brand:wikidata": "Q2423252", "brand:wikipedia": "en:Ita\u00fa Corpbanca", "building": "yes", "name": "Ita\u00fa"}}, {"type": "way", "id": 474195991, "nodes": [4682008851, 4682008852, 4682008853, 4682008854, 4682008851], "tags": {"amenity": "bank", "building": "yes", "name": "Banco Ita\u00fa"}}, {"type": "way", "id": 640154377, "nodes": [6030845363, 6030845364, 6030845342, 6030845343, 6030845344, 6030845345, 6030845346, 6030845347, 6030845363], "tags": {"addr:city": "Barueri", "addr:housenumber": "161", "addr:postcode": "06454-000", "addr:street": "Alameda Rio Negro", "addr:suburb": "Alphaville", "amenity": "bank", "building": "yes", "drive_through": "no", "name": "Banco Daycoval"}}, {"type": "way", "id": 644458240, "nodes": [6060994041, 6060994042, 6060994043, 6060994044, 6060994045, 6060994046, 6060994041], "tags": {"amenity": "bank", "building": "yes", "name": "Bradesco"}}, {"type": "way", "id": 644458243, "nodes": [6060994076, 6060994077, 6060994078, 6060994079, 6060994076], "tags": {"amenity": "bank", "building": "yes", "name": "Ita\u00fa"}}, {"type": "way", "id": 676940699, "nodes": [6338846898, 6338846899, 6338846900, 6338846901, 6338846902, 6338846903, 6338846904, 6338846905, 6338846906, 6338846907, 6338846898], "tags": {"addr:street": "Alameda Rio Negro", "amenity": "bank", "brand": "Ita\u00fa", "brand:wikidata": "Q2423252", "brand:wikipedia": "en:Ita\u00fa Corpbanca", "building": "yes", "drive_through": "no", "name": "Ita\u00fa Personnalite"}}, {"type": "way", "id": 699010701, "nodes": [6564105082, 6564105083, 6564105084, 6564105085, 6564105082], "tags": {"amenity": "bank", "brand": "Santander", "brand:wikidata": "Q5835668", "brand:wikipedia": "en:Santander Bank", "building": "yes", "name": "Santander"}}, {"type": "way", "id": 699010704, "nodes": [6564105094, 6564105095, 6564105096, 6564105097, 6564105098, 6564105099, 6564105100, 6564105101, 6564105094], "tags": {"addr:street": "Avenida Rubem Caramez", "amenity": "bank", "brand": "Ita\u00fa Unibanco", "brand:wikidata": "Q1424293", "brand:wikipedia": "pt:Ita\u00fa Unibanco", "building": "yes", "name": "Ita\u00fa"}}, {"type": "way", "id": 699010705, "nodes": [6564105102, 6904403584, 6564105103, 6564105104, 6564105105, 6564105102], "tags": {"addr:street": "Avenida Ces\u00e1rio de Abreu", "amenity": "bank", "brand": "Bradesco", "brand:wikidata": "Q806181", "brand:wikipedia": "en:Banco Bradesco", "building": "yes", "name": "Bradesco"}}, {"type": "way", "id": 699010706, "nodes": [6564105106, 6564105107, 6564105108, 6564105109, 6564105106], "tags": {"amenity": "bank", "brand": "Bradesco", "brand:wikidata": "Q806181", "brand:wikipedia": "en:Banco Bradesco", "building": "yes", "name": "Bradesco"}}, {"type": "way", "id": 699010707, "nodes": [6564105113, 6564105114, 6564105115, 6564105116, 6564105113], "tags": {"amenity": "bank", "brand": "Bradesco", "brand:wikidata": "Q806181", "brand:wikipedia": "en:Banco Bradesco", "building": "yes", "name": "Bradesco"}}, {"type": "way", "id": 956191177, "nodes": [8849547001, 8849547002, 8849547003, 8849547006, 8849547004, 8849547005, 8849547001], "tags": {"addr:city": "Itapevi", "addr:housenumber": "470", "addr:postcode": "06694-000", "addr:street": "Avenida Presidente Get\u00falio Vargas", "addr:suburb": "Vila Nova Itapevi", "amenity": "bank", "atm": "yes", "brand": "Caixa Econ\u00f4mica Federal", "brand:wikidata": "Q835283", "brand:wikipedia": "pt:Caixa Econ\u00f4mica Federal", "building": "yes", "name": "Caixa Econ\u00f4mica Federal", "opening_hours": "Mo-Fr 08:00-16:00", "opening_hours:covid19": "open", "operator": "Caixa", "wheelchair": "limited"}}, {"type": "way", "id": 970995250, "nodes": [8986540629, 8986540635, 8986540631, 8986540633, 8986540634, 8986540632, 8986540629], "tags": {"amenity": "bank", "brand": "Caixa Econ\u00f4mica Federal", "brand:wikidata": "Q835283", "brand:wikipedia": "pt:Caixa Econ\u00f4mica Federal", "building": "yes", "name": "Caixa Econ\u00f4mica Federal"}}]}