{"version": 0.6, "generator": "Overpass API 0.7.57.1 74a55df1", "osm3s": {"timestamp_osm_base": "2021-12-02T13:18:23Z", "copyright": "The data included in this document is from www.openstreetmap.org. The data is made available under ODbL."}, "elements": [{"type": "node", "id": 61675193, "lat": 37.7721282, "lon": -122.4227728, "tags": {"addr:city": "San Francisco", "addr:housenumber": "4", "addr:postcode": "94103", "addr:state": "CA", "addr:street": "Valencia Street", "amenity": "bar", "name": "Martuni's", "outdoor_seating": "no", "phone": "+1-415-241-0205", "smoking": "no"}}, {"type": "node", "id": 61676294, "lat": 37.7696815, "lon": -122.4487116, "tags": {"addr:housenumber": "1601", "addr:postcode": "94117", "addr:street": "Haight Street", "amenity": "bar", "name": "Hobson's Choice", "phone": "+1 415 621 5859", "website": "http://www.hobsonschoice.com/", "wifi": "no"}}, {"type": "node", "id": 61690921, "lat": 37.7969638, "lon": -122.4056426, "tags": {"addr:city": "San Francisco", "addr:housenumber": "155", "addr:street": "Columbus Avenue", "amenity": "bar", "name": "Comstock Saloon"}}, {"type": "node", "id": 317081666, "lat": 37.7862572, "lon": -122.4086732, "tags": {"amenity": "bar", "name": "John Foley's Dueling Piano Bar"}}, {"type": "node", "id": 378440021, "lat": 37.7649632, "lon": -122.4236143, "tags": {"amenity": "bar", "contact:phone": "+1-415-400-4748", "contact:website": "http://www.abvsf.com/", "name": "ABV", "opening_hours": "14:00-02:00"}}, {"type": "node", "id": 418540495, "lat": 37.7867105, "lon": -122.4124969, "tags": {"addr:housenumber": "561", "addr:street": "Geary Street", "amenity": "bar", "name": "Swig", "website": "http://www.swig-bar.com/"}}, {"type": "node", "id": 440104799, "lat": 37.7996982, "lon": -122.4086348, "tags": {"addr:housenumber": "570", "addr:street": "Green Street", "alt_name": "Chubby Noodle popup restaurant", "amenity": "bar", "name": "Amante"}}, {"type": "node", "id": 440106745, "lat": 37.7996982, "lon": -122.4085575, "tags": {"addr:housenumber": "562", "addr:street": "Green Street", "amenity": "bar", "name": "Columbus Cafe"}}, {"type": "node", "id": 479491671, "lat": 37.7882367, "lon": -122.4012873, "tags": {"addr:city": "San Francisco", "addr:housenumber": "39", "addr:postcode": "94105", "addr:state": "CA", "addr:street": "New Montgomery Street", "amenity": "bar", "name": "House of Shields", "opening_hours": "Mo-Fr 14:00-02:00; Sa,Su 15:00-02:00", "outdoor_seating": "no", "phone": "+1 (415) 975-8651", "smoking": "no", "website": "https://www.thehouseofshields.com/"}}, {"type": "node", "id": 529771968, "lat": 37.7706731, "lon": -122.4252744, "tags": {"addr:city": "San Francisco", "addr:housenumber": "1900", "addr:postcode": "94102", "addr:street": "Market Street", "amenity": "bar", "name": "The Orbit Room", "name:en": "The Orbit Room", "phone": "+1-415-932-6655", "website": "http://www.orbitroomsf.com"}}, {"type": "node", "id": 582779493, "lat": 37.7504256, "lon": -122.4203499, "tags": {"amenity": "bar", "name": "Clooney's Pub"}}, {"type": "node", "id": 582781745, "lat": 37.7489951, "lon": -122.4205203, "tags": {"amenity": "bar", "name": "Dovre Club"}}, {"type": "node", "id": 621793529, "lat": 37.7877507, "lon": -122.4118412, "tags": {"addr:city": "San Francisco", "addr:country": "US", "addr:housenumber": "601", "addr:street": "Post Street", "amenity": "bar", "name": "Owl Tree", "opening_hours:signed": "no", "source": "survey"}}, {"type": "node", "id": 621818366, "lat": 37.7881935, "lon": -122.4103007, "tags": {"amenity": "bar", "description": "Inside the JW Marriott", "name": "Level III", "source": "survey"}}, {"type": "node", "id": 632817679, "lat": 37.7386468, "lon": -122.4685481, "tags": {"addr:city": "San Francisco", "addr:country": "US", "addr:housenumber": "230", "addr:postcode": "94127", "addr:state": "CA", "addr:street": "West Portal Avenue", "amenity": "bar", "name": "Que Syrah, A Wine Bar", "shop": "wine"}}, {"type": "node", "id": 725066841, "lat": 37.7866698, "lon": -122.4145242, "tags": {"addr:city": "San Francisco", "addr:country": "US", "addr:housenumber": "688", "addr:state": "CA", "addr:street": "Geary Street", "amenity": "bar", "name": "Rye"}}, {"type": "node", "id": 761906611, "lat": 37.77581, "lon": -122.4088161, "tags": {"addr:city": "San Francisco", "addr:housenumber": "1145", "addr:state": "CA", "addr:street": "Folsom Street", "amenity": "bar", "name": "Raven", "wheelchair": "yes"}}, {"type": "node", "id": 761916174, "lat": 37.7765089, "lon": -122.4083774, "tags": {"addr:city": "San Francisco", "addr:housenumber": "1116", "addr:postcode": "94103", "addr:street": "Folsom Street", "amenity": "bar", "name": "Terroir Natural Wine Merchant & Bar", "shop": "wine", "url": "http://terroirsf.com/", "wheelchair": "yes"}}, {"type": "node", "id": 766180971, "lat": 37.78383, "lon": -122.4031855, "tags": {"addr:city": "San Francisco", "addr:housenumber": "101", "addr:postcode": "94103", "addr:state": "CA", "addr:street": "4th Street", "amenity": "bar", "name": "Jillian's", "phone": "+14153966100", "website": "http://sanfrancisco.jbcent.com", "wheelchair": "yes"}}, {"type": "node", "id": 808930684, "lat": 37.7861143, "lon": -122.4115011, "tags": {"addr:housenumber": "401", "addr:street": "Taylor Street", "amenity": "bar", "name": "Jasper's"}}, {"type": "node", "id": 984659510, "lat": 37.8077198, "lon": -122.4425648, "tags": {"amenity": "bar", "name": "Golden Gate Yacht Club", "wikidata": "Q611962"}}, {"type": "node", "id": 984659529, "lat": 37.8072388, "lon": -122.4469475, "tags": {"amenity": "bar", "name": "St Francis Yacht Club"}}, {"type": "node", "id": 1206794862, "lat": 37.7638277, "lon": -122.4150115, "tags": {"amenity": "bar", "name": "RiteSpot Caf\u00e9"}}, {"type": "node", "id": 1229920524, "lat": 37.7099557, "lon": -122.4498831, "tags": {"amenity": "bar", "name": "The Connection"}}, {"type": "node", "id": 1238299633, "lat": 37.7580357, "lon": -122.3885258, "tags": {"addr:housenumber": "2496", "amenity": "bar", "name": "Dogpatch Saloon", "wifi": "no"}}, {"type": "node", "id": 1243846554, "lat": 37.7686749, "lon": -122.4154254, "tags": {"addr:housenumber": "1779", "addr:postcode": "94103", "addr:street": "Folsom Street", "amenity": "bar", "name": "Nihon"}}, {"type": "node", "id": 1285554025, "lat": 37.7857068, "lon": -122.3993491, "tags": {"addr:housenumber": "651", "addr:street": "Howard Street", "amenity": "bar", "name": "Roe"}}, {"type": "node", "id": 1295101185, "lat": 37.7793996, "lon": -122.4233433, "tags": {"addr:housenumber": "650", "addr:street": "Gough Street", "amenity": "bar", "name": "Smuggler's Cove", "opening_hours": "Mo-Su 17:00-01:45"}}, {"type": "node", "id": 1315578392, "lat": 37.7650649, "lon": -122.396478}, {"type": "node", "id": 1406188018, "lat": 37.7848941, "lon": -122.4179931, "tags": {"addr:housenumber": "743", "addr:street": "Larkin Street", "amenity": "bar", "name": "Olive", "website": "http://www.olive-sf.com/"}}, {"type": "node", "id": 1417639584, "lat": 37.7916237, "lon": -122.4104078, "tags": {"amenity": "bar", "name": "Top of the Mark", "wheelchair": "yes", "wikidata": "Q7824679"}}, {"type": "node", "id": 1424879519, "lat": 37.7625479, "lon": -122.4215052, "tags": {"addr:city": "San Francisco", "addr:housenumber": "647", "addr:postcode": "94110", "addr:state": "CA", "addr:street": "Valencia Street", "amenity": "bar", "name": "The Valencia Room", "opening_hours": "17:00-02:00", "outdoor_seating": "no", "phone": "+1 (415) 552-7788", "smoking": "no", "website": "https://www.elbo.com/"}}, {"type": "node", "id": 1493721688, "lat": 37.7643689, "lon": -122.4333114, "tags": {"addr:housenumber": "3600", "addr:street": "16th Street", "amenity": "bar", "building:levels": "2", "building:material": "wood", "name": "Look Out", "note": "upstairs"}}, {"type": "node", "id": 1581843965, "lat": 37.778429, "lon": -122.3943226, "tags": {"addr:housenumber": "25", "addr:street": "Lusk Street", "amenity": "bar", "name": "Twenty Five Lusk", "website": "http://www.25lusk.com/"}}, {"type": "node", "id": 1607230272, "lat": 37.7985549, "lon": -122.4070947, "tags": {"addr:housenumber": "1232", "addr:street": "Grant Avenue", "amenity": "bar", "name": "The Saloon", "phone": "(415) 989-7666", "website": "http://www.sfblues.net/Saloon.html"}}, {"type": "node", "id": 1607246339, "lat": 37.7825015, "lon": -122.3926613, "tags": {"addr:housenumber": "555", "addr:postcode": "94107", "addr:street": "2nd Street", "amenity": "bar", "name": "Lord George", "website": "http://www.thelordgeorge.com/"}}, {"type": "node", "id": 1609599962, "lat": 37.7589506, "lon": -122.4189279, "tags": {"addr:housenumber": "2389", "addr:street": "Mission Street", "amenity": "bar", "name": "Bruno's", "opening_hours": "Fr-Sa 21:00-02:00", "phone": "+1 415 643 5200", "website": "http://www.brunossf.com/"}}, {"type": "node", "id": 1612773733, "lat": 37.7710719, "lon": -122.4132775, "tags": {"addr:housenumber": "354", "addr:street": "11th Street", "amenity": "bar", "email": "contactus@smoothasbutter.com", "name": "Butter", "opening_hours": "Th-Sa 18:00-02:00; Su 20:00-02:00", "phone": "+1 415 863 5964", "website": "http://www.smoothasbutter.com/"}}, {"type": "node", "id": 1612808193, "lat": 37.7854136, "lon": -122.4043265, "tags": {"addr:city": "San Francisco", "addr:housenumber": "55", "addr:postcode": "94103", "addr:state": "CA", "addr:street": "4th Street", "amenity": "bar", "name": "The View Lounge", "opening_hours": "Su-We 16:00-01:00; Th-Sa 16:00-01:30", "operator": "Marriott", "phone": "+1 415 896 1600", "smoking": "no", "website": "http://www.sfviewlounge.com/restaurant/hotels/hotel-information/travel/sfodt-view-san-francisco-marriott-marquis/"}}, {"type": "node", "id": 1613829042, "lat": 37.7881751, "lon": -122.4002205, "tags": {"addr:city": "San Francisco", "addr:country": "US", "addr:housenumber": "86", "addr:postcode": "94105", "addr:state": "CA", "addr:street": "2nd Street", "amenity": "bar", "name": "DaDa Bar"}}, {"type": "node", "id": 1615157230, "lat": 37.7911616, "lon": -122.4171865, "tags": {"addr:housenumber": "1390", "addr:street": "California Street", "amenity": "bar", "name": "Wreck Room", "opening_hours": "Mo-Sa 16:00-02:00; Su 10:00-02:00", "phone": "+1 415 932 6715", "website": "http://www.thewreckroomsf.com/"}}, {"type": "node", "id": 1616322282, "lat": 37.78564, "lon": -122.4302214, "tags": {"addr:housenumber": "1700", "addr:street": "Post Street", "amenity": "bar", "name": "Dimples"}}, {"type": "node", "id": 1616322287, "lat": 37.7851137, "lon": -122.4321864, "tags": {"addr:housenumber": "1825", "addr:street": "Webster Street", "addr:unit": "B", "amenity": "bar", "description": "Sake bar", "level": "0;1", "name": "Club Mari's / Mogura", "note": "Karaoke bar", "phone": "+1 415 6735636", "smoking": "no"}}, {"type": "node", "id": 1617288110, "lat": 37.7898697, "lon": -122.4009729, "tags": {"amenity": "bar", "atm": "yes", "name": "Sutter Station", "smoking": "no"}}, {"type": "node", "id": 1618687933, "lat": 37.7802406, "lon": -122.4856573, "tags": {"addr:city": "San Francisco", "addr:country": "US", "addr:housenumber": "6150", "addr:postcode": "94121", "addr:state": "CA", "addr:street": "Geary Boulevard", "amenity": "bar", "name": "Trad'r Sam"}}, {"type": "node", "id": 1626468365, "lat": 37.7870952, "lon": -122.4128807, "tags": {"addr:housenumber": "620", "addr:postcode": "94102", "addr:street": "Jones Street", "amenity": "bar", "email": "scoop@620-jones.com", "name": "Jones Bar", "opening_hours": "Tu-Th 17:00-24:00; Fr-Sa 17:00-02:00; Su 11:00-15:00; Mo closed", "phone": "+1 415 496 6858", "website": "http://620-jones.com/"}}, {"type": "node", "id": 1649867191, "lat": 37.7602611, "lon": -122.4207585, "tags": {"addr:housenumber": "3464", "addr:postcode": "94110", "addr:street": "19th St", "amenity": "bar", "name": "Wildhawk", "website": "http://www.lexingtonclub.com/", "wikidata": "Q19647866"}}, {"type": "node", "id": 1674110549, "lat": 37.7855563, "lon": -122.4083525, "tags": {"addr:housenumber": "124", "addr:street": "Ellis Street", "amenity": "bar", "name": "Infusion Lounge", "website": "https://sf.infusionlounge.com/"}}, {"type": "node", "id": 1676994251, "lat": 37.7832783, "lon": -122.4060429, "tags": {"amenity": "bar", "capacity": "227", "name": "Executive Order"}}, {"type": "node", "id": 1713861776, "lat": 37.7901262, "lon": -122.3977906, "tags": {"addr:housenumber": "83", "addr:street": "1st Street", "amenity": "bar", "name": "83 Proof", "wheelchair": "yes"}}, {"type": "node", "id": 1784908622, "lat": 37.7767623, "lon": -122.4379485, "tags": {"addr:city": "San Francisco", "addr:country": "US", "addr:housenumber": "762", "addr:postcode": "94117", "addr:state": "CA", "addr:street": "Divisadero Street", "amenity": "bar", "name": "Fly Bar & Restaurant", "website": "https://flybarandrestaurant.com/sf/", "wifi": "no"}}, {"type": "node", "id": 1788820322, "lat": 37.7753464, "lon": -122.4098785, "tags": {"addr:housenumber": "1190", "addr:street": "Folsom Street", "amenity": "bar", "name": "Cat Club"}}, {"type": "node", "id": 1806978712, "lat": 37.7712823, "lon": -122.4130526, "tags": {"addr:housenumber": "355", "addr:postcode": "94103", "addr:street": "11th Street", "amenity": "bar", "email": "info@baragricole.com", "name": "Bar Agricole", "opening_hours": "Su-We 17:30-22:00; Th-Sa 17:30-23:00", "phone": "+1 415 355 9400", "website": "http://www.baragricole.com/"}}, {"type": "node", "id": 1806978713, "lat": 37.7714837, "lon": -122.4133179, "tags": {"addr:housenumber": "333", "addr:postcode": "94103", "addr:street": "11th Street", "amenity": "bar", "name": "Slim's", "phone": "+1 415 255 0333", "website": "http://www.slimspresents.com/"}}, {"type": "node", "id": 1819811597, "lat": 37.7831179, "lon": -122.4638239, "tags": {"addr:housenumber": "408", "addr:street": "Clement Street", "amenity": "bar", "happy_hours": "16:00-19:00", "name": "Scarlet Lounge", "opening_hours": "Mo-Fr 16:00+; Sa-Su 12:00+"}}, {"type": "node", "id": 1830471305, "lat": 37.7758175, "lon": -122.4204876}, {"type": "node", "id": 1830471307, "lat": 37.7758293, "lon": -122.420395}, {"type": "node", "id": 1830471329, "lat": 37.7761515, "lon": -122.4205558}, {"type": "node", "id": 1830471330, "lat": 37.7761568, "lon": -122.4205148, "tags": {"entrance": "yes"}}, {"type": "node", "id": 1830471331, "lat": 37.7761633, "lon": -122.4204631}, {"type": "node", "id": 1839527429, "lat": 37.755275, "lon": -122.4194265, "tags": {"amenity": "bar", "name": "Make Out Room"}}, {"type": "node", "id": 1844653896, "lat": 37.785513, "lon": -122.4130769, "tags": {"addr:city": "San Francisco", "addr:housenumber": "441", "addr:street": "Jones Street", "amenity": "bar", "email": "info@tradbar.com", "name": "Tradition", "opening_hours": "Mo-Sa 18:00-02:00; Su closed", "phone": "+1 415 474 2284", "website": "http://www.tradbar.com/"}}, {"type": "node", "id": 1844915443, "lat": 37.7859991, "lon": -122.4044428, "tags": {"addr:housenumber": "20", "addr:street": "Yerba Buena Lane", "amenity": "bar", "name": "Press Club", "opening_hours": "Mo-Th 16:00-22:00; Fr 16:00+; Sa 14:00+; Su closed", "phone": "+1 415 744 5000", "website": "http://pressclubsf.com/", "wheelchair": "yes"}}, {"type": "node", "id": 1914749996, "lat": 37.7393085, "lon": -122.4182852, "tags": {"amenity": "bar", "name": "Holy Water Bar"}}, {"type": "node", "id": 1924019359, "lat": 37.7781773, "lon": -122.3969699, "tags": {"addr:housenumber": "510", "addr:street": "Brannan Street", "amenity": "bar", "name": "Bar Basic"}}, {"type": "node", "id": 1928508899, "lat": 37.7901998, "lon": -122.4054032, "tags": {"addr:city": "San Francisco", "addr:country": "US", "addr:housenumber": "334", "addr:postcode": "94108", "addr:state": "CA", "addr:street": "Grant Avenue", "amenity": "bar", "name": "Rouge et Blanc", "website": "http://rougeetblancsf.com/"}}, {"type": "node", "id": 1931765557, "lat": 37.8061364, "lon": -122.4164788}, {"type": "node", "id": 1931765561, "lat": 37.8060644, "lon": -122.41646}, {"type": "node", "id": 1931765583, "lat": 37.8059748, "lon": -122.4162401}, {"type": "node", "id": 1931765588, "lat": 37.8059773, "lon": -122.4162213}, {"type": "node", "id": 1931765591, "lat": 37.8061539, "lon": -122.4164794}, {"type": "node", "id": 1931765592, "lat": 37.8061759, "lon": -122.4162616}, {"type": "node", "id": 1931765593, "lat": 37.8060871, "lon": -122.4162635}, {"type": "node", "id": 1974693051, "lat": 37.8340022, "lon": -122.474413, "tags": {"amenity": "bar", "name": "Presidio Yacht Club ", "old_name": "Presidio Yacht Club", "wifi": "no"}}, {"type": "node", "id": 2005893376, "lat": 37.770261, "lon": -122.4257961, "tags": {"amenity": "bar", "name": "The Mint"}}, {"type": "node", "id": 2017000509, "lat": 37.7415301, "lon": -122.5053}, {"type": "node", "id": 2026996037, "lat": 37.7867615, "lon": -122.4004371, "tags": {"addr:city": "San Francisco", "addr:housenumber": "142", "addr:postcode": "94105", "addr:state": "CA", "addr:street": "Minna Street", "amenity": "bar", "name": "Pink Elephant", "phone": "+1 415 857 4142", "website": "http://www.sfalibi.com/", "wheelchair": "yes"}}, {"type": "node", "id": 2026996055, "lat": 37.786844, "lon": -122.400328, "tags": {"addr:city": "San Francisco", "addr:housenumber": "138", "addr:street": "Minna Street", "amenity": "bar", "name": "John Colins", "opening_hours": "Mo-Th 17:00-02:00; Fr 16:00-02:00; Sa 21:00-02:00", "phone": "+1 415 5127493", "website": "https://www.johncolins.com/", "wheelchair": "yes"}}, {"type": "node", "id": 2054109855, "lat": 37.7272028, "lon": -122.4327193, "tags": {"amenity": "bar", "name": "Rocks Den"}}, {"type": "node", "id": 2054109906, "lat": 37.7255163, "lon": -122.4343609, "tags": {"amenity": "bar", "name": "Pissed Off Pete's"}}, {"type": "node", "id": 2069104070, "lat": 37.7552542, "lon": -122.4233571, "tags": {"addr:city": "San Francisco", "addr:housenumber": "998", "addr:street": "Guerrero Street", "amenity": "bar", "name": "The Liberties"}}, {"type": "node", "id": 2071647991, "lat": 37.792141, "lon": -122.4100088, "tags": {"amenity": "bar", "name": "Tonga Room & Hurricane Bar", "wikidata": "Q7820969"}}, {"type": "node", "id": 2109397544, "lat": 37.7607732, "lon": -122.4354918, "tags": {"addr:housenumber": "4121", "addr:postcode": "94114", "addr:street": "18th Street", "amenity": "bar", "name": "Badlands", "phone": "+1 (415) 626-9320", "website": "http://www.sfbadlands.com"}}, {"type": "node", "id": 2131702647, "lat": 37.7604101, "lon": -122.4146785, "tags": {"amenity": "bar", "name": "Homestead"}}, {"type": "node", "id": 2166014677, "lat": 37.798041, "lon": -122.4040492, "tags": {"amenity": "bar", "name": "Atmosphere 3", "phone": "415.788.4623", "website": "http://www.a3atmosphere.com/"}}, {"type": "node", "id": 2166014681, "lat": 37.797945, "lon": -122.4049333, "tags": {"amenity": "bar", "email": "Payamarvin@gmail.com", "name": "Monroe San Francisco", "phone": "+1 415-772-9002", "website": "http://www.monroesf.com/"}}, {"type": "node", "id": 2167447455, "lat": 37.7970951, "lon": -122.4221642, "tags": {"amenity": "bar", "email": "bullitt2209@gmail.com", "name": "Bullitt", "opening_hours": "Mo-Th 15:00-2:00; Fr-Su 11:00-2:00", "phone": "+1 415-268-0140", "website": "http://www.bullittsf.com/"}}, {"type": "node", "id": 2240839533, "lat": 37.7785808, "lon": -122.3933641, "tags": {"amenity": "bar", "name": "District"}}, {"type": "node", "id": 2240869181, "lat": 37.7806466, "lon": -122.3964816, "tags": {"amenity": "bar", "name": "Lava Lounge"}}, {"type": "node", "id": 2240869184, "lat": 37.7778936, "lon": -122.3910462, "tags": {"amenity": "bar", "name": "Public House", "website": "https://www.publichousesf.com/", "wheelchair": "yes"}}, {"type": "node", "id": 2248286001, "lat": 37.7915977, "lon": -122.4037111, "tags": {"addr:city": "San Francisco", "addr:country": "US", "addr:housenumber": "471", "addr:state": "CA", "addr:street": "Pine Street", "amenity": "bar", "name": "The Occidental Cigar Club", "source": "(415) 834-0485", "website": "http://www.occidentalcigarclub.com"}}, {"type": "node", "id": 2248348143, "lat": 37.7823301, "lon": -122.4758677, "tags": {"addr:city": "San Francisco", "addr:country": "US", "addr:housenumber": "1541", "addr:postcode": "94118", "addr:state": "CA", "addr:street": "Clement Street", "amenity": "bar", "name": "Chomp N' Swig", "phone": "+1 (415) 683-5946"}}, {"type": "node", "id": 2250378561, "lat": 37.8001651, "lon": -122.4073582, "tags": {"addr:housenumber": "1326", "addr:street": "Grant Ave", "amenity": "bar", "name": "Tope", "source": "+1 415-793-2120", "website": "http://www.topesf.com/"}}, {"type": "node", "id": 2253031247, "lat": 37.7847139, "lon": -122.4125955, "tags": {"addr:housenumber": "397", "addr:street": "Ellis Street", "amenity": "bar", "name": "Cinnabar"}}, {"type": "node", "id": 2274346430, "lat": 37.7732198, "lon": -122.4032241}, {"type": "node", "id": 2274346433, "lat": 37.7732945, "lon": -122.4031292}, {"type": "node", "id": 2274346436, "lat": 37.7733267, "lon": -122.4033586}, {"type": "node", "id": 2274346438, "lat": 37.7734008, "lon": -122.4032625}, {"type": "node", "id": 2287521548, "lat": 37.7692181, "lon": -122.4522109, "tags": {"addr:housenumber": "1811", "addr:street": "Haight Street", "amenity": "bar", "name": "Murio's Trophy Room"}}, {"type": "node", "id": 2294919268, "lat": 37.7860568, "lon": -122.4013648, "tags": {"addr:city": "San Francisco", "addr:housenumber": "125", "addr:postcode": "94105", "addr:street": "3rd Street", "amenity": "bar", "name": "St. Regis Hotel Lobby Bar", "source": "Survey"}}, {"type": "node", "id": 2297121848, "lat": 37.7691575, "lon": -122.4511357}, {"type": "node", "id": 2297121867, "lat": 37.7691624, "lon": -122.4510787}, {"type": "node", "id": 2297121906, "lat": 37.7691905, "lon": -122.4510847}, {"type": "node", "id": 2297121917, "lat": 37.7692135, "lon": -122.4510897}, {"type": "node", "id": 2297122012, "lat": 37.7692977, "lon": -122.4511067}, {"type": "node", "id": 2297122025, "lat": 37.7693183, "lon": -122.4511107}, {"type": "node", "id": 2297122067, "lat": 37.7693845, "lon": -122.4511247}, {"type": "node", "id": 2317662705, "lat": 37.7467604, "lon": -122.4193306, "tags": {"addr:housenumber": "3158", "addr:street": "Mission Street", "amenity": "bar", "name": "El Rio", "phone": "+1 (415) 282-3325", "toilets:wheelchair": "no", "website": "http://www.elriosf.com", "wheelchair": "limited"}}, {"type": "node", "id": 2318141894, "lat": 37.7616024, "lon": -122.4352611, "tags": {"addr:housenumber": "456", "addr:postcode": "94114", "addr:street": "Castro Street", "amenity": "bar", "name": "QBar", "phone": "+1 (415) 864-2877", "website": "http://qbarsf.com"}}, {"type": "node", "id": 2318141907, "lat": 37.7624007, "lon": -122.4349982, "tags": {"addr:housenumber": "401", "addr:postcode": "94114", "addr:street": "Castro Street", "amenity": "bar", "name": "Twin Peaks Tavern", "phone": "+1 (415) 864-9470", "website": "http://twinpeakstavern.com"}}, {"type": "node", "id": 2318141915, "lat": 37.7612906, "lon": -122.4352312, "tags": {"addr:housenumber": "476", "addr:postcode": "94114", "addr:street": "Castro Street", "amenity": "bar", "name": "Blush! Wine Bar", "phone": "+1 (415) 558-0893", "website": "http://blushwinebar.com"}}, {"type": "node", "id": 2318796883, "lat": 37.7607436, "lon": -122.4359987, "tags": {"addr:housenumber": "4149", "addr:postcode": "94114", "addr:street": "18th Street", "amenity": "bar", "name": "The Edge", "phone": "+1 (415) 863-4027", "website": "http://edgesf.com"}}, {"type": "node", "id": 2321383079, "lat": 37.7609305, "lon": -122.4358979, "tags": {"addr:housenumber": "4146", "addr:postcode": "94114", "addr:street": "18th Street", "amenity": "bar", "name": "Toad Hall", "phone": "+1 (415) 621-2811", "shop": "yes", "website": "http://toadhallbar.com"}}, {"type": "node", "id": 2324980767, "lat": 37.7693783, "lon": -122.4511817}, {"type": "node", "id": 2337741914, "lat": 37.7757691, "lon": -122.4088971, "tags": {"addr:city": "San Francisco", "addr:country": "US", "addr:housenumber": "1151", "addr:postcode": "94103", "addr:state": "CA", "addr:street": "Folsom Street", "amenity": "bar", "name": "Raven Bar", "wheelchair": "yes"}}, {"type": "node", "id": 2343615613, "lat": 37.7846208, "lon": -122.409519, "tags": {"addr:housenumber": "115", "addr:postcode": "94102", "addr:street": "Mason Street", "amenity": "bar", "name": "Union Square Sports Bar"}}, {"type": "node", "id": 2368783178, "lat": 37.769376, "lon": -122.4526389}, {"type": "node", "id": 2368784958, "lat": 37.7693888, "lon": -122.4525393}, {"type": "node", "id": 2368791978, "lat": 37.7696463, "lon": -122.4525932}, {"type": "node", "id": 2368791980, "lat": 37.7696334, "lon": -122.4526924}, {"type": "node", "id": 2454979580, "lat": 37.762774, "lon": -122.4196292, "tags": {"addr:city": "San Francisco", "addr:housenumber": "2140", "addr:postcode": "94110", "addr:street": "Mission Street", "amenity": "bar", "cuisine": "american", "email": "info@thesycamoresf.com", "name": "The Sycamore", "opening_hours": "Mo-Su 11:30-00:00", "phone": "415 252 7704", "website": "http://www.thesycamoresf.com"}}, {"type": "node", "id": 2507796662, "lat": 37.777868, "lon": -122.4056276}, {"type": "node", "id": 2508662906, "lat": 37.7816661, "lon": -122.4093949}, {"type": "node", "id": 2508662927, "lat": 37.7818182, "lon": -122.4092064}, {"type": "node", "id": 2576109617, "lat": 37.7755328, "lon": -122.4065477, "tags": {"addr:city": "San Francisco", "addr:housenumber": "398", "addr:postcode": "94103", "addr:street": "7th Street", "amenity": "bar", "name": "Rumors Sports Lounge", "phone": "415-553-6169", "source": "http://www.rumorssf.com/", "website": "http://www.rumorssf.com/", "wheelchair": "yes"}}, {"type": "node", "id": 2616667225, "lat": 37.7761113, "lon": -122.4084688}, {"type": "node", "id": 2616667226, "lat": 37.7761563, "lon": -122.4084103}, {"type": "node", "id": 2624201230, "lat": 37.7610642, "lon": -122.434509, "tags": {"addr:city": "San Francisco", "addr:postcode": "94114", "addr:street": "18th Street", "amenity": "bar", "name": "The Mix", "wheelchair": "yes"}}, {"type": "node", "id": 2627676156, "lat": 37.7453753, "lon": -122.4202222, "tags": {"addr:city": "San Francisco", "addr:housenumber": "3202", "addr:postcode": "94110", "addr:street": "Mission Street", "amenity": "bar", "name": "Royal Cuckoo", "opening_hours": "Mo-Th 16:00-02:00, Fr,Sa 15:00-02:00", "phone": "(415) 550-8667", "source": "website"}}, {"type": "node", "id": 2629113680, "lat": 37.761163, "lon": -122.4285438, "tags": {"addr:city": "San Francisco", "addr:housenumber": "3801", "addr:postcode": "94114", "addr:street": "18th Street", "amenity": "bar", "cuisine": "empanada", "name": "Cervecer\u00eda de MateVeza", "opening_hours": "Mo 17:00-22:00; Tu-Su 12:00-22:00", "website": "http://cerveceriasf.com/"}}, {"type": "node", "id": 2636164497, "lat": 37.7522962, "lon": -122.4192566, "tags": {"addr:city": "San Francisco", "addr:street": "24th Street", "amenity": "bar", "name": "24th Street Bar"}}, {"type": "node", "id": 2655525665, "lat": 37.7815231, "lon": -122.4929563, "tags": {"addr:city": "San Francisco", "addr:housenumber": "3129", "addr:postcode": "94121", "addr:street": "Clement Street", "amenity": "bar", "name": "The Links Bar and Grill", "opening_hours": "Mo-We 17:00-24:00; Th-Su 15:00-24:00", "phone": "(415) 752-5439", "website": "https://teeoffbarandgrill.wordpress.com/"}}, {"type": "node", "id": 2656118736, "lat": 37.7598312, "lon": -122.4208284}, {"type": "node", "id": 2656118739, "lat": 37.7598378, "lon": -122.4207175}, {"type": "node", "id": 2656118757, "lat": 37.7599082, "lon": -122.4208358}, {"type": "node", "id": 2656118788, "lat": 37.7600716, "lon": -122.4208513}, {"type": "node", "id": 2656118790, "lat": 37.7600782, "lon": -122.4207404}, {"type": "node", "id": 2656431121, "lat": 37.7598202, "lon": -122.4190594}, {"type": "node", "id": 2656431122, "lat": 37.7598287, "lon": -122.4188866}, {"type": "node", "id": 2656431133, "lat": 37.7599052, "lon": -122.4190661}, {"type": "node", "id": 2656431136, "lat": 37.7599137, "lon": -122.4188933}, {"type": "node", "id": 2656431676, "lat": 37.7824795, "lon": -122.4172448}, {"type": "node", "id": 2656431679, "lat": 37.7825128, "lon": -122.4169846}, {"type": "node", "id": 2656431685, "lat": 37.782568, "lon": -122.4170017}, {"type": "node", "id": 2656431687, "lat": 37.7825688, "lon": -122.4169961}, {"type": "node", "id": 2656431694, "lat": 37.782618, "lon": -122.4172732}, {"type": "node", "id": 2656431698, "lat": 37.7826351, "lon": -122.4171403}, {"type": "node", "id": 2656431701, "lat": 37.7826506, "lon": -122.4170187}, {"type": "node", "id": 2656770153, "lat": 37.7610503, "lon": -122.421987}, {"type": "node", "id": 2656770154, "lat": 37.7610712, "lon": -122.4216567}, {"type": "node", "id": 2656770163, "lat": 37.761179, "lon": -122.422}, {"type": "node", "id": 2656770167, "lat": 37.7611999, "lon": -122.4216698}, {"type": "node", "id": 2657227487, "lat": 37.7781206, "lon": -122.405926}, {"type": "node", "id": 2657227489, "lat": 37.7782357, "lon": -122.4057788}, {"type": "node", "id": 2657227490, "lat": 37.7779928, "lon": -122.405473}, {"type": "node", "id": 2657227493, "lat": 37.7780894, "lon": -122.4055947}, {"type": "node", "id": 2657881653, "lat": 37.7896193, "lon": -122.4015992, "tags": {"addr:city": "San Francisco", "addr:housename": "Hobart Building", "addr:housenumber": "582", "addr:postcode": "94104", "addr:street": "Market Street", "amenity": "bar", "name": "Variety Club Preview Room"}}, {"type": "node", "id": 2657910469, "lat": 37.7629693, "lon": -122.4241901}, {"type": "node", "id": 2657910473, "lat": 37.7629739, "lon": -122.4242275}, {"type": "node", "id": 2657910477, "lat": 37.7629759, "lon": -122.4240862}, {"type": "node", "id": 2657910479, "lat": 37.7629763, "lon": -122.4241908}, {"type": "node", "id": 2657910481, "lat": 37.7629765, "lon": -122.4240767}, {"type": "node", "id": 2657910529, "lat": 37.7630662, "lon": -122.4242368}, {"type": "node", "id": 2657910531, "lat": 37.7630757, "lon": -122.4240867}, {"type": "node", "id": 2659540768, "lat": 37.7759977, "lon": -122.4083287}, {"type": "node", "id": 2659540772, "lat": 37.7760415, "lon": -122.4082702}, {"type": "node", "id": 2688818283, "lat": 37.7976853, "lon": -122.4286339}, {"type": "node", "id": 2688818289, "lat": 37.7976963, "lon": -122.4285488}, {"type": "node", "id": 2688818304, "lat": 37.7977521, "lon": -122.4286477}, {"type": "node", "id": 2688818305, "lat": 37.7977569, "lon": -122.4286486}, {"type": "node", "id": 2688818329, "lat": 37.7978672, "lon": -122.4286713}, {"type": "node", "id": 2688818332, "lat": 37.7978704, "lon": -122.4286468}, {"type": "node", "id": 2688818336, "lat": 37.7978782, "lon": -122.4285862}, {"type": "node", "id": 2688818349, "lat": 37.7978869, "lon": -122.4286754}, {"type": "node", "id": 2688818355, "lat": 37.7978901, "lon": -122.4286509}, {"type": "node", "id": 2689861324, "lat": 37.7885138, "lon": -122.4150968, "tags": {"addr:housenumber": "896", "addr:street": "Sutter Street", "amenity": "bar", "cuisine": "coffee", "name": "Cup A Joe", "opening_hours": "Mo-Su 07:00-19:00", "phone": "+1-415-563-7745", "toilets": "yes", "toilets:access": "permissive", "toilets:unisex": "yes", "wheelchair": "yes"}}, {"type": "node", "id": 2698395558, "lat": 37.7899499, "lon": -122.4206855, "tags": {"addr:city": "San Francisco", "addr:housenumber": "1423", "addr:postcode": "94109", "addr:street": "Polk Street", "amenity": "bar", "name": "Hi-Lo Club", "website": "http://hilosf.com/", "wheelchair": "yes"}}, {"type": "node", "id": 2699476096, "lat": 37.7381269, "lon": -122.3809527}, {"type": "node", "id": 2699476097, "lat": 37.7379036, "lon": -122.3805599}, {"type": "node", "id": 2699476098, "lat": 37.7381543, "lon": -122.3803321}, {"type": "node", "id": 2724725641, "lat": 37.7221622, "lon": -122.4788561, "tags": {"addr:city": "San Francisco", "addr:country": "US", "addr:housename": "Cesar Chavez Student Center: Lower Conference Level", "addr:housenumber": "1650", "addr:postcode": "94132", "addr:state": "CA", "addr:street": "Holloway Avenue", "addr:unit": "Suite C-134", "amenity": "bar", "name": "The PUB@SFSU", "opening_hours": "Mo-Th 11:30-21:00; Fr 11:30-18:30", "phone": "+1 415-338-3487", "website": "https://www.yelp.com/biz/the-pub-at-sfsu-san-francisco", "wheelchair": "yes"}}, {"type": "node", "id": 2727141353, "lat": 37.7647802, "lon": -122.3963956}, {"type": "node", "id": 2727141366, "lat": 37.7648652, "lon": -122.3964035}, {"type": "node", "id": 2727141368, "lat": 37.7648688, "lon": -122.3963413}, {"type": "node", "id": 2727141373, "lat": 37.7650549, "lon": -122.3964887}, {"type": "node", "id": 2727141376, "lat": 37.7650573, "lon": -122.396447}, {"type": "node", "id": 2727141378, "lat": 37.7650599, "lon": -122.3964018}, {"type": "node", "id": 2727141380, "lat": 37.7650617, "lon": -122.3963592}, {"type": "node", "id": 2727141385, "lat": 37.7650662, "lon": -122.3964562}, {"type": "node", "id": 2727141387, "lat": 37.7650694, "lon": -122.3963952}, {"type": "node", "id": 2727141389, "lat": 37.7650707, "lon": -122.3963704}, {"type": "node", "id": 2750810774, "lat": 37.7973699, "lon": -122.4356968, "tags": {"addr:city": "San Francisco", "addr:postcode": "94123", "addr:street": "Fillmore Street", "amenity": "bar", "name": "Mauna Loa Cocktails"}}, {"type": "node", "id": 2775081839, "lat": 37.7391649, "lon": -122.4167461}, {"type": "node", "id": 2775081845, "lat": 37.7391692, "lon": -122.4168291}, {"type": "node", "id": 2775081855, "lat": 37.7393527, "lon": -122.4168144}, {"type": "node", "id": 2775081875, "lat": 37.7393657, "lon": -122.4168133}, {"type": "node", "id": 2775111992, "lat": 37.7393398, "lon": -122.416732}, {"type": "node", "id": 2775111994, "lat": 37.7393408, "lon": -122.4167522}, {"type": "node", "id": 2775111999, "lat": 37.7393625, "lon": -122.4167504}, {"type": "node", "id": 2775872688, "lat": 37.8005989, "lon": -122.4387588}, {"type": "node", "id": 2775872691, "lat": 37.8006198, "lon": -122.438587}, {"type": "node", "id": 2775872903, "lat": 37.8008327, "lon": -122.4388044}, {"type": "node", "id": 2775872905, "lat": 37.8008349, "lon": -122.4388048}, {"type": "node", "id": 2775872925, "lat": 37.8008558, "lon": -122.438633}, {"type": "node", "id": 2815132110, "lat": 37.7768129, "lon": -122.4180548, "tags": {"addr:city": "San Francisco", "addr:housenumber": "1", "addr:postcode": "94102", "addr:street": "Polk Street", "amenity": "bar", "name": "The Beer Hall", "opening_hours": "Mo-Th 16:00-23:00; Fr-Sa 15:00-24:00; Su 15:00-22:00", "phone": "+1 415 800 7416", "website": "http://www.thebeerhallsf.com/"}}, {"type": "node", "id": 2852299542, "lat": 37.7976516, "lon": -122.3954706, "tags": {"addr:city": "San Francisco", "addr:housenumber": "Pier 3, Suite 3-102", "amenity": "bar", "name": "Hard Water", "website": "https://www.hardwaterbar.com/", "wheelchair": "limited"}}, {"type": "node", "id": 2879135417, "lat": 37.7508668, "lon": -122.4162912, "tags": {"addr:city": "San Francisco", "addr:housenumber": "1398", "addr:postcode": "94110", "addr:state": "CA", "addr:street": "South Van Ness Avenue", "amenity": "bar", "name": "The Phone Booth", "outdoor_seating": "no", "phone": "+1-415-648-4683", "smoking": "separated"}}, {"type": "node", "id": 2879135420, "lat": 37.7841206, "lon": -122.4105077, "tags": {"amenity": "bar", "name": "Pandora Karaoke Bar", "smoking": "no"}}, {"type": "node", "id": 2910121665, "lat": 37.7754192, "lon": -122.4978365}, {"type": "node", "id": 2910121666, "lat": 37.7754228, "lon": -122.4977511}, {"type": "node", "id": 2910121667, "lat": 37.7754469, "lon": -122.4977527}, {"type": "node", "id": 2910121680, "lat": 37.7755854, "lon": -122.4978475}, {"type": "node", "id": 2910121681, "lat": 37.7755889, "lon": -122.497762}, {"type": "node", "id": 2912943508, "lat": 37.7415117, "lon": -122.5053433}, {"type": "node", "id": 2912943509, "lat": 37.7415132, "lon": -122.5052998}, {"type": "node", "id": 2912943527, "lat": 37.7415305, "lon": -122.5052909}, {"type": "node", "id": 2912943571, "lat": 37.741644, "lon": -122.505297}, {"type": "node", "id": 2914907609, "lat": 37.7382981, "lon": -122.3808197}, {"type": "node", "id": 2914907610, "lat": 37.7383043, "lon": -122.3808306}, {"type": "node", "id": 2914907612, "lat": 37.738322, "lon": -122.3806467}, {"type": "node", "id": 2914907613, "lat": 37.7383285, "lon": -122.3806408}, {"type": "node", "id": 2914907615, "lat": 37.7383858, "lon": -122.3807565}, {"type": "node", "id": 2914907616, "lat": 37.7383874, "lon": -122.3807444}, {"type": "node", "id": 2920957125, "lat": 37.7424457, "lon": -122.4817385}, {"type": "node", "id": 2920957126, "lat": 37.7424476, "lon": -122.4816946}, {"type": "node", "id": 2920957131, "lat": 37.7424653, "lon": -122.481783}, {"type": "node", "id": 2920957133, "lat": 37.7424671, "lon": -122.48174}, {"type": "node", "id": 2920957137, "lat": 37.742471, "lon": -122.4816962}, {"type": "node", "id": 2920957150, "lat": 37.7424915, "lon": -122.4817848}, {"type": "node", "id": 2920957171, "lat": 37.7426747, "lon": -122.4817974}, {"type": "node", "id": 2920957173, "lat": 37.7426783, "lon": -122.4817105}, {"type": "node", "id": 2941409392, "lat": 37.7904964, "lon": -122.403818, "tags": {"addr:city": "San Francisco", "addr:housenumber": "246", "addr:postcode": "94108", "addr:street": "Kearny Street", "amenity": "bar", "name": "Rickhouse", "opening_hours": "Sa 18:00-02:00;Mo 17:00-02:00;Tu-Fr 15:00-02:00", "smoking": "no", "website": "http://www.rickhousebar.com/"}}, {"type": "node", "id": 3018753922, "lat": 37.7931005, "lon": -122.421082, "tags": {"addr:city": "San Francisco", "addr:housenumber": "1754", "addr:street": "Polk Street", "amenity": "bar", "name": "Am\u00e9lie"}}, {"type": "node", "id": 3018753923, "lat": 37.7930539, "lon": -122.4210676, "tags": {"addr:city": "San Francisco", "addr:housenumber": "1750", "addr:street": "Polk Street", "amenity": "bar", "name": "Cabin"}}, {"type": "node", "id": 3061387376, "lat": 37.7875747, "lon": -122.4032007, "tags": {"addr:city": "San Francisco", "addr:housenumber": "691", "addr:street": "Market Street", "amenity": "bar", "name": "Local Edition", "opening_hours": "Mo-Fr 17:00-02:00;Sa 19:00-02:00", "phone": "+1 415 7951375", "smoking": "no"}}, {"type": "node", "id": 3086769557, "lat": 37.7762701, "lon": -122.4182163, "tags": {"addr:city": "San Francisco", "addr:housenumber": "1414", "addr:postcode": "94102", "addr:street": "Market Street", "amenity": "bar", "name": "Hotspot"}}, {"type": "node", "id": 3214153061, "lat": 37.7390299, "lon": -122.4171535, "tags": {"addr:housenumber": "424", "addr:postcode": "94110", "addr:street": "Cortland Avenue", "amenity": "bar", "name": "Wild Side West", "opening_hours": "Mo-Su 14:00-02:00", "phone": "+1 (415) 647-3099", "website": "https://www.wildsidewest.com/"}}, {"type": "node", "id": 3275185914, "lat": 37.7704969, "lon": -122.4439835, "tags": {"addr:city": "San Francisco", "addr:housenumber": "1312", "addr:postcode": "94117", "addr:state": "CA", "addr:street": "Haight Street", "amenity": "bar", "name": "Sunshine Coast: Hookah Fusion Bar", "payment:bitcoin": "yes", "payment:litecoin": "yes", "phone": "(415) 255-6002", "website": "http://sunshinecoastsf.com"}}, {"type": "node", "id": 3279458748, "lat": 37.7577226, "lon": -122.4094529, "tags": {"addr:city": "San Francisco", "addr:housenumber": "2730", "addr:postcode": "94110", "addr:state": "CA", "addr:street": "21st Street", "amenity": "bar", "name": "Asiento", "payment:bitcoin": "yes", "payment:litecoin": "yes", "phone": "(415) 829-3375", "website": "http://asientosf.com"}}, {"type": "node", "id": 3284402051, "lat": 37.7556914, "lon": -122.4167454, "tags": {"addr:city": "San Francisco", "addr:housenumber": "1096", "addr:postcode": "94110", "addr:state": "CA", "addr:street": "South Van Ness Avenue", "amenity": "bar", "changing_table": "yes", "changing_table:location": "unisex_toilet", "name": "Urban Putt", "opening_hours": "Mo-Th 16:00-24:00; Fr 16:00-01:00; Sa 11:00-01:00; Su 11:00-24:00", "payment:bitcoin": "yes", "payment:litecoin": "yes", "phone": "+1 (415) 341-1080", "toilets:wheelchair": "yes", "website": "http://www.urbanputt.com", "wheelchair": "limited"}}, {"type": "node", "id": 3284769554, "lat": 37.7611618, "lon": -122.3884378, "tags": {"addr:city": "San Francisco", "addr:housenumber": "2245", "addr:postcode": "94107", "addr:state": "CA", "addr:street": "3rd Street", "amenity": "bar", "name": "Triple Voodoo Brewery", "phone": "(415) 598-8811", "website": "https://triplevoodoo.com/"}}, {"type": "node", "id": 3374162750, "lat": 37.7757279, "lon": -122.4150425, "tags": {"addr:city": "San Francisco", "addr:housenumber": "1337", "addr:street": "Mission Street", "amenity": "bar", "name": "OddJob", "website": "http://www.oddjobsf.com/"}}, {"type": "node", "id": 3376884814, "lat": 37.7141742, "lon": -122.4364796, "tags": {"amenity": "bar", "name": "Geneva Pub", "smoking": "outside"}}, {"type": "node", "id": 3379321525, "lat": 37.8001664, "lon": -122.4376548, "tags": {"amenity": "bar", "name": "Nectar Wine Lounge", "opening_hours": "Mo-Th 17:00-22:30;Fr-Sa 17:00-00:00;Su 17:00-22:00", "phone": "+1 415-345-1377", "shop": "winery", "website": "http://www.nectarwinelounge.com/"}}, {"type": "node", "id": 3379996811, "lat": 37.8002095, "lon": -122.4402624, "tags": {"amenity": "bar", "name": "Campus - San Francisco", "opening_hours": "Mo-Fr 16:00-1:00; Sa 11:00-1:00; Su 10:00-1:00", "phone": "(415) 896-4110", "website": "http://www.campussf.com/"}}, {"type": "node", "id": 3388665493, "lat": 37.77638, "lon": -122.42589, "tags": {"addr:city": "San Francisco", "addr:country": "US", "addr:state": "CA", "addr:street": "Hayes Street", "amenity": "bar", "microbrewery": "no", "name": "Noir Lounge", "takeaway": "no", "wheelchair": "yes"}}, {"type": "node", "id": 3441484302, "lat": 37.7440923, "lon": -122.4220729, "tags": {"addr:city": "San Francisco", "addr:housenumber": "80", "addr:street": "29th Street", "amenity": "bar", "name": "Rock Bar", "website": "rockbarsf.com"}}, {"type": "node", "id": 3455075371, "lat": 37.7872019, "lon": -122.403004, "tags": {"addr:city": "San Francisco", "addr:housenumber": "29", "addr:street": "3rd Street", "amenity": "bar", "name": "The Lark"}}, {"type": "node", "id": 3458525149, "lat": 37.7768231, "lon": -122.4243782, "tags": {"amenity": "bar", "name": "Brass Tacks"}}, {"type": "node", "id": 3540161001, "lat": 37.7389501, "lon": -122.4676699, "tags": {"addr:city": "San Francisco", "addr:country": "US", "addr:housenumber": "179", "addr:postcode": "94127", "addr:state": "CA", "addr:street": "West Portal Avenue", "amenity": "bar", "name": "Portal's Tavern", "outdoor_seating": "no"}}, {"type": "node", "id": 3540255593, "lat": 37.740405, "lon": -122.466539, "tags": {"addr:city": "San Francisco", "addr:country": "US", "addr:housenumber": "46", "addr:postcode": "94127", "addr:state": "CA", "addr:street": "West Portal Avenue", "amenity": "bar", "name": "McCarthy\u2018s Irish Bar", "outdoor_seating": "no"}}, {"type": "node", "id": 3545345699, "lat": 37.7438818, "lon": -122.4536779, "tags": {"addr:city": "San Francisco", "addr:country": "US", "addr:housenumber": "749", "addr:postcode": "94127", "addr:state": "CA", "addr:street": "Portola Drive", "amenity": "bar", "name": "Miraloma Club", "outdoor_seating": "no"}}, {"type": "node", "id": 3552405837, "lat": 37.7761609, "lon": -122.4083622, "tags": {"addr:city": "San Francisco", "addr:country": "US", "addr:housenumber": "1123", "addr:postcode": "94103", "addr:state": "CA", "addr:street": "Folsom Street", "amenity": "bar", "name": "Trademark Sports Bar"}}, {"type": "node", "id": 3562957694, "lat": 37.742708, "lon": -122.4809329, "tags": {"addr:city": "San Francisco", "addr:housenumber": "1355", "addr:postcode": "94116", "addr:state": "CA", "addr:street": "Taraval Street", "amenity": "bar", "name": "Dragon Lounge", "phone": "+1 415 566-7700", "shop": "mobile_phone"}}, {"type": "node", "id": 3577376253, "lat": 37.7437445, "lon": -122.4246216, "tags": {"addr:city": "San Francisco", "addr:housenumber": "1600", "addr:street": "Dolores Street", "amenity": "bar", "name": "The Bar on Dolores"}}, {"type": "node", "id": 3611822692, "lat": 37.7881229, "lon": -122.421632, "tags": {"addr:city": "San Francisco", "addr:housenumber": "1332", "addr:postcode": "94109", "addr:state": "CA", "addr:street": "Van Ness Avenue", "amenity": "bar", "name": "Route 101"}}, {"type": "node", "id": 3622464002, "lat": 37.7408294, "lon": -122.4654436, "tags": {"addr:city": "San Francisco", "addr:country": "US", "addr:housenumber": "824", "addr:postcode": "94127", "addr:state": "CA", "addr:street": "Ulloa Street", "amenity": "bar", "name": "Philosophers Club"}}, {"type": "node", "id": 3634308480, "lat": 37.7641987, "lon": -122.4658639, "tags": {"addr:city": "San Francisco", "addr:housenumber": "734", "addr:postcode": "94122", "addr:street": "Irving Street", "amenity": "bar", "name": "Yancy's Saloon", "phone": "+1 415 665 6551"}}, {"type": "node", "id": 3642082213, "lat": 37.787049, "lon": -122.4013107, "tags": {"addr:city": "San Francisco", "addr:housenumber": "662", "addr:postcode": "94105", "addr:state": "CA", "addr:street": "Mission Street", "amenity": "bar", "name": "Novela", "wheelchair": "yes"}}, {"type": "node", "id": 3642090340, "lat": 37.7875413, "lon": -122.3984959, "tags": {"addr:city": "San Francisco", "addr:housenumber": "90", "addr:postcode": "94105", "addr:state": "CA", "addr:street": "Natoma Street", "amenity": "bar", "name": "Natoma Cabana"}}, {"type": "node", "id": 3658310528, "lat": 37.7637154, "lon": -122.4664518, "tags": {"addr:city": "San Francisco", "addr:country": "US", "addr:housenumber": "1315", "addr:postcode": "94122", "addr:state": "CA", "addr:street": "9th Avenue", "amenity": "bar", "name": "Mucky Duck"}}, {"type": "node", "id": 3663976016, "lat": 37.7552947, "lon": -122.4229151, "tags": {"addr:city": "San Francisco", "addr:housenumber": "3394", "addr:street": "22nd Street", "amenity": "bar", "name": "Lone Palm"}}, {"type": "node", "id": 3667880931, "lat": 37.7639974, "lon": -122.4643912, "tags": {"addr:city": "San Francisco", "addr:housenumber": "603", "addr:postcode": "94122", "addr:state": "CA", "addr:street": "Irving Street", "amenity": "bar", "name": "Fireside Bar"}}, {"type": "node", "id": 3675574681, "lat": 37.7853121, "lon": -122.4161155, "tags": {"addr:city": "San Francisco", "addr:housenumber": "699", "addr:state": "CA", "addr:street": "O'Farrell Street", "amenity": "bar", "name": "The Nite Cap", "smoking": "outside"}}, {"type": "node", "id": 3684500782, "lat": 37.7608676, "lon": -122.4337728, "tags": {"amenity": "bar", "name": "Moby Dick"}}, {"type": "node", "id": 3699130254, "lat": 37.7426761, "lon": -122.481748}, {"type": "node", "id": 3702219079, "lat": 37.8000247, "lon": -122.408984, "tags": {"addr:city": "San Francisco", "addr:housenumber": "1534", "addr:postcode": "94133", "addr:state": "CA", "addr:street": "Stockton Street", "amenity": "bar", "name": "Tony Nik's Cafe", "opening_hours": "Mo-Fr 16:00-2:00; Sa-Su 14:00-2:00", "website": "http://tonyniks.com/"}}, {"type": "node", "id": 3799946959, "lat": 37.7973068, "lon": -122.4345787, "tags": {"addr:city": "San Francisco", "addr:housenumber": "2140", "addr:postcode": "94123", "addr:street": "Union Street", "amenity": "bar", "food": "yes", "internet_access": "wlan", "name": "The Brixton", "outdoor_seating": "yes", "phone": "+1 (415) 409-1114", "website": "https://www.brixtonsf.com/"}}, {"type": "node", "id": 3853311617, "lat": 37.7678129, "lon": -122.4294529, "tags": {"addr:city": "San Francisco", "addr:housenumber": "718", "addr:postcode": "94114", "addr:state": "CA", "addr:street": "14th Street", "amenity": "bar", "name": "Last Rites", "opening_hours": "Mo-Su 18:00-02:00", "outdoor_seating": "no", "smoking": "no"}}, {"type": "node", "id": 3903390509, "lat": 37.7611718, "lon": -122.4286482, "tags": {"amenity": "bar", "name": "Bebebar"}}, {"type": "node", "id": 3960697185, "lat": 37.8000847, "lon": -122.4356751, "tags": {"addr:city": "San Francisco", "addr:housenumber": "2036", "addr:postcode": "94123", "addr:state": "CA", "addr:street": "Lombard Street", "amenity": "bar", "name": "Stock in Trade", "opening_hours": "14:00-02:00", "smoking": "no", "website": "www.stockintradesf.com"}}, {"type": "node", "id": 3969606065, "lat": 37.7955278, "lon": -122.4184582, "tags": {"amenity": "bar", "name": "Cafe Muse"}}, {"type": "node", "id": 3975094188, "lat": 37.7973254, "lon": -122.4099995, "tags": {"addr:city": "San Francisco", "addr:housenumber": "787", "addr:state": "CA", "addr:street": "Broadway", "amenity": "bar", "name": "Sip Bar & Lounge"}}, {"type": "node", "id": 3984165039, "lat": 37.7989822, "lon": -122.4090381, "tags": {"amenity": "bar", "name": "Vieni Vieni"}}, {"type": "node", "id": 3985400820, "lat": 37.7963509, "lon": -122.4053256, "tags": {"addr:city": "San Francisco", "addr:housenumber": "905", "addr:postcode": "94133", "addr:state": "CA", "addr:street": "Kearny Street", "amenity": "bar", "name": "Grasslands Bar & Lounge"}}, {"type": "node", "id": 4010401866, "lat": 37.8067715, "lon": -122.4321258, "tags": {"amenity": "bar", "name": "The Interval", "operator": "The Long Now Foundation"}}, {"type": "node", "id": 4017234499, "lat": 37.7636372, "lon": -122.4785512, "tags": {"addr:city": "San Francisco", "addr:housenumber": "1914", "addr:postcode": "94122", "addr:state": "CA", "addr:street": "Irving Street", "amenity": "bar", "name": "Silver Spur"}}, {"type": "node", "id": 4022691832, "lat": 37.7869651, "lon": -122.4197889, "tags": {"addr:city": "San Francisco", "addr:housenumber": "1092", "addr:postcode": "94109", "addr:street": "Post Street", "amenity": "bar", "name": "Jackalope", "website": "http://www.jackalopesf.com/"}}, {"type": "node", "id": 4024246508, "lat": 37.7927653, "lon": -122.421275, "tags": {"amenity": "bar", "name": "The Cinch"}}, {"type": "node", "id": 4030143560, "lat": 37.7592203, "lon": -122.4111877, "tags": {"addr:city": "San Francisco", "addr:housenumber": "3010", "addr:postcode": "94110", "addr:street": "20th Street", "amenity": "bar", "name": "Trick Dog", "opening_hours": "11:00-2:00", "phone": "+1 415 4712999", "website": "https://www.trickdogbar.com/"}}, {"type": "node", "id": 4037744278, "lat": 37.7734856, "lon": -122.4217094, "tags": {"amenity": "bar", "name": "Pause Wine Bar"}}, {"type": "node", "id": 4039511536, "lat": 37.7952077, "lon": -122.4065929, "tags": {"amenity": "bar", "name": "Budha"}}, {"type": "node", "id": 4055481596, "lat": 37.7961449, "lon": -122.4064364, "tags": {"amenity": "bar", "name": "Red's Place", "wheelchair": "limited"}}, {"type": "node", "id": 4071080789, "lat": 37.7639038, "lon": -122.4726646, "tags": {"addr:city": "San Francisco", "addr:housenumber": "1368", "addr:postcode": "94122", "addr:state": "CA", "addr:street": "Irving Street", "amenity": "bar", "name": "The Corner Spot"}}, {"type": "node", "id": 4081556948, "lat": 37.7777921, "lon": -122.4241711, "tags": {"addr:city": "San Francisco", "addr:housenumber": "458", "addr:postcode": "94102", "addr:state": "CA", "addr:street": "Grove Street", "amenity": "bar", "name": "Birba", "phone": "+1 415 549 7612", "website": "http://www.birbawine.com/"}}, {"type": "node", "id": 4106923141, "lat": 37.7975853, "lon": -122.4070757, "tags": {"amenity": "bar", "name": "Bow Bow Cocktails"}}, {"type": "node", "id": 4108029915, "lat": 37.795466, "lon": -122.406438, "tags": {"addr:city": "San Francisco", "addr:housenumber": "916", "addr:state": "CA", "addr:street": "Grant Avenue", "amenity": "bar", "name": "Li Po Cocktail Lounge"}}, {"type": "node", "id": 4114603089, "lat": 37.7468805, "lon": -122.4192506, "tags": {"addr:city": "San Francisco", "addr:housenumber": "3152", "addr:postcode": "94110", "addr:state": "CA", "addr:street": "Mission Street", "amenity": "bar", "name": "Virgil's Sea Room", "outdoor_seating": "yes", "phone": "+1-415-829-2233", "smoking": "outside", "website": "virgilssf.com", "wheelchair": "yes"}}, {"type": "node", "id": 4129601492, "lat": 37.7912711, "lon": -122.4010896, "tags": {"addr:city": "San Francisco", "addr:housenumber": "200", "addr:postcode": "94104", "addr:state": "CA", "addr:street": "Bush Street", "amenity": "bar", "name": "The Treasury", "opening_hours": "Mo-Sa 15:00-00:00", "phone": "+1 415 578 0530", "website": "http://www.thetreasurysf.com/"}}, {"type": "node", "id": 4139816206, "lat": 37.7412086, "lon": -122.4229226, "tags": {"amenity": "bar", "construction": "yes", "name": "Old Devil Moon"}}, {"type": "node", "id": 4139840857, "lat": 37.7451409, "lon": -122.420005, "tags": {"amenity": "bar", "name": "The Knockout"}}, {"type": "node", "id": 4143685674, "lat": 37.7907035, "lon": -122.4036388, "tags": {"addr:city": "San Francisco", "addr:housenumber": "375", "addr:postcode": "94104", "addr:state": "CA", "addr:street": "Bush Street", "amenity": "bar", "name": "Pagan Idol", "opening_hours": "Mo-Fr 16:00-02:00; Sa 18:00-02:00", "phone": "+1 415-985-6375", "website": "https://www.paganidol.com/"}}, {"type": "node", "id": 4161865223, "lat": 37.7830596, "lon": -122.4651657, "tags": {"addr:city": "San Francisco", "addr:housenumber": "540", "addr:postcode": "94118", "addr:state": "CA", "addr:street": "Clement Street", "amenity": "bar", "name": "540 Club"}}, {"type": "node", "id": 4199804593, "lat": 37.754295, "lon": -122.4781838, "tags": {"addr:city": "San Francisco", "addr:housenumber": "1334", "addr:postcode": "94122", "addr:state": "CA", "addr:street": "Noriega Street", "amenity": "bar", "name": "Tiki Haven"}}, {"type": "node", "id": 4199813991, "lat": 37.7543453, "lon": -122.4770736, "tags": {"addr:housenumber": "1232", "addr:street": "Noriega Street", "amenity": "bar", "name": "oneup bar"}}, {"type": "node", "id": 4256898604, "lat": 37.7633159, "lon": -122.4071599, "tags": {"addr:city": "San Francisco", "addr:housenumber": "491", "addr:postcode": "94110", "addr:state": "CA", "addr:street": "Potrero Avenue", "amenity": "bar", "name": "Mission Hill Saloon"}}, {"type": "node", "id": 4261666983, "lat": 37.7603764, "lon": -122.4190503, "tags": {"amenity": "bar", "name": "Beauty Bar"}}, {"type": "node", "id": 4284609497, "lat": 37.7341553, "lon": -122.4341305, "tags": {"addr:city": "San Francisco", "addr:housenumber": "2816", "addr:postcode": "94131", "addr:state": "CA", "addr:street": "Diamond Street", "amenity": "bar", "name": "Glen Park Station"}}, {"type": "node", "id": 4299448689, "lat": 37.7876005, "lon": -122.4152508, "tags": {"addr:housenumber": "800", "addr:street": "Post Street", "amenity": "bar", "name": "The Royale", "opening_hours": "Su-We 16:00-24:00, Th-Sa 16:00-02:00"}}, {"type": "node", "id": 4312016590, "lat": 37.781855, "lon": -122.410086, "tags": {"amenity": "bar", "name": "Showdown Bar"}}, {"type": "node", "id": 4331553009, "lat": 37.7242174, "lon": -122.4567727, "tags": {"addr:city": "San Francisco", "addr:housenumber": "1314", "addr:postcode": "94112", "addr:state": "CA", "addr:street": "Ocean Avenue", "amenity": "bar", "name": "Ocean Ale House", "smoking": "no", "wheelchair": "yes"}}, {"type": "node", "id": 4343745976, "lat": 37.7881779, "lon": -122.4024347, "tags": {"addr:city": "San Francisco", "addr:housenumber": "2", "addr:postcode": "94105", "addr:state": "CA", "addr:street": "New Montgomery Street", "amenity": "bar", "name": "Pied Piper", "opening_hours": "Mo-Fr 16:00-24:00; Sa 11:30-24:00; Su 10:00-24:00", "phone": "+1 415 546 5089", "smoking": "no", "website": "http://www.sfpalace.com/pied-piper-bar-and-grill/"}}, {"type": "node", "id": 4414289689, "lat": 37.7862555, "lon": -122.309226, "tags": {"addr:street": "Monarch Street", "amenity": "bar", "name": "Hangar One Vodka", "name:en": "Hangar One Vodka", "website": "https://hangarone.com/"}}, {"type": "node", "id": 4414289690, "lat": 37.7866722, "lon": -122.309707, "tags": {"addr:housenumber": "2501", "addr:postcode": "94501", "addr:street": "Monarch Street", "amenity": "bar", "craft": "brewery", "name": "Faction Brewing", "name:en": "Faction Brewing Tasting Room", "opening_hours": "We-Sa 12:00-20:00; Su 12:00-18:00", "phone": "(510) 523-2739", "website": "https://www.factionbrewing.com/tasting-room/"}}, {"type": "node", "id": 4419680995, "lat": 37.7846021, "lon": -122.4331376, "tags": {"amenity": "bar", "name": "Boom Boom Room", "website": "http://www.boomboomroom.com/"}}, {"type": "node", "id": 4425675189, "lat": 37.7874657, "lon": -122.3993218, "tags": {"addr:housenumber": "111", "addr:postcode": "94105", "addr:street": "Minna Street", "amenity": "bar", "name": "111 Minna Gallery", "website": "https://www.111minnagallery.com/"}}, {"type": "node", "id": 4453775089, "lat": 37.7988897, "lon": -122.4086539, "tags": {"amenity": "bar", "name": "Boardroom", "name:en": "Boardroom"}}, {"type": "node", "id": 4467802664, "lat": 37.7561254, "lon": -122.4184756, "tags": {"addr:city": "San Francisco", "addr:housenumber": "2565", "addr:postcode": "94110", "addr:state": "CA", "addr:street": "Mission Street", "amenity": "bar", "category": "Bars", "name": "Balancoire", "phone": "+1 415-920-0577", "website": "http://balancoiresf.com"}}, {"type": "node", "id": 4482434591, "lat": 37.7976041, "lon": -122.4307094, "tags": {"addr:city": "San Francisco", "addr:housenumber": "1901", "addr:postcode": "94123", "addr:state": "CA", "addr:street": "Union Street", "amenity": "bar", "name": "Bus Stop", "name:en": "Bus Stop", "phone": "4155676905", "website": "http://www.busstop-sf.com"}}, {"type": "node", "id": 4482438889, "lat": 37.7769616, "lon": -122.4232638, "tags": {"addr:city": "San Francisco", "addr:housenumber": "406", "addr:postcode": "94102", "addr:state": "CA", "addr:street": "Hayes Street", "amenity": "bar", "name": "Dobbs Ferry Bar", "name:en": "Dobbs Ferry Bar", "website": "https://www.dobbsferrysf.com/dobbs-bar/"}}, {"type": "node", "id": 4498256594, "lat": 37.7864629, "lon": -122.4087782, "tags": {"amenity": "bar", "name": "Bartlett Hall sports bar"}}, {"type": "node", "id": 4513023134, "lat": 37.7831255, "lon": -122.4637116, "tags": {"addr:housenumber": "406", "addr:street": "Clement Street", "amenity": "bar", "name": "Neck of the Woods"}}, {"type": "node", "id": 4516187333, "lat": 37.7684104, "lon": -122.4197649, "tags": {"amenity": "bar", "name": "The Armory Club"}}, {"type": "node", "id": 4548821700, "lat": 37.7560076, "lon": -122.4186105, "tags": {"amenity": "bar", "name": "Doc's Clock"}}, {"type": "node", "id": 4548821706, "lat": 37.7526946, "lon": -122.4183324, "tags": {"addr:housenumber": "2777", "addr:street": "Mission Street", "amenity": "bar", "description": "pool tv sports soccer", "name": "El Farolito Bar"}}, {"type": "node", "id": 4548821898, "lat": 37.8003603, "lon": -122.4390753, "tags": {"addr:housenumber": "2175", "addr:street": "Chestnut Street", "amenity": "bar", "name": "delarosa"}}, {"type": "node", "id": 4550110115, "lat": 37.7820272, "lon": -122.4492858, "tags": {"addr:housenumber": "2807", "addr:postcode": "94118", "addr:street": "Geary Boulevard", "amenity": "bar", "name": "Family", "sport": "billiards"}}, {"type": "node", "id": 4556399238, "lat": 37.7871794, "lon": -122.4072968, "tags": {"amenity": "bar", "level": "-1"}}, {"type": "node", "id": 4558023340, "lat": 37.7860803, "lon": -122.4398627, "tags": {"amenity": "bar", "name": "San Francisco Athletic Club"}}, {"type": "node", "id": 4613841150, "lat": 37.8002782, "lon": -122.4413801, "tags": {"amenity": "bar"}}, {"type": "node", "id": 4613888431, "lat": 37.8014288, "lon": -122.4248369, "tags": {"amenity": "bar", "name": "Voodoo Lounge"}}, {"type": "node", "id": 4615928118, "lat": 37.7906305, "lon": -122.4340699, "tags": {"amenity": "bar", "name": "Palmer's"}}, {"type": "node", "id": 4618196720, "lat": 37.7799749, "lon": -122.4121121, "tags": {"amenity": "bar", "name": "Mr. smiths"}}, {"type": "node", "id": 4628492031, "lat": 37.7893023, "lon": -122.4094413, "tags": {"air_conditioning": "yes", "amenity": "bar", "name": "Obscenity Bar & Lounge", "outdoor_seating": "no"}}, {"type": "node", "id": 4631763793, "lat": 37.8039156, "lon": -122.4151723, "tags": {"amenity": "bar", "name": "International Sports Club"}}, {"type": "node", "id": 4631842574, "lat": 37.7975872, "lon": -122.4222394, "tags": {"amenity": "bar", "name": "Green Sports Bar"}}, {"type": "node", "id": 4632000740, "lat": 37.7905854, "lon": -122.4038682, "tags": {"amenity": "bar", "name": "Topsy's Bar"}}, {"type": "node", "id": 4688828471, "lat": 37.8187755, "lon": -122.3664171, "tags": {"addr:city": "San Francisco", "addr:housenumber": "30", "addr:postcode": "94130", "addr:state": "CA", "addr:street": "Avenue G", "amenity": "bar", "craft": "winery", "fax": "+1 888 773 3163", "name": "The Winery SF", "opening_hours": "Sa,Su 12:00-17:00", "phone": "+1 415 735 8423", "website": "http://www.winery-sf.com/"}}, {"type": "node", "id": 4735352721, "lat": 37.7647764, "lon": -122.3964606}, {"type": "node", "id": 4750382901, "lat": 37.7581814, "lon": -122.388527, "tags": {"amenity": "bar", "name": "Yield Wine Bar"}}, {"type": "node", "id": 4814206526, "lat": 37.7830174, "lon": -122.4662352, "tags": {"addr:city": "San Francisco", "addr:housenumber": "642", "addr:postcode": "94118", "addr:state": "CA", "addr:street": "Clement Street", "amenity": "bar", "brewery": "yes", "name": "Richmond Republic Draught House", "outdoor_seating": "no", "website": "https://www.richmondrepublicsf.com/", "wheelchair": "yes"}}, {"type": "node", "id": 4839249789, "lat": 37.77421, "lon": -122.4374954, "tags": {"addr:city": "San Francisco", "addr:housenumber": "500", "addr:postcode": "94117", "addr:street": "Divisadero Street", "amenity": "bar", "name": "Madrone Art Bar"}}, {"type": "node", "id": 4839978312, "lat": 37.7902514, "lon": -122.4049416, "tags": {"amenity": "bar", "name": "Bar Fluxus"}}, {"type": "node", "id": 4909810957, "lat": 37.74586, "lon": -122.4195155, "tags": {"addr:city": "San Francisco", "addr:housenumber": "3187", "addr:postcode": "94110", "addr:state": "CA", "addr:street": "Mission Street", "amenity": "bar", "name": "Iron & Gold", "opening_hours": "Mo-Su 16:00-02:00", "outdoor_seating": "no", "phone": "1-415-824-1447", "smoking": "no", "wheelchair": "yes"}}, {"type": "node", "id": 4927522422, "lat": 37.7943038, "lon": -122.4212799, "tags": {"amenity": "bar", "name": "Bell Tower", "name:en": "Bell Tower"}}, {"type": "node", "id": 4937360419, "lat": 37.7554153, "lon": -122.4175471, "tags": {"addr:city": "San Francisco", "addr:housenumber": "3149", "addr:postcode": "94110", "addr:state": "CA", "addr:street": "22nd Street", "amenity": "bar", "name": "El Trebol", "phone": "+1-415-647-5774", "smoking": "no"}}, {"type": "node", "id": 4937368172, "lat": 37.7500359, "lon": -122.4180938, "tags": {"addr:city": "San Francisco", "addr:housenumber": "2937", "addr:postcode": "94110", "addr:state": "CA", "addr:street": "Mission Street", "amenity": "bar", "name": "Evil Eye", "opening_hours": "Tu-Th 17:00-22:00, Fr-Su 17:00-00:00", "outdoor_seating": "no", "phone": "+1-415-814-3779", "smoking": "no", "website": "evileyesf.com"}}, {"type": "node", "id": 4972855035, "lat": 37.7390514, "lon": -122.4154011, "tags": {"amenity": "bar", "cuisine": "italian", "email": "info@vinorossosf.com", "name": "Vinorosso Enoteca", "opening_hours": "Mo-Fr 16:00-23:00; Sa 15:00-23:00; Su 15:00-22:00", "phone": "415-647-1268", "website": "http://www.vinorossosf.com."}}, {"type": "node", "id": 4987099522, "lat": 37.797663, "lon": -122.4319104, "tags": {"addr:city": "San Francisco", "addr:housenumber": "1980", "addr:postcode": "94123", "addr:state": "CA", "addr:street": "Union Street", "amenity": "bar", "name": "Bar None", "name:en": "Bar None", "phone": "+1 (415) 409-4469", "website": "http://sfbarnone.com"}}, {"type": "node", "id": 5081906521, "lat": 37.7885, "lon": -122.4081856, "tags": {"amenity": "bar", "name": "Nightclub & Dancing", "name:en": "Nightclub & Dancing"}}, {"type": "node", "id": 5120227122, "lat": 37.8059596, "lon": -122.4227674, "tags": {"amenity": "bar", "name": "Wattle Creek Winery"}}, {"type": "node", "id": 5196559823, "lat": 37.7640332, "lon": -122.401291, "tags": {"addr:city": "San Francisco", "addr:housenumber": "495", "addr:postcode": "94107", "addr:state": "CA", "addr:street": "De Haro Street", "amenity": "bar", "name": "Anchor Public Taps", "opening_hours": "Mo-We 12:00-21:00; Th-Sa 12:00-22:00; Su 12:00-20:00", "opening_hours:covid19": "open", "operator": "Anchor Brewing Company", "outdoor_seating": "yes", "phone": "+1-415-863-8350", "website": "https://www.anchorbrewing.com/publictaps"}}, {"type": "node", "id": 5207488821, "lat": 37.8075902, "lon": -122.4196761, "tags": {"amenity": "bar", "name": "Jacks"}}, {"type": "node", "id": 5264776821, "lat": 37.7789359, "lon": -122.3940943, "tags": {"amenity": "bar", "name": "Victory Hall & Parlor", "opening_hours": "Mo-Su 10:00-00:00", "phone": "(415) 543-4255", "website": "http://victoryhallsf.com"}}, {"type": "node", "id": 5271201093, "lat": 37.8183904, "lon": -122.3671469, "tags": {"amenity": "bar", "comment": "part of Winemaker Studios", "craft": "winery", "name": "Sottomarino Winery"}}, {"type": "node", "id": 5446125221, "lat": 37.7895844, "lon": -122.4124395, "tags": {"amenity": "bar", "name": "Bacchus Kirk"}}, {"type": "node", "id": 5538811245, "lat": 37.7627366, "lon": -122.3960042, "tags": {"addr:city": "San Francisco", "addr:housenumber": "1318", "addr:postcode": "94107", "addr:state": "CA", "addr:street": "18th Street", "amenity": "bar", "name": "Blooms Saloon", "outdoor_seating": "yes"}}, {"type": "node", "id": 5538811250, "lat": 37.7624711, "lon": -122.3969617, "tags": {"addr:housenumber": "1419", "addr:street": "18th Street", "amenity": "bar", "bar": "wine_bar", "name": "Ruby Wine", "shop": "wine", "website": "https://rubywinesf.com/"}}, {"type": "node", "id": 5550921662, "lat": 37.7415102, "lon": -122.5053898}, {"type": "node", "id": 5550921663, "lat": 37.7416407, "lon": -122.5053968}, {"type": "node", "id": 5595114052, "lat": 37.7905039, "lon": -122.4102522, "tags": {"amenity": "bar", "name": "Mikkeller Bar"}}, {"type": "node", "id": 5596090221, "lat": 37.7822987, "lon": -122.4188956, "tags": {"amenity": "bar", "name": "whitechapel"}}, {"type": "node", "id": 5612872169, "lat": 37.7676612, "lon": -122.4065246, "tags": {"addr:city": "San Francisco", "addr:housenumber": "119", "addr:postcode": "94103", "addr:state": "CA", "addr:street": "Utah Street", "amenity": "bar", "name": "The Great Northern", "phone": "(415) 626-7001", "website": "https://thegreatnorthernsf.com"}}, {"type": "node", "id": 5729139186, "lat": 37.780655, "lon": -122.3969947, "tags": {"addr:city": "San Francisco", "addr:housenumber": "544", "addr:state": "CA", "addr:street": "Bryant Street", "amenity": "bar", "name": "Black Hammer Brewing", "outdoor_seating": "yes"}}, {"type": "node", "id": 5796524756, "lat": 37.7985479, "lon": -122.44584, "tags": {"addr:street": "Lombard Street", "amenity": "bar", "cuisine": "hotdog;pizza", "internet_access": "wlan", "name": "Final final"}}, {"type": "node", "id": 5835145705, "lat": 37.7908092, "lon": -122.4200671, "tags": {"amenity": "bar", "name": "Soda Popinski's"}}, {"type": "node", "id": 5880291830, "lat": 37.7143665, "lon": -122.4369246, "tags": {"addr:housenumber": "1166", "addr:postcode": "94112", "addr:street": "Geneva Avenue", "amenity": "bar", "email": "thebrokenrecordbar@gmail.com", "internet_access": "wlan", "name": "Broken Record", "opening_hours": "Mo-Sa 16:00-00:00; Su 11:00-00:00", "phone": "(415) 963-1713", "website": "http://www.brokenrecordbar.com/"}}, {"type": "node", "id": 5992714949, "lat": 37.7650324, "lon": -122.417997, "tags": {"amenity": "bar", "name": "The City Club"}}, {"type": "node", "id": 6064189082, "lat": 37.8183058, "lon": -122.3673379, "tags": {"amenity": "bar", "name": "Woods Island Club"}}, {"type": "node", "id": 6064190097, "lat": 37.8182381, "lon": -122.3669384, "tags": {"amenity": "bar", "comment": "part of Winemaker Studios", "craft": "winery", "name": "VIE Winery"}}, {"type": "node", "id": 6064190104, "lat": 37.8183293, "lon": -122.3669813, "tags": {"amenity": "bar", "comment": "part of Winemaker Studios", "craft": "winery", "name": "Sol Rouge Winery"}}, {"type": "node", "id": 6210959985, "lat": 37.7912018, "lon": -122.4206071, "tags": {"amenity": "bar", "name": "Kozy Kar"}}, {"type": "node", "id": 6242778291, "lat": 37.7891854, "lon": -122.410066, "tags": {"amenity": "bar", "name": "Hogwash"}}, {"type": "node", "id": 6242795781, "lat": 37.7526938, "lon": -122.4131711, "tags": {"addr:housenumber": "3050", "addr:street": "24th Street", "amenity": "bar", "name": "Blind Cat"}}, {"type": "node", "id": 6371909286, "lat": 37.7839108, "lon": -122.4144505, "tags": {"addr:housenumber": "400", "addr:street": "Eddy Street", "amenity": "bar", "name": "Black cat"}}, {"type": "node", "id": 6371947786, "lat": 37.780993, "lon": -122.4122888, "tags": {"amenity": "bar", "name": "Charmaine's rooftop bar"}}, {"type": "node", "id": 6426948685, "lat": 37.758424, "lon": -122.4203908, "tags": {"addr:housenumber": "3565", "addr:postcode": "94110", "amenity": "bar", "name": "20 Spot", "wheelchair": "yes"}}, {"type": "node", "id": 6450218486, "lat": 37.7905812, "lon": -122.417187, "tags": {"amenity": "bar", "name": "Liquid Gold"}}, {"type": "node", "id": 6475537098, "lat": 37.7651806, "lon": -122.399908, "tags": {"addr:city": "San Francisco", "addr:housenumber": "1600", "addr:postcode": "94107", "addr:state": "CA", "addr:street": "17th Street", "amenity": "bar", "name": "Thee Parkside", "phone": "+1-415-252-1330", "website": "https://www.theeparkside.com/"}}, {"type": "node", "id": 6486930284, "lat": 37.7801268, "lon": -122.4799495, "tags": {"addr:housenumber": "5625", "addr:street": "Geary Boulevard", "amenity": "bar", "name": "The Blarney Stone", "opening_hours": "Mo-Fr 14:00-02:00; Sa-Su 10:00-02:00"}}, {"type": "node", "id": 6502703601, "lat": 37.7542699, "lon": -122.4791847, "tags": {"addr:housenumber": "1430", "addr:street": "Noriega Street", "amenity": "bar", "name": "Boomerang", "name:ko": "\ubd80\uba54\ub791"}}, {"type": "node", "id": 6515692972, "lat": 37.7810461, "lon": -122.4597222, "tags": {"addr:city": "San Francisco", "addr:housenumber": "3745", "addr:postcode": "94118", "addr:state": "CA", "addr:street": "Geary Boulevard", "amenity": "bar", "name": "Happy Lounge"}}, {"type": "node", "id": 6679529685, "lat": 37.7964859, "lon": -122.4042841, "tags": {"amenity": "bar", "name": "Kell\u2019s"}}, {"type": "node", "id": 6679598285, "lat": 37.7994205, "lon": -122.4074577, "tags": {"amenity": "bar", "name": "Maggir McGarrys"}}, {"type": "node", "id": 6744734325, "lat": 37.7815247, "lon": -122.4931227, "tags": {"addr:housenumber": "3141", "addr:street": "Clement Street", "amenity": "bar", "name": "Akiba", "name:ja": "\u79cb\u8449"}}, {"type": "node", "id": 6744788662, "lat": 37.7823521, "lon": -122.4943464, "tags": {"amenity": "bar", "name": "Lincoln Park Bar & Grill"}}, {"type": "node", "id": 6791676291, "lat": 37.7828417, "lon": -122.4641076, "tags": {"addr:housenumber": "443", "addr:street": "Clement Street", "amenity": "bar", "name": "High Treason"}}, {"type": "node", "id": 6831790664, "lat": 37.7809733, "lon": -122.4695178, "tags": {"amenity": "bar", "name": "Would You Believe? Cocktails"}}, {"type": "node", "id": 6831790677, "lat": 37.780611, "lon": -122.4697821, "tags": {"addr:housenumber": "4701", "addr:street": "Geary Boulevard", "amenity": "bar", "name": "The Heath"}}, {"type": "node", "id": 6836067589, "lat": 37.7773986, "lon": -122.4628265, "tags": {"addr:city": "San Francisco", "addr:country": "US", "addr:housenumber": "598", "addr:postcode": "94118", "addr:state": "CA", "addr:street": "5th Avenue", "amenity": "bar", "name": "O'Keeffe's"}}, {"type": "node", "id": 6839009628, "lat": 37.7812248, "lon": -122.4638605, "tags": {"amenity": "bar", "name": "Overtime"}}, {"type": "node", "id": 6874561750, "lat": 37.7418792, "lon": -122.5048589, "tags": {"amenity": "bar", "name": "White Cap"}}, {"type": "node", "id": 7127196316, "lat": 37.7608265, "lon": -122.43432, "tags": {"amenity": "bar", "name": "Midnight Sun"}}, {"type": "node", "id": 7502532896, "lat": 37.7829434, "lon": -122.4028288, "tags": {"amenity": "bar", "name": "Jamber Wine Pub"}}, {"type": "node", "id": 7876524201, "lat": 37.7318373, "lon": -122.4479698, "tags": {"addr:city": "San Francisco", "addr:housenumber": "558", "addr:postcode": "94127", "addr:state": "CA", "addr:street": "Monterey Boulevard", "amenity": "bar", "brewery": "yes", "min_age": "21", "name": "Friend's Bar"}}, {"type": "node", "id": 8245534229, "lat": 37.6939422, "lon": -122.464712, "tags": {"amenity": "bar", "name": "Carlitos Club"}}, {"type": "node", "id": 8702323478, "lat": 37.7817106, "lon": -122.4094522}, {"type": "node", "id": 8702323479, "lat": 37.7818624, "lon": -122.4092637}, {"type": "node", "id": 9023334561, "lat": 37.8112453, "lon": -122.4103446, "tags": {"amenity": "bar", "name": "Luau Lounge Tiki Bar"}}, {"type": "node", "id": 9039255113, "lat": 37.8012883, "lon": -122.411387, "tags": {"addr:city": "San Francisco", "addr:housenumber": "700", "addr:postcode": "94133", "addr:state": "CA", "addr:street": "Columbus Avenue", "amenity": "bar", "name": "Bodega Wine Bar", "opening_hours": "Tu-Fr 17:00-23:00; Sa 09:00-23:00", "website": "https://www.bodegasf.com/"}}, {"type": "node", "id": 9046364948, "lat": 37.8032002, "lon": -122.4146113, "tags": {"addr:city": "San Francisco", "addr:housenumber": "957", "addr:postcode": "94133", "addr:state": "CA", "addr:street": "Columbus Avenue", "amenity": "bar", "name": "La Rocca's Corner", "opening_hours": "Mo-Su 11:00-02:00"}}, {"type": "node", "id": 9181748926, "lat": 37.7896441, "lon": -122.4119492, "tags": {"addr:housenumber": "895", "addr:street": "Bush Street", "amenity": "bar", "cocktails": "yes", "contact:facebook": "stookeysclubmoderne", "contact:instagram": "scmoderne", "contact:twitter": "StookeysCM", "name": "Stookey's Club Moderne", "phone": "+1 415 7719695", "takeaway": "yes", "website": "https://www.stookeysclubmoderne.com/"}}, {"type": "node", "id": 9181815639, "lat": 37.7871545, "lon": -122.4164929, "tags": {"addr:housenumber": "895", "addr:street": "Post Street", "amenity": "bar", "cocktails": "yes", "contact:instagram": "propagationsf", "internet_access": "no", "name": "Propagation", "opening_hours": "Tu-Th 16:00-24:00; Fr 00:00-02:00,16:00-24:00; Sa 00:00-02:00,14:30-24:00; Su 00:00-02:00", "reservation": "no", "website": "https://www.propagationsf.com/", "wheelchair": "yes"}}, {"type": "node", "id": 9200292442, "lat": 37.7851784, "lon": -122.4316091, "tags": {"amenity": "bar", "email": "masaem@ix.netcom.com", "level": "1", "name": "Festa Wine & Cocktail Lounge", "opening_hours": "Mo 20:00-24:00; Tu-Fr 00:00-01:00,20:00-24:00; Sa,Su 00:00-02:00,20:00-24:00", "phone": "+1 415 5675866", "website": "https://festalounge.com/"}}, {"type": "node", "id": 9254580053, "lat": 37.7883367, "lon": -122.4335814, "tags": {"addr:city": "San Francisco", "addr:housenumber": "2020", "addr:postcode": "94115", "addr:state": "CA", "addr:street": "Fillmore Street", "amenity": "bar", "name": "Harry's Bar", "phone": "+1 415 921 1000", "website": "http://harrysbarsf.com/"}}, {"type": "way", "id": 172111611, "nodes": [1830471331, 1830471307, 1830471305, 1830471329, 1830471330, 1830471331], "tags": {"addr:city": "San Francisco", "addr:housenumber": "155", "addr:postcode": "94102", "addr:state": "CA", "addr:street": "Fell Street", "amenity": "bar", "building": "yes", "height": "6", "name": "Rickshaw Stop", "source": "Bing"}}, {"type": "way", "id": 182809251, "nodes": [1931765591, 1931765557, 1931765561, 1931765593, 1931765583, 1931765588, 1931765592, 1931765591], "tags": {"addr:housenumber": "555", "addr:street": "North Point Street", "amenity": "bar", "building": "yes", "name": "Knuckles Historic Sports Bar & Grill"}}, {"type": "way", "id": 218159534, "nodes": [2274346430, 2274346436, 2274346438, 2274346433, 2274346430], "tags": {"addr:city": "San Francisco", "addr:housenumber": "798", "addr:postcode": "94103", "addr:street": "Brannan Street", "amenity": "bar", "building": "commercial", "height": "6", "name": "Mars Bar & Restaurant", "phone": "(415) 621-6277", "website": "http://www.marsbarsf.com/"}}, {"type": "way", "id": 223616923, "nodes": [2324980767, 2297122067, 2297122025, 2297122012, 2297121917, 2297121906, 2297121867, 2297121848, 2324980767], "tags": {"addr:housenumber": "1725", "addr:street": "Haight Street", "amenity": "bar", "building": "yes", "name": "The Alembic", "name:zh": "\u84b8\u998f\u5668\u9910\u5385", "source": "Bing"}}, {"type": "way", "id": 228247742, "nodes": [2368784958, 2368783178, 2368791980, 2368791978, 2368784958], "tags": {"addr:housenumber": "1840", "addr:street": "Haight Street", "amenity": "bar", "building": "yes", "height": "6", "name": "Milk Bar", "opening_hours": "Mo-Th 16:00-02:00, Fr-Su 13:00-02:00", "source": "Bing"}}, {"type": "way", "id": 255963795, "nodes": [2616667225, 2616667226, 2659540772, 2659540768, 2616667225], "tags": {"addr:city": "San Francisco", "addr:country": "US", "addr:housenumber": "1127", "addr:postcode": "94103", "addr:state": "CA", "addr:street": "Folsom Street", "amenity": "bar", "building": "yes", "building:levels": "1", "height": "4", "name": "Copyright"}}, {"type": "way", "id": 260127164, "nodes": [2656118788, 2656118790, 2656118739, 2656118736, 2656118757, 2656118788], "tags": {"addr:housenumber": "3465", "addr:postcode": "94110", "addr:street": "19th Street", "amenity": "bar", "building": "yes", "contact:website": "http://www.radishsf.com/", "height": "11", "name": "Radish"}}, {"type": "way", "id": 260152109, "nodes": [2656431121, 2656431133, 2656431136, 2656431122, 2656431121], "tags": {"addr:housenumber": "2323", "addr:postcode": "94110", "addr:street": "Mission Street", "amenity": "bar", "building": "yes", "height": "8", "name": "Dr. Teeth and the Electric Mayhem", "phone": "+1 (415) 285-2380", "source": "Bing", "website": "http://doctorteethsf.com"}}, {"type": "way", "id": 260152439, "nodes": [2656431676, 2656431694, 2656431698, 2656431701, 2656431685, 2656431687, 2656431679, 2656431676], "tags": {"addr:housenumber": "510", "addr:street": "Larkin Street", "amenity": "bar", "building": "yes", "name": "Emperor Norton's"}}, {"type": "way", "id": 260191202, "nodes": [2656770167, 2656770154, 2656770153, 2656770163, 2656770167], "tags": {"addr:housenumber": "736", "addr:street": "Valencia Street", "amenity": "bar", "building": "yes", "height": "16", "name": "Mission Cheese", "wifi": "no"}}, {"type": "way", "id": 260241908, "nodes": [2657227487, 2657227489, 2657227493, 2657227490, 2507796662, 2657227487], "tags": {"addr:city": "San Francisco", "addr:housenumber": "1015", "addr:postcode": "94103", "addr:state": "CA", "addr:street": "Folsom Street", "amenity": "bar", "building": "commercial", "name": "1015 Folsom", "website": "http://www.1015.com/"}}, {"type": "way", "id": 260322174, "nodes": [2657910477, 2657910469, 2657910479, 2657910473, 2657910529, 2657910531, 2657910481, 2657910477], "tags": {"addr:city": "San Francisco", "addr:housenumber": "500", "addr:postcode": "94110", "addr:state": "CA", "addr:street": "Guerrero Street", "amenity": "bar", "building": "yes", "height": "8", "name": "500 Club", "phone": "+1 415 8612500", "smoking": "no"}}, {"type": "way", "id": 263264445, "nodes": [2688818329, 2688818349, 2688818355, 2688818332, 2688818336, 2688818289, 2688818283, 2688818304, 2688818305, 2688818329], "tags": {"addr:city": "San Francisco", "addr:housenumber": "1787", "addr:postcode": "94123", "addr:street": "Union Street", "amenity": "bar", "building": "yes", "email": "info@brickyardsf.com", "height": "6", "name": "The Brick Yard", "phone": "+1 415 4004712", "website": "http://www.brickyardsf.com/"}}, {"type": "way", "id": 264254814, "nodes": [2914907615, 2914907610, 2914907609, 2699476096, 2699476097, 2699476098, 2914907612, 2914907613, 2914907616, 2914907615], "tags": {"addr:housenumber": "401", "addr:street": "Keith Street", "amenity": "bar", "building": "yes", "craft": "brewery", "height": "7", "name": "Speakeasy Ales & Lagers"}}, {"type": "way", "id": 267242909, "nodes": [2727141373, 1315578392, 2727141385, 2727141376, 2727141378, 2727141387, 2727141389, 2727141380, 2727141368, 2727141366, 2727141353, 4735352721, 2727141373], "tags": {"addr:city": "San Francisco", "addr:housenumber": "1233", "addr:postcode": "94107", "addr:state": "CA", "addr:street": "17th Street", "amenity": "bar", "building": "yes", "building:levels": "2", "height": "8", "name": "Bottom of the Hill", "outdoor_seating": "yes", "phone": "\u00a8+1-415-626-4455", "website": "http://www.bottomofthehill.com/", "wikidata": "Q4949139"}}, {"type": "way", "id": 272564476, "nodes": [2775081845, 2775081855, 2775081875, 2775111999, 2775111994, 2775111992, 2775081839, 2775081845], "tags": {"addr:city": "San Francisco", "addr:housenumber": "453", "addr:postcode": "94110", "addr:state": "CA", "addr:street": "Cortland Avenue", "amenity": "bar", "building": "yes", "height": "4", "name": "Lucky Horseshoe", "outdoor_seating": "no"}}, {"type": "way", "id": 272647185, "nodes": [2775872691, 2775872688, 2775872903, 2775872905, 2775872925, 2775872691], "tags": {"addr:housenumber": "2138;2142;2144;2146", "addr:street": "Chestnut Street", "amenity": "bar", "building": "yes", "height": "7", "name": "Marina Lounge"}}, {"type": "way", "id": 287411301, "nodes": [2910121667, 2910121666, 2910121665, 2910121680, 2910121681, 2910121667], "tags": {"addr:housenumber": "3625", "addr:postcode": "94121", "addr:street": "Balboa Street", "amenity": "bar", "building": "yes", "height": "7", "name": "Hockey Haven", "start_date": "1949"}}, {"type": "way", "id": 287720563, "nodes": [5550921663, 2912943571, 2912943527, 2017000509, 2912943509, 2912943508, 5550921662, 5550921663], "tags": {"addr:city": "San Francisco", "addr:country": "US", "addr:housenumber": "3639", "addr:postcode": "94116", "addr:state": "CA", "addr:street": "Taraval Street", "amenity": "bar", "building": "yes", "happy_hours": "Mo-Fr 16:00 - 19:00", "live_music": "Sa, Su", "name": "The Riptide", "opening_hours": "16:00-02:00", "website": "http://www.riptidesf.com"}}, {"type": "way", "id": 288538918, "nodes": [2920957171, 3699130254, 2920957173, 2920957137, 2920957126, 2920957125, 2920957133, 2920957131, 2920957150, 2920957171], "tags": {"addr:city": "San Francisco", "addr:country": "US", "addr:housenumber": "1439", "addr:postcode": "94116", "addr:state": "CA", "addr:street": "Taraval Street", "amenity": "bar", "building": "yes", "height": "6", "name": "Lost & Found", "opening_hours": "Mo-Th 17:00-01:00; Fr-Sa 17:00-02:00; Su 12:00-01:00"}}, {"type": "way", "id": 939437493, "nodes": [2508662906, 8702323478, 8702323479, 2508662927, 2508662906], "tags": {"addr:city": "San Francisco", "addr:housenumber": "43", "addr:postcode": "94103", "addr:state": "CA", "addr:street": "6th Street", "amenity": "bar", "building": "yes", "name": "Omg Club"}}]}