{"version": 0.6, "generator": "Overpass API 0.7.56.9 76e5016d", "osm3s": {"timestamp_osm_base": "2021-10-16T20:37:43Z", "copyright": "The data included in this document is from www.openstreetmap.org. The data is made available under ODbL."}, "elements": [{"type": "node", "id": 1950091917, "lat": -23.195239, "lon": -45.8734185, "tags": {"amenity": "police", "name": "Comando da PM"}}, {"type": "node", "id": 2223144817, "lat": -23.1862567, "lon": -45.8874997, "tags": {"amenity": "police", "name": "1o DP"}}, {"type": "node", "id": 2267667901, "lat": -23.1729162, "lon": -45.8447887}, {"type": "node", "id": 2267667918, "lat": -23.1729103, "lon": -45.8446814}, {"type": "node", "id": 2267668031, "lat": -23.1726883, "lon": -45.8447887}, {"type": "node", "id": 2267668058, "lat": -23.1726883, "lon": -45.8446867}, {"type": "node", "id": 2375131740, "lat": -23.2280994, "lon": -45.9190824, "tags": {"amenity": "police"}}, {"type": "node", "id": 2474442201, "lat": -23.2050768, "lon": -45.8885375}, {"type": "node", "id": 2474442203, "lat": -23.2051581, "lon": -45.8882606}, {"type": "node", "id": 2474442205, "lat": -23.2052836, "lon": -45.8883087}, {"type": "node", "id": 2474442207, "lat": -23.2053048, "lon": -45.8883298}, {"type": "node", "id": 2474442209, "lat": -23.2053101, "lon": -45.8883567}, {"type": "node", "id": 2474442211, "lat": -23.2053101, "lon": -45.8883856}, {"type": "node", "id": 2474442212, "lat": -23.2053384, "lon": -45.8883914}, {"type": "node", "id": 2474442214, "lat": -23.2053331, "lon": -45.8884125}, {"type": "node", "id": 2474442216, "lat": -23.2053631, "lon": -45.8884221}, {"type": "node", "id": 2474442218, "lat": -23.2053419, "lon": -45.8885029}, {"type": "node", "id": 2474442220, "lat": -23.2053013, "lon": -45.8885817}, {"type": "node", "id": 2474442222, "lat": -23.2052836, "lon": -45.8886164}, {"type": "node", "id": 2474442223, "lat": -23.2053269, "lon": -45.8884983}, {"type": "node", "id": 2474442225, "lat": -23.2052949, "lon": -45.8885805}, {"type": "node", "id": 2597432003, "lat": -23.2093953, "lon": -45.8916698}, {"type": "node", "id": 2597432004, "lat": -23.2093448, "lon": -45.8917538}, {"type": "node", "id": 2597432005, "lat": -23.2092236, "lon": -45.8916651}, {"type": "node", "id": 2597432006, "lat": -23.2092815, "lon": -45.8915799}, {"type": "node", "id": 2975062485, "lat": -23.2735834, "lon": -45.835489}, {"type": "node", "id": 2975062486, "lat": -23.2736654, "lon": -45.8356174}, {"type": "node", "id": 2975062487, "lat": -23.2736776, "lon": -45.8354176}, {"type": "node", "id": 2975062491, "lat": -23.2737597, "lon": -45.835546}, {"type": "node", "id": 3010897346, "lat": -23.1889909, "lon": -45.8767157, "tags": {"addr:city": "S\u00e3o Jos\u00e9 dos Campos", "addr:housenumber": "3", "addr:postcode": "12216-010", "addr:street": "Pra\u00e7a Carlos Gomes", "addr:suburb": "Jardim Paulista", "amenity": "police", "name": "Delegacia do 2\u00ba Distrito Policial", "operator": "Pol\u00edcia Civil"}}, {"type": "node", "id": 3064499261, "lat": -23.1847101, "lon": -45.8862887, "tags": {"amenity": "police", "name": "COI"}}, {"type": "node", "id": 4565534132, "lat": -23.246462, "lon": -45.915179, "tags": {"addr:city": "S\u00e3o Jos\u00e9 dos Campos", "addr:housenumber": "1200", "addr:postcode": "12237000", "addr:street": "Rua Jos\u00e9 Cobra", "addr:suburb": "Conjunto Residencial 31 de Mar\u00e7o", "amenity": "police", "name": "3\u00aa Delegacia de Pol\u00edcia", "operator": "Estado de S\u00e3o Paulo"}}, {"type": "node", "id": 4684460501, "lat": -23.2279353, "lon": -45.919137}, {"type": "node", "id": 4684460502, "lat": -23.228108, "lon": -45.9189413}, {"type": "node", "id": 4684460503, "lat": -23.2280826, "lon": -45.9192941}, {"type": "node", "id": 4684460504, "lat": -23.2282595, "lon": -45.9190938}, {"type": "node", "id": 5394322770, "lat": -23.1639216, "lon": -45.9133151, "tags": {"amenity": "police", "name": "Policia Ambiental"}}, {"type": "node", "id": 5394322771, "lat": -23.1639537, "lon": -45.9130173}, {"type": "node", "id": 5394322772, "lat": -23.1637983, "lon": -45.9130281}, {"type": "node", "id": 5394322773, "lat": -23.1638156, "lon": -45.9132641}, {"type": "node", "id": 5394322774, "lat": -23.163638, "lon": -45.9133633}, {"type": "node", "id": 5394322775, "lat": -23.1636282, "lon": -45.9134733}, {"type": "node", "id": 5394322776, "lat": -23.1637021, "lon": -45.913468}, {"type": "node", "id": 5394322777, "lat": -23.1637021, "lon": -45.9135243}, {"type": "node", "id": 5394322778, "lat": -23.1637317, "lon": -45.9135243}, {"type": "node", "id": 5394322779, "lat": -23.1637391, "lon": -45.9135565}, {"type": "node", "id": 5394322780, "lat": -23.1637909, "lon": -45.9135565}, {"type": "node", "id": 5394322781, "lat": -23.1637884, "lon": -45.9136316}, {"type": "node", "id": 5394322782, "lat": -23.1638969, "lon": -45.9136074}, {"type": "node", "id": 5394322783, "lat": -23.1638994, "lon": -45.9135135}, {"type": "node", "id": 5394322784, "lat": -23.1639685, "lon": -45.9134867}, {"type": "node", "id": 5394322785, "lat": -23.1639882, "lon": -45.9132266}, {"type": "node", "id": 5394323045, "lat": -23.1636329, "lon": -45.91342}, {"type": "node", "id": 5394323054, "lat": -23.1638191, "lon": -45.9130266}, {"type": "node", "id": 5398674952, "lat": -23.1028922, "lon": -45.7070354}, {"type": "node", "id": 5398674953, "lat": -23.103282, "lon": -45.706971}, {"type": "node", "id": 5398674954, "lat": -23.1032672, "lon": -45.7067564}, {"type": "node", "id": 6005971414, "lat": -23.2973609, "lon": -46.009482, "tags": {"amenity": "police", "name": "PRF", "police": "traffic_police"}}, {"type": "node", "id": 6008055093, "lat": -23.2493595, "lon": -45.9354829, "tags": {"amenity": "police", "name": "Pol\u00edcia Rodovi\u00e1ria Federal", "opening_hours": "24/7", "operator": "Pol\u00edcia Rodovi\u00e1ria Federal", "operator:wikidata": "Q1158853", "operator:wikipedia": "pt:Pol\u00edcia Rodovi\u00e1ria Federal", "phone": "+55 12 3931 7088", "police": "traffic_police"}}, {"type": "node", "id": 6013039949, "lat": -23.3195183, "lon": -45.7349422, "tags": {"amenity": "police", "police": "traffic_police"}}, {"type": "node", "id": 6384463712, "lat": -23.304475, "lon": -45.9676229}, {"type": "node", "id": 6384463713, "lat": -23.3044657, "lon": -45.9675033}, {"type": "node", "id": 6384463714, "lat": -23.3044525, "lon": -45.9674097}, {"type": "node", "id": 6384463715, "lat": -23.3043916, "lon": -45.9672238}, {"type": "node", "id": 6384463716, "lat": -23.3044048, "lon": -45.9672123}, {"type": "node", "id": 6384463717, "lat": -23.3043903, "lon": -45.9671662}, {"type": "node", "id": 6384463718, "lat": -23.3044538, "lon": -45.9671373}, {"type": "node", "id": 6384463719, "lat": -23.3045358, "lon": -45.9673809}, {"type": "node", "id": 6384463720, "lat": -23.3045424, "lon": -45.9674702}, {"type": "node", "id": 6384463721, "lat": -23.3045305, "lon": -45.9674803}, {"type": "node", "id": 6384463722, "lat": -23.3045319, "lon": -45.9676316}, {"type": "node", "id": 6858697820, "lat": -23.181378, "lon": -45.8303045, "tags": {"amenity": "police"}}, {"type": "node", "id": 6860939739, "lat": -23.139234, "lon": -45.785857, "tags": {"amenity": "police"}}, {"type": "node", "id": 6956293131, "lat": -23.1112061, "lon": -45.7099141}, {"type": "node", "id": 6956293132, "lat": -23.111351, "lon": -45.7102081}, {"type": "node", "id": 6956379811, "lat": -23.1028511, "lon": -45.7068249}, {"type": "node", "id": 7063505416, "lat": -23.1950095, "lon": -45.8736625}, {"type": "node", "id": 7063505417, "lat": -23.1950774, "lon": -45.87375}, {"type": "node", "id": 7063505418, "lat": -23.1955441, "lon": -45.8733324}, {"type": "node", "id": 7063505419, "lat": -23.1954771, "lon": -45.8732419}, {"type": "node", "id": 7205905508, "lat": -23.2838222, "lon": -45.9521681}, {"type": "node", "id": 7205905509, "lat": -23.2846789, "lon": -45.9521877}, {"type": "node", "id": 7205905510, "lat": -23.285123, "lon": -45.9519079}, {"type": "node", "id": 7205905511, "lat": -23.2848631, "lon": -45.9525096}, {"type": "node", "id": 7235824198, "lat": -23.1067023, "lon": -45.6975426}, {"type": "node", "id": 7235824199, "lat": -23.1067523, "lon": -45.6975063}, {"type": "node", "id": 7235824200, "lat": -23.1067318, "lon": -45.6974729}, {"type": "node", "id": 7235824201, "lat": -23.1067877, "lon": -45.6974324}, {"type": "node", "id": 7235824202, "lat": -23.1067452, "lon": -45.697363}, {"type": "node", "id": 7235824203, "lat": -23.1066393, "lon": -45.6974398}, {"type": "node", "id": 7653856933, "lat": -23.1110617, "lon": -45.7101107}, {"type": "node", "id": 7653856935, "lat": -23.1110186, "lon": -45.7100233}, {"type": "node", "id": 7653856936, "lat": -23.1111465, "lon": -45.7100613}, {"type": "node", "id": 7653856937, "lat": -23.1112484, "lon": -45.7102679}, {"type": "node", "id": 7684094580, "lat": -23.2844014, "lon": -45.9517977}, {"type": "node", "id": 7722478017, "lat": -23.2639349, "lon": -45.9611307, "tags": {"addr:street": "Avenida Louren\u00e7o da Silva", "amenity": "police", "name": "4\u00ba Distrito Policial - Jacare\u00ed", "operator": "Secretaria da Seguran\u00e7a P\u00fablica do Estado de S\u00e3o Paulo"}}, {"type": "node", "id": 7782380638, "lat": -23.3658307, "lon": -46.0255853}, {"type": "node", "id": 7782380639, "lat": -23.3658968, "lon": -46.0255021}, {"type": "node", "id": 7782380640, "lat": -23.3658144, "lon": -46.0254244}, {"type": "node", "id": 7782380641, "lat": -23.3657323, "lon": -46.0255278}, {"type": "node", "id": 7782380642, "lat": -23.36579, "lon": -46.0255822}, {"type": "node", "id": 7782380643, "lat": -23.365806, "lon": -46.0255621}, {"type": "node", "id": 7782380644, "lat": -23.3658029, "lon": -46.0257625}, {"type": "node", "id": 7782380645, "lat": -23.3658707, "lon": -46.0256775}, {"type": "node", "id": 7782380646, "lat": -23.3657181, "lon": -46.0255223}, {"type": "node", "id": 7782380647, "lat": -23.3656435, "lon": -46.025611}, {"type": "node", "id": 7804451249, "lat": -23.2587742, "lon": -45.8864274, "tags": {"amenity": "police", "description": "2 CIA 46 BPM/I Pol\u00edcia Militar Av. Cidade Jardim, 5130 - Bosque dos Eucaliptos, S\u00e3o Jos\u00e9 dos Campos - SP, 12233-002", "name": "2\u00ba CIA Policia Militar"}}, {"type": "node", "id": 8477976682, "lat": -23.230905, "lon": -45.8850112}, {"type": "node", "id": 8477976683, "lat": -23.2309068, "lon": -45.8848811}, {"type": "node", "id": 8477976684, "lat": -23.2306136, "lon": -45.8848648}, {"type": "node", "id": 8477976685, "lat": -23.230608, "lon": -45.884998}, {"type": "node", "id": 8558745330, "lat": -23.2549699, "lon": -45.6934045}, {"type": "node", "id": 8558745331, "lat": -23.2550206, "lon": -45.6934249}, {"type": "node", "id": 8558745332, "lat": -23.2550604, "lon": -45.6933072}, {"type": "node", "id": 8558745333, "lat": -23.2550097, "lon": -45.6932869}, {"type": "node", "id": 8831994418, "lat": -23.2249299, "lon": -45.9213284, "tags": {"addr:housenumber": "1709", "addr:postcode": "12240000", "addr:street": "Avenida Doutor Jo\u00e3o Batista Soares de Queiroz J\u00fanior", "amenity": "police", "name": "SegTronica, grupo engeseg", "opening_hours": "Mo-Sa 09:00-18:00", "phone": "1221382800"}}, {"type": "node", "id": 8839972417, "lat": -23.230928, "lon": -45.9157285, "tags": {"addr:city": "S\u00e3o Jos\u00e9 dos Campos", "addr:postcode": "12240000", "addr:street": "Avenida Doutor Jo\u00e3o Batista Soares de Queiroz J\u00fanior", "amenity": "police", "name": "8\u00ba Distrito Policial", "opening_hours": "24/7", "phone": "1239319314"}}, {"type": "node", "id": 8840162617, "lat": -23.2235091, "lon": -45.9183435, "tags": {"addr:housenumber": "1125", "addr:street": "Avenida Doutor Jo\u00e3o Batista Soares de Queiroz J\u00fanior", "amenity": "police", "name": "Associa\u00e7\u00e3o dos cabos e soldados da PM de SP", "phone": "1239337655"}}, {"type": "node", "id": 9038463201, "lat": -23.1891506, "lon": -45.8769055}, {"type": "node", "id": 9038463202, "lat": -23.1889085, "lon": -45.8767676}, {"type": "node", "id": 9038463203, "lat": -23.188983, "lon": -45.8766128}, {"type": "node", "id": 9038463204, "lat": -23.1891569, "lon": -45.8767119}, {"type": "node", "id": 9038463205, "lat": -23.1891195, "lon": -45.8767896}, {"type": "node", "id": 9038463206, "lat": -23.1891876, "lon": -45.8768285}, {"type": "node", "id": 9048724250, "lat": -23.1952433, "lon": -45.8734522}, {"type": "node", "id": 9048724251, "lat": -23.1953016, "lon": -45.8733977, "tags": {"access": "yes", "entrance": "main"}}, {"type": "way", "id": 217495554, "nodes": [2267667901, 2267667918, 2267668058, 2267668031, 2267667901], "tags": {"amenity": "police", "building": "yes", "name": "Pol\u00edcia Civil"}}, {"type": "way", "id": 239666779, "nodes": [2474442201, 2474442203, 2474442205, 2474442207, 2474442209, 2474442211, 2474442212, 2474442214, 2474442216, 2474442218, 2474442223, 2474442220, 2474442225, 2474442222, 2474442201], "tags": {"amenity": "police", "building": "yes", "building:levels": "2", "name": "Delegacia da Pol\u00edcia Federal"}}, {"type": "way", "id": 253864682, "nodes": [2597432003, 2597432004, 2597432005, 2597432006, 2597432003], "tags": {"amenity": "police", "building": "yes", "name": "Pol\u00edcia Militar"}}, {"type": "way", "id": 293934021, "nodes": [2975062486, 2975062491, 2975062487, 2975062485, 2975062486], "tags": {"amenity": "police", "building": "yes", "name": "Policia Rodoviaria Estadual 192", "police": "traffic_police"}}, {"type": "way", "id": 474498015, "nodes": [4684460501, 4684460503, 4684460504, 4684460502, 4684460501], "tags": {"amenity": "police", "building": "yes"}}, {"type": "way", "id": 559245662, "nodes": [5394322771, 5394323054, 5394322772, 5394322773, 5394322774, 5394323045, 5394322775, 5394322776, 5394322777, 5394322778, 5394322779, 5394322780, 5394322781, 5394322782, 5394322783, 5394322784, 5394322785, 5394322771], "tags": {"amenity": "police", "building": "yes", "name": "Policia Ambiental"}}, {"type": "way", "id": 559793065, "nodes": [5398674952, 5398674953, 5398674954, 6956379811, 5398674952], "tags": {"amenity": "police", "building": "yes"}}, {"type": "way", "id": 560221939, "nodes": [7653856933, 7653856936, 7653856937, 6956293132, 6956293131, 7653856935, 7653856933], "tags": {"amenity": "police", "building": "yes"}}, {"type": "way", "id": 681749711, "nodes": [6384463718, 6384463719, 6384463720, 6384463721, 6384463722, 6384463712, 6384463713, 6384463714, 6384463715, 6384463716, 6384463717, 6384463718], "tags": {"amenity": "police", "building": "yes", "name": "Policia Militar do Estado de S\u00e3o Paulo", "operator": "Policia Militar do Estado de S\u00e3o Paulo"}}, {"type": "way", "id": 756269712, "nodes": [7063505416, 7063505417, 7063505418, 7063505419, 9048724251, 9048724250, 7063505416], "tags": {"addr:city": "S\u00e3o Jos\u00e9 dos Campos", "addr:street": "Rua Gen\u00e9sia Berardineli Tarantino", "addr:suburb": "Jardim Paulista", "amenity": "police", "building": "yes", "name": "1\u00baBPM/I - 1\u00ba Batalh\u00e3o de Pol\u00edcia Militar do Interior"}}, {"type": "way", "id": 771875216, "nodes": [7205905508, 7684094580, 7205905509, 7205905510, 7205905511, 7205905508], "tags": {"addr:street": "Avenida Get\u00falio Vargas", "amenity": "police", "name": "CPI/I 41\u00ba BPM/I"}}, {"type": "way", "id": 775622239, "nodes": [7235824203, 7235824202, 7235824201, 7235824200, 7235824199, 7235824198, 7235824203], "tags": {"amenity": "police", "building": "yes", "building:levels": "1", "name": "PRF - Pol\u00edcia Rodovi\u00e1ria Federal", "opening_hours": "24/7", "operator": "Pol\u00edcia Rodovi\u00e1ria Federal", "operator:wikidata": "Q1158853", "operator:wikipedia": "pt:Pol\u00edcia Rodovi\u00e1ria Federal", "phone": "+55 12 3652 3011", "source": "DGP;Mapillary"}}, {"type": "way", "id": 833687458, "nodes": [7782380638, 7782380639, 7782380640, 7782380641, 7782380642, 7782380643, 7782380638], "tags": {"addr:street": "Avenida Projetada", "amenity": "police", "building": "yes", "name": "14\u00ba Distrito Policial"}}, {"type": "way", "id": 833687459, "nodes": [7782380644, 7782380645, 7782380646, 7782380647, 7782380644], "tags": {"amenity": "police", "building": "yes"}}, {"type": "way", "id": 912640802, "nodes": [8477976682, 8477976683, 8477976684, 8477976685, 8477976682], "tags": {"amenity": "police", "building": "yes", "name": "Pol\u00edcia Civil"}}, {"type": "way", "id": 921895777, "nodes": [8558745330, 8558745331, 8558745332, 8558745333, 8558745330], "tags": {"addr:street": "Rua Hil\u00e1rio Firmino", "amenity": "police", "building": "yes"}}, {"type": "way", "id": 976727797, "nodes": [9038463201, 9038463202, 9038463203, 9038463204, 9038463205, 9038463206, 9038463201], "tags": {"addr:city": "S\u00e3o Jos\u00e9 dos Campos", "addr:street": "Pra\u00e7a Duque de Caxias", "addr:suburb": "Jardim Paulista", "amenity": "police", "building": "yes", "name": "Delegacia do 2\u00ba Distrito Policial"}}]}